ID,Origin,media,url,zipcode,lat,lon,poblacion,provincia,comunidad autonoma,comarca
0,"Iberfier, CAC, OJD",el 9 nou,el9nou.cat,08500,2255735690.0,41928383540.0,Vic,Barcelona,Cataluña,Osona
2,"Iberfier, CAC, OJD",betevé,beteve.cat,08099,,,,,,
3,"Iberfier, CAC, OJD",pirineus tv,pirineustv.cat,25700,1461979470.0,42357708850.0,La Seu d'Urgell,Lleida,Cataluña,Alt Urgell
4,"Iberfier, CAC, OJD",ràdio sabadell,radiosabadell.fm,08202,2107789940.0,41546958990.0,Sabadell,Barcelona,Cataluña,Vallès Occidental
5,"AMIC, Iberfier, OJD",adolescents,adolescents.cat,08500,2255735690.0,41928383540.0,Vic,Barcelona,Cataluña,Osona
7,"AMIC, Iberfier, OJD",laopiniondetorrent,laopiniondetorrent.es,46900,-0.46496185,39437084860.0,Torrent,Valencia/València,Comunidad Valenciana,L'Horta Sud
8,"AMIC, Iberfier, OJD",fosbury,fosbury.cat,08750,2017369080.0,41413211100.0,Molins de Rei,Barcelona,Cataluña,Baix Llobregat
9,"AMIC, Iberfier, OJD",comunicacio21,comunicacio21.cat,08013,2176349270.0,41384246640.0,Barcelona,Barcelona,Cataluña,Barcelonès
13,"AMIC, Iberfier, OJD",surtdecasa,surtdecasa.cat,43520,0.50335187,40820390610.0,Roquetes,Tarragona,Cataluña,Baix Ebre
14,"AMIC, Iberfier, OJD",festadirecte,festadirecte.cat,08014,2176349270.0,41384246640.0,Barcelona,Barcelona,Cataluña,Barcelonès
15,"AMIC, Iberfier, OJD",jornal,jornal.cat,08196,2085264720.0,41473454030.0,Sant Cugat del Vallès,Barcelona,Cataluña,Vallès Occidental
16,"AMIC, Iberfier, OJD",diarieducacio,diarieducacio.cat,08029,2176349270.0,41384246640.0,Barcelona,Barcelona,Cataluña,Barcelonès
17,"AMIC, Iberfier, OJD",gastronomicament,gastronomicament.cat,07005,2651816980.0,39571146990.0,Palma,Illes Balears,Illes Balears,
18,"AMIC, Iberfier, OJD",diaridelmaestrat,diaridelmaestrat.com,12500,0.47487433,40470925950.0,Vinaròs,Castellón/Castelló,Comunidad Valenciana,El Baix Maestrat
19,"AMIC, Iberfier, OJD",eltemps,eltemps.cat,46001,-0.37565717,39475344410.0,València,Valencia/València,Comunidad Valenciana,València
21,"AMIC, Iberfier, OJD",meseconomia,meseconomia.cat,08014,2176349270.0,41384246640.0,Barcelona,Barcelona,Cataluña,Barcelonès
22,"AMIC, Iberfier, OJD",elcritic,elcritic.cat,08010,2176349270.0,41384246640.0,Barcelona,Barcelona,Cataluña,Barcelonès
23,"AMIC, Iberfier, OJD",elmon,elmon.cat,08221,2012151410.0,41562363460.0,Terrassa,Barcelona,Cataluña,Vallès Occidental
28,"AMIC, Iberfier, OJD",anoiadiari,anoiadiari.cat,08700,1618295880.0,41578950960.0,Igualada,Barcelona,Cataluña,Anoia
29,"AMIC, Iberfier, OJD",aquibergueda,aquibergueda.cat,08600,1844024700.0,42103288740.0,Berga,Barcelona,Cataluña,Berguedà
30,"AMIC, Iberfier, OJD",balaguer,balaguer.tv,25600,0.80457795,41791522870.0,Balaguer,Lleida,Cataluña,Noguera
31,"AMIC, Iberfier, OJD",comarquesdeponent,comarquesdeponent.com,25300,1139354290.0,41646584520.0,Tàrrega,Lleida,Cataluña,Urgell
32,"AMIC, Iberfier, OJD",comarquesnord,comarquesnord.cat,44586,,,,,,
34,"AMIC, Iberfier, OJD",diaridegirona,diaridegirona.cat,17002,2824118990.0,41981860750.0,Girona,Girona,Cataluña,Gironès
35,"AMIC, Iberfier, OJD",diaridesabadell,diaridesabadell.com,08201,2107789940.0,41546958990.0,Sabadell,Barcelona,Cataluña,Vallès Occidental
36,"AMIC, Iberfier, OJD",ebredigital,ebredigital.cat,43500,0.52500631,40811021460.0,Tortosa,Tarragona,Cataluña,Baix Ebre
37,"AMIC, Iberfier, OJD",eixdiari,eixdiari.cat,08800,1723839900.0,41227219910.0,Vilanova i la Geltrú,Barcelona,Cataluña,Garraf
38,"AMIC, Iberfier, OJD",elcargol,elcargol.com,08720,1697746700.0,41347212100.0,Vilafranca del Penedès,Barcelona,Cataluña,Alt Penedès
39,"AMIC, Iberfier, OJD",elcugatenc,elcugatenc.cat,08172,2085264720.0,41473454030.0,Sant Cugat del Vallès,Barcelona,Cataluña,Vallès Occidental
40,"AMIC, Iberfier, OJD",expresdesantandreu,expresdesantandreu.cat,08389,2749183640.0,41667270490.0,Palafolls,Barcelona,Cataluña,Maresme
41,"AMIC, Iberfier, OJD",infoanoia,infoanoia.cat,08788,1639334120.0,41571618020.0,Vilanova del Camí,Barcelona,Cataluña,Anoia
42,"AMIC, Iberfier, OJD",infocamp,infocamp.cat,43001,1258421900.0,41119102870.0,Tarragona,Tarragona,Cataluña,Tarragonès
43,"AMIC, Iberfier, OJD",labustia,labustia.cat,08640,1893873090.0,41545840160.0,Olesa de Montserrat,Barcelona,Cataluña,Baix Llobregat
44,"AMIC, Iberfier, OJD",laguiadereus,laguiadereus.com,43203,1109861180.0,41154107250.0,Reus,Tarragona,Cataluña,Baix Camp
45,"AMIC, Iberfier, OJD",lamanyana,lamanyana.cat,25004,0.62061934,41615273550.0,Lleida,Lleida,Cataluña,Segrià
46,"AMIC, Iberfier, OJD",lapremsadelbaix,lapremsadelbaix.es,08940,2070132020.0,41355469340.0,Cornellà de Llobregat,Barcelona,Cataluña,Baix Llobregat
47,"AMIC, Iberfier, OJD",marfanta,marfanta.com,43500,0.52500631,40811021460.0,Tortosa,Tarragona,Cataluña,Baix Ebre
48,"AMIC, Iberfier, OJD",mesebre,mesebre.cat,43007,1258421900.0,41119102870.0,Tarragona,Tarragona,Cataluña,Tarragonès
49,"AMIC, Iberfier, OJD",mesosona,mesosona.cat,08500,2255735690.0,41928383540.0,Vic,Barcelona,Cataluña,Osona
50,"AMIC, Iberfier, OJD",mollerussa,mollerussa.tv,25230,0.89391515,41629676820.0,Mollerussa,Lleida,Cataluña,Pla d'Urgell
51,"AMIC, Iberfier, OJD",noticiestgn,noticiestgn.cat,43003,1258421900.0,41119102870.0,Tarragona,Tarragona,Cataluña,Tarragonès
52,"AMIC, Iberfier, OJD",onabages,onabages.cat,08650,1896570430.0,41823657700.0,Sallent,Barcelona,Cataluña,Bages
54,"AMIC, Iberfier, OJD",reusdigital,reusdigital.cat,43204,1109861180.0,41154107250.0,Reus,Tarragona,Cataluña,Baix Camp
55,"AMIC, Iberfier, OJD",revistacambrils,revistacambrils.cat,43850,1051797780.0,41074451700.0,Cambrils,Tarragona,Cataluña,Baix Camp
56,"AMIC, Iberfier, OJD",somlallagosta,somlallagosta.cat,08020,2176349270.0,41384246640.0,Barcelona,Barcelona,Cataluña,Barcelonès
57,"AMIC, Iberfier, OJD",somlesfranqueses,somlesfranqueses.cat,08020,2176349270.0,41384246640.0,Barcelona,Barcelona,Cataluña,Barcelonès
58,"AMIC, Iberfier, OJD",sommartorelles,sommartorelles.cat,08020,2176349270.0,41384246640.0,Barcelona,Barcelona,Cataluña,Barcelonès
59,"AMIC, Iberfier, OJD",somparets,somparets.cat,08020,2176349270.0,41384246640.0,Barcelona,Barcelona,Cataluña,Barcelonès
60,"AMIC, Iberfier, OJD",somsantfost,somsantfost.cat,08020,2176349270.0,41384246640.0,Barcelona,Barcelona,Cataluña,Barcelonès
61,"AMIC, Iberfier, OJD",tarragonadigital,tarragonadigital.com,08202,2107789940.0,41546958990.0,Sabadell,Barcelona,Cataluña,Vallès Occidental
62,"AMIC, Iberfier, OJD",tarrega,tarrega.tv,25300,1139354290.0,41646584520.0,Tàrrega,Lleida,Cataluña,Urgell
63,"AMIC, Iberfier, OJD",totsantcugat,totsantcugat.cat,08172,2085264720.0,41473454030.0,Sant Cugat del Vallès,Barcelona,Cataluña,Vallès Occidental
64,"AMIC, Iberfier, OJD",veuanoia,veuanoia.cat,08700,1618295880.0,41578950960.0,Igualada,Barcelona,Cataluña,Anoia
66,"AMIC, Iberfier, OJD",radiocapital,radiocapital.cat,17256,3110317150.0,41988743210.0,Palau-sator,Girona,Cataluña,Baix Empordà
67,"AMIC, Iberfier, OJD",lamira,lamira.cat,08010,2176349270.0,41384246640.0,Barcelona,Barcelona,Cataluña,Barcelonès
68,"AMIC, Iberfier, OJD",enderrock,enderrock.cat,08008,2176349270.0,41384246640.0,Barcelona,Barcelona,Cataluña,Barcelonès
70,"AMIC, Iberfier, OJD",socpetit,socpetit.cat,08770,2489840400.0,41689717400.0,Sant Celoni,Barcelona,Cataluña,Vallès Oriental
71,"AMIC, Iberfier, OJD",diaritreball,diaritreball.cat,08029,2176349270.0,41384246640.0,Barcelona,Barcelona,Cataluña,Barcelonès
73,"AMIC, Iberfier, OJD",timeout,timeout.cat,08002,2176349270.0,41384246640.0,Barcelona,Barcelona,Cataluña,Barcelonès
74,"AMIC, Iberfier, OJD",diarisanitat,diarisanitat.cat,08029,2176349270.0,41384246640.0,Barcelona,Barcelona,Cataluña,Barcelonès
75,"AMIC, Iberfier, OJD",racocatala,racocatala.cat,08010,2176349270.0,41384246640.0,Barcelona,Barcelona,Cataluña,Barcelonès
76,"AMIC, Iberfier, OJD",panxing,panxing.net,08339,2358334630.0,41517491900.0,Vilassar de Dalt,Barcelona,Cataluña,Maresme
77,"AMIC, Iberfier, OJD",loclar,loclar.es,46870,-0.60649062,38822881290.0,Ontinyent,Valencia/València,Comunidad Valenciana,La Vall d'Albaida
78,"AMIC, Iberfier, OJD",dbalears,dbalears.cat,07011,2651816980.0,39571146990.0,Palma,Illes Balears,Illes Balears,
82,"AMIC, Iberfier, OJD",noudiari,noudiari.es,07800,1436229030.0,38906669470.0,Eivissa,Illes Balears,Illes Balears,
83,"AMIC, Iberfier, OJD",saveu,saveu.cat,07100,2714137670.0,39764457300.0,Sóller,Illes Balears,Illes Balears,
85,"AMIC, Iberfier, OJD",aramultimedia,aramultimedia.com,03801,-0.47318376,38698368940.0,Alcoi/Alcoy,Alicante/Alacant,Comunidad Valenciana,L'Alcoià
86,"AMIC, Iberfier, OJD",castelloextra,castelloextra.com,46017,-0.37565717,39475344410.0,València,Valencia/València,Comunidad Valenciana,València
87,"AMIC, Iberfier, OJD",valenciaextra,valenciaextra.com,46017,-0.37565717,39475344410.0,València,Valencia/València,Comunidad Valenciana,València
88,"AMIC, OJD",fibwidiario,fibwidiario.com,07121,,,,,,
89,"AMIC, OJD",laconca51,laconca51.cat,43400,1161715650.0,41377055490.0,Montblanc,Tarragona,Cataluña,Conca de Barberà
90,"AMIC, OJD",festacatalunya,festacatalunya.cat,08711,1638468210.0,41605410910.0,Òdena,Barcelona,Cataluña,Anoia
91,"AMIC, OJD",apuntmenorca,apuntmenorca.com,07701,4265465550.0,39887522180.0,Maó-Mahón,Illes Balears,Illes Balears,
92,"AMIC, OJD",tornaveu,tornaveu.cat,08221,2012151410.0,41562363460.0,Terrassa,Barcelona,Cataluña,Vallès Occidental
93,"AMIC, OJD",exterior,exterior.cat,08013,2176349270.0,41384246640.0,Barcelona,Barcelona,Cataluña,Barcelonès
94,"AMIC, OJD",cultura21,cultura21.cat,08013,2176349270.0,41384246640.0,Barcelona,Barcelona,Cataluña,Barcelonès
95,"AMIC, OJD",elmoncasteller,elmoncasteller.cat,08014,2176349270.0,41384246640.0,Barcelona,Barcelona,Cataluña,Barcelonès
96,"AMIC, OJD",escaparatedigital,escaparatedigital.com,03440,-0.57466482,38627456820.0,Ibi,Alicante/Alacant,Comunidad Valenciana,L'Alcoià
97,"AMIC, OJD",indicadordeeconomia,indicadordeeconomia.com,43203,1109861180.0,41154107250.0,Reus,Tarragona,Cataluña,Baix Camp
98,"AMIC, OJD",lesvegueries,lesvegueries.cat,08720,1697746700.0,41347212100.0,Vilafranca del Penedès,Barcelona,Cataluña,Alt Penedès
99,"AMIC, OJD",cronica,cronica.es,46900,-0.46496185,39437084860.0,Torrent,Valencia/València,Comunidad Valenciana,L'Horta Sud
100,"AMIC, OJD",bellaterradiari,bellaterradiari.cat,08193,2139892600.0,41491340540.0,Cerdanyola del Vallès,Barcelona,Cataluña,Vallès Occidental
101,"AMIC, OJD",canal21ebre,canal21ebre.com,03500,,,,,,
102,"AMIC, OJD",diarideterrassa,diarideterrassa.com,08221,2012151410.0,41562363460.0,Terrassa,Barcelona,Cataluña,Vallès Occidental
103,"AMIC, OJD",lafurapenedes,lafurapenedes.cat,08720,1697746700.0,41347212100.0,Vilafranca del Penedès,Barcelona,Cataluña,Alt Penedès
104,"AMIC, OJD",molletama,molletama.cat,08020,2176349270.0,41384246640.0,Barcelona,Barcelona,Cataluña,Barcelonès
105,"AMIC, OJD",monterrassa,monterrassa.cat,08221,2012151410.0,41562363460.0,Terrassa,Barcelona,Cataluña,Vallès Occidental
107,"AMIC, OJD",pallarsdigital,pallarsdigital.cat,25620,0.8956651,42167276630.0,Tremp,Lleida,Cataluña,Pallars Jussà
108,"AMIC, OJD",tdbactualitat,tdbactualitat.cat,43830,1395579220.0,41145081280.0,Torredembarra,Tarragona,Cataluña,Tarragonès
109,"AMIC, OJD",totcerdanyola,totcerdanyola.cat,08172,2085264720.0,41473454030.0,Sant Cugat del Vallès,Barcelona,Cataluña,Vallès Occidental
110,"AMIC, OJD",totrubi,totrubi.cat,08172,2085264720.0,41473454030.0,Sant Cugat del Vallès,Barcelona,Cataluña,Vallès Occidental
111,"AMIC, OJD",laveudelsllibres,laveudelsllibres.cat,08221,2012151410.0,41562363460.0,Terrassa,Barcelona,Cataluña,Vallès Occidental
113,"AMIC, OJD",7diesactualitat,7diesactualitat.com,12500,0.47487433,40470925950.0,Vinaròs,Castellón/Castelló,Comunidad Valenciana,El Baix Maestrat
114,"AMIC, OJD",monplaneta,monplaneta.cat,08221,2012151410.0,41562363460.0,Terrassa,Barcelona,Cataluña,Vallès Occidental
115,"AMIC, OJD",viasona,viasona.cat,08010,2176349270.0,41384246640.0,Barcelona,Barcelona,Cataluña,Barcelonès
116,"AMIC, OJD",uepmallorca,uepmallorca.app,07600,2890301650.0,39490755010.0,Llucmajor,Illes Balears,Illes Balears,
118,"AMIC, OJD",lasbandasdemusica,lasbandasdemusica.com,46011,-0.37565717,39475344410.0,València,Valencia/València,Comunidad Valenciana,València
119,"AMIC, OJD",elmondelatele,elmondelatele.cat,08202,2107789940.0,41546958990.0,Sabadell,Barcelona,Cataluña,Vallès Occidental
120,"AMIC, OJD",periodicontinyent,periodicontinyent.com,46870,-0.60649062,38822881290.0,Ontinyent,Valencia/València,Comunidad Valenciana,La Vall d'Albaida
121,"AMIC, OJD",castello24,castello24.com,46005,-0.37565717,39475344410.0,València,Valencia/València,Comunidad Valenciana,València
122,"AMIC, OJD",foravila,foravila.net,07100,2714137670.0,39764457300.0,Sóller,Illes Balears,Illes Balears,
123,"AMIC, OJD",balearsvadevi,balearsvadevi.cat,08221,2012151410.0,41562363460.0,Terrassa,Barcelona,Cataluña,Vallès Occidental
125,"AMIC, OJD",digitalmanacor,digitalmanacor.com,07500,3209521360.0,39568890810.0,Manacor,Illes Balears,Illes Balears,El Levante de Mallorca/ es Llevant de Mallorca
126,"AMIC, OJD",eliris,eliris.cat,07760,3837940370.0,40001919410.0,Ciutadella de Menorca,Illes Balears,Illes Balears,
127,"AMIC, OJD",mallorcadiario,mallorcadiario.com,07141,2753079470.0,39641630140.0,Marratxí,Illes Balears,Illes Balears,
128,"AMIC, OJD",menorcaaldia,menorcaaldia.com,07702,4265465550.0,39887522180.0,Maó-Mahón,Illes Balears,Illes Balears,
129,"AMIC, OJD",menorca,menorca.info,07714,4265465550.0,39887522180.0,Maó-Mahón,Illes Balears,Illes Balears,
130,"AMIC, OJD",palmesana,palmesana.com,07005,2651816980.0,39571146990.0,Palma,Illes Balears,Illes Balears,
131,"AMIC, OJD",revista07500,revista07500.com,07500,3209521360.0,39568890810.0,Manacor,Illes Balears,Illes Balears,El Levante de Mallorca/ es Llevant de Mallorca
132,"AMIC, OJD",ultimahora,ultimahora.es,07011,2651816980.0,39571146990.0,Palma,Illes Balears,Illes Balears,
133,"AMIC, OJD",firesifestes,firesifestes.es,07350,2842185490.0,39688989570.0,Binissalem,Illes Balears,Illes Balears,
134,"AMIC, OJD",alicantextra,alicantextra.com,46017,-0.37565717,39475344410.0,València,Valencia/València,Comunidad Valenciana,València
135,"AMIC, OJD",castellonoticies,castellonoticies.com,08221,2012151410.0,41562363460.0,Terrassa,Barcelona,Cataluña,Vallès Occidental
137,"AMIC, OJD",revistapoble,revistapoble.net,12540,-0.1007625,39938149570.0,Vila-real,Castellón/Castelló,Comunidad Valenciana,La Plana Baixa
138,"AMIC, OJD",revistasao,revistasao.cat,46018,-0.37565717,39475344410.0,València,Valencia/València,Comunidad Valenciana,València
139,"AMIC, OJD",tvdigitalontinyent,tvdigitalontinyent.com,46870,-0.60649062,38822881290.0,Ontinyent,Valencia/València,Comunidad Valenciana,La Vall d'Albaida
140,"AMIC, OJD",diariandorra,diariandorra.ad,,,,,,,
141,"Iberfier, OJD",aldia.cat,aldia.cat,08015,2176349270.0,41384246640.0,Barcelona,Barcelona,Cataluña,Barcelonès
142,"Iberfier, OJD",alicante plaza,alicanteplaza.es,46002,-0.37565717,39475344410.0,València,Valencia/València,Comunidad Valenciana,València
143,"Iberfier, OJD",betera.com,betera.com,46190,-0.57061222,39546025350.0,Riba-roja de Túria,Valencia/València,Comunidad Valenciana,El Camp de Túria
144,"Iberfier, OJD",camp de túria,camp-de-turia.es,46190,-0.57061222,39546025350.0,Riba-roja de Túria,Valencia/València,Comunidad Valenciana,El Camp de Túria
145,"Iberfier, OJD",castellón plaza,castellonplaza.com,46002,-0.37565717,39475344410.0,València,Valencia/València,Comunidad Valenciana,València
146,"Iberfier, OJD",catalunya diari,catalunyadiari.com,08006,2176349270.0,41384246640.0,Barcelona,Barcelona,Cataluña,Barcelonès
147,"Iberfier, OJD",catorze,catorze.cat,08024,2176349270.0,41384246640.0,Barcelona,Barcelona,Cataluña,Barcelonès
148,"Iberfier, OJD",comarcal cv,comarcalcv.com,46900,-0.46496185,39437084860.0,Torrent,Valencia/València,Comunidad Valenciana,L'Horta Sud
149,"Iberfier, OJD",cugat.cat,cugat.cat,08172,2085264720.0,41473454030.0,Sant Cugat del Vallès,Barcelona,Cataluña,Vallès Occidental
150,"Iberfier, OJD",cuina,cuina.cat,08020,2176349270.0,41384246640.0,Barcelona,Barcelona,Cataluña,Barcelonès
151,"Iberfier, OJD",dénia.com,denia.com,03700,0.10661934,38841227050.0,Dénia,Alicante/Alacant,Comunidad Valenciana,La Marina Alta
152,"Iberfier, OJD",descobrir,descobrir.cat,08020,2176349270.0,41384246640.0,Barcelona,Barcelona,Cataluña,Barcelonès
153,"Iberfier, OJD",diari digital,diaridigital.es,46800,-0.51869568,38987971160.0,Xàtiva,Valencia/València,Comunidad Valenciana,La Costera
154,"Iberfier, OJD",diario de alicante,diariodealicante.net,46007,-0.37565717,39475344410.0,València,Valencia/València,Comunidad Valenciana,València
155,"Iberfier, OJD",directa,directa.cat,08028,2176349270.0,41384246640.0,Barcelona,Barcelona,Cataluña,Barcelonès
156,"Iberfier, OJD",el meridiano l'horta,elmeridiano.es,46023,-0.37565717,39475344410.0,València,Valencia/València,Comunidad Valenciana,València
157,"Iberfier, OJD",elperiodic.com,elperiodic.com,12530,0.42396296,40418890480.0,Benicarló,Castellón/Castelló,Comunidad Valenciana,El Baix Maestrat
158,"Iberfier, OJD",empordà info,emporda.info,17600,2960278050.0,42267835900.0,Figueres,Girona,Cataluña,Alt Empordà
159,"Iberfier, OJD",golsmedia,golsmedia.com,46005,-0.37565717,39475344410.0,València,Valencia/València,Comunidad Valenciana,València
160,"Iberfier, OJD",infotúria,infoturia.com,46183,-0.53062592,39566803470.0,l'Eliana,Valencia/València,Comunidad Valenciana,
161,"Iberfier, OJD",la república,larepublica.cat,08014,2176349270.0,41384246640.0,Barcelona,Barcelona,Cataluña,Barcelonès
162,"Iberfier, OJD",la veu de lliria,laveudelliria.com,46190,-0.57061222,39546025350.0,Riba-roja de Túria,Valencia/València,Comunidad Valenciana,El Camp de Túria
163,"Iberfier, OJD",lleida diari,lleidadiari.cat,25001,0.62061934,41615273550.0,Lleida,Lleida,Cataluña,Segrià
164,"Iberfier, OJD",manresa diari,manresadiari.cat,08243,1827210260.0,41721995940.0,Manresa,Barcelona,Cataluña,Bages
165,"Iberfier, OJD",noticias comunitat valenciana,noticiascv.com,46010,-0.37565717,39475344410.0,València,Valencia/València,Comunidad Valenciana,València
166,"Iberfier, OJD",nova tàrrega,novatarrega.cat,25300,1139354290.0,41646584520.0,Tàrrega,Lleida,Cataluña,Urgell
167,"Iberfier, OJD",página 66,pagina66.com,03801,-0.47318376,38698368940.0,Alcoi/Alcoy,Alicante/Alacant,Comunidad Valenciana,L'Alcoià
168,"Iberfier, OJD",radio esport valencia,radioesport914.com,46015,-0.37565717,39475344410.0,València,Valencia/València,Comunidad Valenciana,València
169,"Iberfier, OJD",rubí tv,rubitv.cat,08202,2107789940.0,41546958990.0,Sabadell,Barcelona,Cataluña,Vallès Occidental
170,"Iberfier, OJD",sapiens,sapiens.cat,08020,2176349270.0,41384246640.0,Barcelona,Barcelona,Cataluña,Barcelonès
171,"Iberfier, OJD",social,social.cat,08010,2176349270.0,41384246640.0,Barcelona,Barcelona,Cataluña,Barcelonès
172,"Iberfier, OJD",som granollers,somgranollers.cat,08020,2176349270.0,41384246640.0,Barcelona,Barcelona,Cataluña,Barcelonès
173,"Iberfier, OJD",som mollet,sommollet.cat,08020,2176349270.0,41384246640.0,Barcelona,Barcelona,Cataluña,Barcelonès
174,"Iberfier, OJD",som montmeló,sommontmelo.cat,08020,2176349270.0,41384246640.0,Barcelona,Barcelona,Cataluña,Barcelonès
175,"Iberfier, OJD",som montornès,sommontornes.cat,08020,2176349270.0,41384246640.0,Barcelona,Barcelona,Cataluña,Barcelonès
176,"Iberfier, OJD",som vallés,somvalles.cat,08020,2176349270.0,41384246640.0,Barcelona,Barcelona,Cataluña,Barcelonès
177,"Iberfier, OJD",territoris,territoris.cat,25230,0.89391515,41629676820.0,Mollerussa,Lleida,Cataluña,Pla d'Urgell
178,"Iberfier, OJD",tva,tv-a.es,03420,-0.67026538,38596576430.0,Castalla,Alicante/Alacant,Comunidad Valenciana,L'Alcoià
179,"Iberfier, OJD",valència diari,valenciadiari.com,46007,-0.37565717,39475344410.0,València,Valencia/València,Comunidad Valenciana,València
181,"Iberfier, OJD",valencia noticias,valencianoticias.com,46130,-0.33056042,39570250650.0,Massamagrell,Valencia/València,Comunidad Valenciana,L'Horta Nord
182,"Iberfier, OJD",valencia plaza,valenciaplaza.com,46002,-0.37565717,39475344410.0,València,Valencia/València,Comunidad Valenciana,València
183,"Iberfier, OJD",valors,valors.org,08301,2446580620.0,41540846900.0,Mataró,Barcelona,Cataluña,Maresme
184,"Iberfier, OJD",viu molins de rei,viumolinsderei.com,08750,2017369080.0,41413211100.0,Molins de Rei,Barcelona,Cataluña,Baix Llobregat
185,"Iberfier, OJD",xtradio,xtradio.es,46800,-0.51869568,38987971160.0,Xàtiva,Valencia/València,Comunidad Valenciana,La Costera
186,"AMIC, Iberfier, OJD",viaempresa,viaempresa.cat,08172,2085264720.0,41473454030.0,Sant Cugat del Vallès,Barcelona,Cataluña,Vallès Occidental
187,"AMIC, Iberfier, OJD",ara,ara.cat,08015,2176349270.0,41384246640.0,Barcelona,Barcelona,Cataluña,Barcelonès
192,"AMIC, Iberfier, OJD",catalunyapress,catalunyapress.cat,08007,2176349270.0,41384246640.0,Barcelona,Barcelona,Cataluña,Barcelonès
193,"AMIC, Iberfier, OJD",capgros,capgros.com,08172,2085264720.0,41473454030.0,Sant Cugat del Vallès,Barcelona,Cataluña,Vallès Occidental
194,"AMIC, Iberfier, OJD",diarimes,diarimes.com,43003,1258421900.0,41119102870.0,Tarragona,Tarragona,Cataluña,Tarragonès
195,"AMIC, Iberfier, OJD",laciutat,laciutat.cat,43001,1258421900.0,41119102870.0,Tarragona,Tarragona,Cataluña,Tarragonès
196,"AMIC, Iberfier, OJD",catalunyamagrada,catalunyamagrada.cat,08172,2085264720.0,41473454030.0,Sant Cugat del Vallès,Barcelona,Cataluña,Vallès Occidental
197,"AMIC, Iberfier, OJD",segre,segre.com,25005,0.62061934,41615273550.0,Lleida,Lleida,Cataluña,Segrià
199,"AMIC, Iberfier, OJD",aguaita,aguaita.cat,08202,2107789940.0,41546958990.0,Sabadell,Barcelona,Cataluña,Vallès Occidental
200,"AMIC, OJD",elnostreciutat,elnostreciutat.com (elnostreperiodic.com),,,,,,,
201,"AMIC, OJD",noticiasmarinaalta,noticiasmarinaalta.es,03700,0.10661934,38841227050.0,Dénia,Alicante/Alacant,Comunidad Valenciana,La Marina Alta
202,"AMIC, OJD",espai,espai.media,,,,,,,
203,"AMIC, OJD",el9nou,el9nou.cat,08500,2255735690.0,41928383540.0,Vic,Barcelona,Cataluña,Osona
205,"AMIC, OJD",lasrepublicas,lasrepublicas.com,08014,2176349270.0,41384246640.0,Barcelona,Barcelona,Cataluña,Barcelonès
206,"AMIC, OJD",catalunyaplural,catalunyaplural.cat,,,,,,,
207,"AMIC, OJD",larepublica,larepublica.cat,08014,2176349270.0,41384246640.0,Barcelona,Barcelona,Cataluña,Barcelonès
209,"AMIC, OJD",xcatalunya,xcatalunya.cat,08036,2176349270.0,41384246640.0,Barcelona,Barcelona,Cataluña,Barcelonès
210,"AMIC, OJD",lleidadiari,lleidadiari.cat,25001,0.62061934,41615273550.0,Lleida,Lleida,Cataluña,Segrià
211,"AMIC, OJD",manresadiari,manresadiari.cat,08243,1827210260.0,41721995940.0,Manresa,Barcelona,Cataluña,Bages
212,"AMIC, OJD",rubitv,rubitv.cat (grup naciodigital),,,,,,,
213,"AMIC, OJD",somgranollers,somgranollers.cat,08020,2176349270.0,41384246640.0,Barcelona,Barcelona,Cataluña,Barcelonès
214,"AMIC, OJD",somgranollers,,,,,,,,
215,"AMIC, OJD",sommollet,sommollet.com,,,,,,,
216,"AMIC, OJD",sommollet,,,,,,,,
217,"AMIC, OJD",somvalles,somvalles.cat,08020,2176349270.0,41384246640.0,Barcelona,Barcelona,Cataluña,Barcelonès
218,"AMIC, OJD",tarragona21,tarragona21.com,,,,,,,
219,"AMIC, OJD",territorirural,territorirural.cat (monrural.cat),,,,,,,
220,"AMIC, OJD",audio,audio.cat    (tirabol),,,,,,,
221,"AMIC, OJD",diariodemallorca,diariodemallorca.es (P.Iberica),,,,,,,
222,"AMIC, OJD",tucomarca,tucomarca.com,46360,-0.78986594,39418013630.0,Buñol,Valencia/València,Comunidad Valenciana,La Hoya de Buñol
223,"AMIC, OJD",elsoller,elsoller.cat,07011,2651816980.0,39571146990.0,Palma,Illes Balears,Illes Balears,
225,"AMIC, OJD",diarilaveu,diarilaveu.cat (nosaltreslaveu.com),,,,,,,
227,"AMIC, OJD",elperiodic,elperiodic.ad,,,,,,,
228,"Iberfier, OJD",el punt avui,elpuntavui.cat,17005,2824118990.0,41981860750.0,Girona,Girona,Cataluña,Gironès
231,"Iberfier, CAC",emun fm ràdio,emunfmradio.cat,25126,0.56808578,41797693090.0,Almenar,Lleida,Cataluña,Segrià
232,"Iberfier, CAC",ràdio vallromanes,radio.vallromanes.cat,08188,2308303480.0,41526136660.0,Vallromanes,Barcelona,Cataluña,Vallès Oriental
233,"Iberfier, CAC",solsona fm,solsonafm.media,25280,1564252950.0,42010480280.0,Olius,Lleida,Cataluña,Solsonès
234,"Iberfier, CAC",alpicat ràdio,alpicatradio.com,25110,0.55526727,41666506160.0,Alpicat,Lleida,Cataluña,Segrià
235,"Iberfier, CAC",altafulla ràdio,altafullaradio.cat,43893,1376510770.0,41141814750.0,Altafulla,Tarragona,Cataluña,Tarragonès
236,"Iberfier, CAC",amposta ràdio,amposta.cat,43870,0.57831025,40710388300.0,Amposta,Tarragona,Cataluña,Montsià
237,"Iberfier, CAC",antena aldaia,antenaaldaia.com,43896,0.6084918,40740561850.0,L'Aldea,Tarragona,Cataluña,
238,"Iberfier, CAC",antena caro,antenacaro.cat,43520,0.50335187,40820390610.0,Roquetes,Tarragona,Cataluña,Baix Ebre
239,"Iberfier, CAC",canal 10 empordà,canal10.cat,17130,3132996090.0,42124672350.0,L'Escala,Girona,Cataluña,
240,"Iberfier, CAC",canal blau,canalblau.cat,08800,1723839900.0,41227219910.0,Vilanova i la Geltrú,Barcelona,Cataluña,Garraf
241,"Iberfier, CAC",constantí ràdio,constantiradio.cat,43120,1212375970.0,41154094600.0,Constantí,Tarragona,Cataluña,Tarragonès
242,"Iberfier, CAC",cope barcelona,cope.es,08099,,,,,,
243,"Iberfier, CAC",digital hits fm,digitalhits.cat,08809,,,,,,
243,"Iberfier, CAC",digital hits fm,digitalhits.cat,08206,2107789940.0,41546958990.0,Sabadell,Barcelona,Cataluña,Vallès Occidental
243,"Iberfier, CAC",digital hits fm,digitalhits.cat,08026,2176349270.0,41384246640.0,Barcelona,Barcelona,Cataluña,Barcelonès
248,"Iberfier, CAC",el prat ràdio,elpratradio.com,08820,2092623600.0,41330958480.0,El Prat de Llobregat,Barcelona,Cataluña,Baix Llobregat
249,"Iberfier, CAC",flaix fm,flaixfm.cat,08391,2268282240.0,41484608330.0,Tiana,Barcelona,Cataluña,Maresme
249,"Iberfier, CAC",flaix fm,flaixfm.cat,08007,2176349270.0,41384246640.0,Barcelona,Barcelona,Cataluña,Barcelonès
258,"Iberfier, CAC",gum fm,gumfm.com,25530,0.79595308,42701427120.0,Vielha e Mijaran,Lleida,Cataluña,Aran
260,"Iberfier, CAC",imagina ràdio,imaginaradio.com,43500,0.52500631,40811021460.0,Tortosa,Tarragona,Cataluña,Baix Ebre
261,"Iberfier, CAC",la sénia ràdio,laseniaradio.cat,43560,0.28236554,40636138300.0,La Sénia,Tarragona,Cataluña,Montsià
262,"Iberfier, CAC",la plana ràdio,laplanaradio.cat,43570,0.49263884,40714377670.0,Santa Bàrbara,Tarragona,Cataluña,Montsià
263,"Iberfier, CAC",la veu de navàs,laveudenavas.navas.cat,08670,1878461470.0,41900849500.0,Navàs,Barcelona,Cataluña,Bages
264,"Iberfier, CAC",llagostera ràdio,llagosteraradio.cat,17240,2891999100.0,41828674490.0,Llagostera,Girona,Cataluña,Gironès
265,"Iberfier, CAC",mataró ràdio,mataroradio.cat,08302,2446580620.0,41540846900.0,Mataró,Barcelona,Cataluña,Maresme
266,"Iberfier, CAC",nova ràdio lloret,novaradiolloret.org,17310,2847395070.0,41699579440.0,Lloret de Mar,Girona,Cataluña,Selva
267,"Iberfier, CAC",olot televisió,olot.tv,17800,2488165590.0,42181837930.0,Olot,Girona,Cataluña,Garrotxa
268,"Iberfier, CAC",ona codinenca,onacodinenca.cat,08182,2161917000.0,41687624540.0,Sant Feliu de Codines,Barcelona,Cataluña,Vallès Oriental
269,"Iberfier, CAC",ona la torre,ona-latorre.cat,43830,1395579220.0,41145081280.0,Torredembarra,Tarragona,Cataluña,Tarragonès
270,"Iberfier, CAC",rac 1,rac1.org,08036,2176349270.0,41384246640.0,Barcelona,Barcelona,Cataluña,Barcelonès
291,"Iberfier, CAC",rac 105,rac105.cat,08036,2176349270.0,41384246640.0,Barcelona,Barcelona,Cataluña,Barcelonès
306,"Iberfier, CAC",ràdio abrera,radioabrera.cat,08630,1902210180.0,41517943520.0,Abrera,Barcelona,Cataluña,Baix Llobregat
307,"Iberfier, CAC",ràdio arenys,radioarenys.cat,08350,2549538670.0,41580556650.0,Arenys de Mar,Barcelona,Cataluña,Maresme
308,"Iberfier, CAC",ràdio arenys de munt,radioarenysmunt.cat,08358,2539859480.0,41609089140.0,Arenys de Munt,Barcelona,Cataluña,Maresme
309,"Iberfier, CAC",ràdio argentona,argentona.cat,08310,2400733040.0,41554146050.0,Argentona,Barcelona,Cataluña,Maresme
310,"Iberfier, CAC",ràdio balsareny,radiobalsareny.org,08660,1877600630.0,41863229490.0,Balsareny,Barcelona,Cataluña,Bages
311,"Iberfier, CAC",ràdio banyoles,Radiobanyoles.cat,17820,2769469900.0,42120591370.0,Banyoles,Girona,Cataluña,Pla de l'Estany
312,"Iberfier, CAC",ràdio blanes,radioblanes.cat,17300,2792292960.0,41675921570.0,Blanes,Girona,Cataluña,Selva
313,"Iberfier, CAC",ràdio cabrera,audiovisualcabrera.net,08349,2392583360.0,41528045390.0,Cabrera de Mar,Barcelona,Cataluña,Maresme
314,"Iberfier, CAC",ràdio caldes,radiocaldes.cat,08140,2164880780.0,41631217180.0,Caldes de Montbui,Barcelona,Cataluña,Vallès Oriental
315,"Iberfier, CAC",ràdio canet,radiocanet.cat,08360,2582637960.0,41589633980.0,Canet de Mar,Barcelona,Cataluña,Maresme
316,"Iberfier, CAC",ràdio cap de creus,radiocapdecreus.radiostream321.com,17488,3275651260.0,42288080660.0,Cadaqués,Girona,Cataluña,Alt Empordà
317,"Iberfier, CAC",ràdio capellades,radiocapellades.net,08786,1686314900.0,41531371210.0,Capellades,Barcelona,Cataluña,Anoia
318,"Iberfier, CAC",ràdio cassà,radiocassa.cat,17244,2874399070.0,41887282780.0,Cassà de la Selva,Girona,Cataluña,Gironès
319,"Iberfier, CAC",ràdio castelldefels,radiocastelldefels.org,08860,1976806410.0,41278773430.0,Castelldefels,Barcelona,Cataluña,Baix Llobregat
320,"Iberfier, CAC",ràdio celrà,radio.celra.cat,17460,2879071240.0,42024614380.0,Celrà,Girona,Cataluña,Gironès
321,"Iberfier, CAC",ràdio cornellà,radiocornella.cat,08940,2070132020.0,41355469340.0,Cornellà de Llobregat,Barcelona,Cataluña,Baix Llobregat
322,"Iberfier, CAC",ràdio cubelles,radiocubelles.cat,08880,1672826720.0,41208725840.0,Cubelles,Barcelona,Cataluña,Garraf
323,"Iberfier, CAC",ràdio cunit,radiocunit.cat,43881,1634060680.0,41197867990.0,Cunit,Tarragona,Cataluña,Baix Penedès
324,"Iberfier, CAC",ràdio desvern,radiodesvern.com,08960,2076096680.0,41386025890.0,Sant Just Desvern,Barcelona,Cataluña,Baix Llobregat
325,"Iberfier, CAC",ràdio dos 84,radiodos84.com,17450,2633623760.0,41744045360.0,Hostalric,Girona,Cataluña,Selva
326,"Iberfier, CAC",ràdio estel,radioestel.com,08014,2176349270.0,41384246640.0,Barcelona,Barcelona,Cataluña,Barcelonès
337,"Iberfier, CAC",ràdio falset,radiofalset.cat,43730,0.82092617,41145608400.0,Falset,Tarragona,Cataluña,Priorat
338,"Iberfier, CAC",ràdio flaixbac,radioflaixbac.cat,08007,2176349270.0,41384246640.0,Barcelona,Barcelona,Cataluña,Barcelonès
338,"Iberfier, CAC",ràdio flaixbac,radioflaixbac.cat,08391,2268282240.0,41484608330.0,Tiana,Barcelona,Cataluña,Maresme
351,"Iberfier, CAC",ràdio flix,radioflix.cat,43750,0.55033997,41231102220.0,Flix,Tarragona,Cataluña,Ribera d'Ebre
352,"Iberfier, CAC",ràdio gavà,radiogava.cat,08840,2018247150.0,41317325290.0,Viladecans,Barcelona,Cataluña,Baix Llobregat
353,"Iberfier, CAC",ràdio gelida,radiogelida.cat,08790,1861368310.0,41440534140.0,Gelida,Barcelona,Cataluña,Alt Penedès
354,"Iberfier, CAC",ràdio granollers,emisora.org.es,08400,,,,,,
355,"Iberfier, CAC",ràdio igualada,radioigualada.cat,08700,1618295880.0,41578950960.0,Igualada,Barcelona,Cataluña,Anoia
356,"Iberfier, CAC",ràdio la vall,radiolavall.cat,17178,2407684750.0,42149558840.0,La Vall d'en Bas,Girona,Cataluña,Garrotxa
357,"Iberfier, CAC",ràdio les borges,radiolesborges.cat,25400,0.86890823,41521785550.0,Les Borges Blanques,Lleida,Cataluña,Garrigues
358,"Iberfier, CAC",ràdio l'escala,radiolescala.cat,17130,3132996090.0,42124672350.0,L'Escala,Girona,Cataluña,
359,"Iberfier, CAC",ràdio les planes,radiolesplanes.com,17172,2536928020.0,42055620390.0,Les Planes d'Hostoles,Girona,Cataluña,Garrotxa
360,"Iberfier, CAC",ràdio llavaneres,radiollavaneres.cat,08392,2482471640.0,41574277070.0,Sant Andreu de Llavaneres,Barcelona,Cataluña,Maresme
361,"Iberfier, CAC",ràdio manlleu,radiomanlleu.cat,08560,2285028180.0,42001126710.0,Manlleu,Barcelona,Cataluña,Osona
362,"Iberfier, CAC",ràdio maricel,radiomaricel.cat,08870,1805684230.0,41237169440.0,Sitges,Barcelona,Cataluña,Garraf
363,"Iberfier, CAC",ràdio marina,radiomarina.com,17300,2792292960.0,41675921570.0,Blanes,Girona,Cataluña,Selva
365,"Iberfier, CAC",ràdio masquefa,miratv.cat,08783,1811084150.0,41502635210.0,Masquefa,Barcelona,Cataluña,Anoia
366,"Iberfier, CAC",ràdio molins de rei,radiomolinsderei.cat,08750,2017369080.0,41413211100.0,Molins de Rei,Barcelona,Cataluña,Baix Llobregat
367,"Iberfier, CAC",ràdio montblanc,radiomontblanc.cat,43400,1161715650.0,41377055490.0,Montblanc,Tarragona,Cataluña,Conca de Barberà
368,"Iberfier, CAC",ràdio montgrí,radiomontgri.com,17257,3107410590.0,42012073330.0,Fontanilles,Girona,Cataluña,Baix Empordà
369,"Iberfier, CAC",ràdio montornès,radio.montornes.cat,08170,2265310710.0,41543011050.0,Montornès del Vallès,Barcelona,Cataluña,Vallès Oriental
370,"Iberfier, CAC",ràdio ona,radioona.com,08570,2263344890.0,42046914640.0,Torelló,Barcelona,Cataluña,Osona
371,"Iberfier, CAC",ràdio palafolls,radiopalafolls.cat,08389,2749183640.0,41667270490.0,Palafolls,Barcelona,Cataluña,Maresme
372,"Iberfier, CAC",ràdio palafrugell,radiopalafrugell.cat,17200,3163977640.0,41917181590.0,Palafrugell,Girona,Cataluña,Baix Empordà
373,"Iberfier, CAC",ràdio palamós,palamoscomunicacio.cat,17230,3128658030.0,41846746750.0,Palamós,Girona,Cataluña,Baix Empordà
374,"Iberfier, CAC",ràdio pineda,radiopineda.com,08397,2689665520.0,41628764700.0,Pineda de Mar,Barcelona,Cataluña,Maresme
375,"Iberfier, CAC",ràdio pista,radiopista.cat,08550,2233556250.0,41814194020.0,Balenyà,Barcelona,Cataluña,Osona
376,"Iberfier, CAC",ràdio premià de mar,radiopremiademar.org,08330,2356621250.0,41489604710.0,Premià de Mar,Barcelona,Cataluña,Maresme
377,"Iberfier, CAC",ràdio puig-reig,radiopuig-reig.net,08692,1881519320.0,41970869150.0,Puig-reig,Barcelona,Cataluña,Berguedà
378,"Iberfier, CAC",ràdio ràpita,enacast.com,43540,0.59230274,40619571590.0,Sant Carles de la Ràpita,Tarragona,Cataluña,Montsià
379,"Iberfier, CAC",ràdio rosselló,radiorossello.radiostream321.com,25124,0.59696806,41692667480.0,Rosselló,Lleida,Cataluña,Segrià
380,"Iberfier, CAC",ràdio rubí,radiorubi.fm,08191,2030032520.0,41491736950.0,Rubí,Barcelona,Cataluña,Vallès Occidental
381,"Iberfier, CAC",ràdio sallent,radiosallent.cat,08650,1896570430.0,41823657700.0,Sallent,Barcelona,Cataluña,Bages
382,"Iberfier, CAC",ràdio sant andreu,radiosantandreu.com,08740,1975239250.0,41446756590.0,Sant Andreu de la Barca,Barcelona,Cataluña,Baix Llobregat
383,"Iberfier, CAC",ràdio sant boi,radiosantboi.cat,08830,2041821160.0,41342537100.0,Sant Boi de Llobregat,Barcelona,Cataluña,Baix Llobregat
384,"Iberfier, CAC",ràdio sant cebrià,radiosantcebria.cat,08396,2601790640.0,41620352990.0,Sant Cebrià de Vallalta,Barcelona,Cataluña,Maresme
385,"Iberfier, CAC",ràdio sant feliu,rsf.cat,08980,2045794270.0,41380743750.0,Sant Feliu de Llobregat,Barcelona,Cataluña,Baix Llobregat
385,"Iberfier, CAC",ràdio sant feliu,rsf.cat,17220,3028695340.0,41780425640.0,Sant Feliu de Guíxols,Girona,Cataluña,Baix Empordà
387,"Iberfier, CAC",ràdio sant hilari,radiosanthilari.com,17403,2508495390.0,41878925580.0,Sant Hilari Sacalm,Girona,Cataluña,Selva
388,"Iberfier, CAC",ràdio sant joan,rsj.cat,17857,2509070020.0,42212722220.0,Sant Joan les Fonts,Girona,Cataluña,Garrotxa
388,"Iberfier, CAC",ràdio sant joan,rsj.cat,08250,1806675960.0,41744761030.0,Sant Joan de Vilatorrada,Barcelona,Cataluña,Bages
390,"Iberfier, CAC",ràdio sant quirze,radiosantquirze.cat,08192,2080981950.0,41533291240.0,Sant Quirze del Vallès,Barcelona,Cataluña,Vallès Occidental
391,"Iberfier, CAC",ràdio sant sadurní,radiosantsadurni.wordpress.com,08770,2489840400.0,41689717400.0,Sant Celoni,Barcelona,Cataluña,Vallès Oriental
392,"Iberfier, CAC",ràdio sarrià,radio.sarriadeter.cat,17840,2823918200.0,42015554390.0,Sarrià de Ter,Girona,Cataluña,Gironès
393,"Iberfier, CAC",ràdio silenci,radiosilenci.cat,08530,2354677040.0,41693785510.0,Cànoves i Samalús,Barcelona,Cataluña,Vallès Oriental
394,"Iberfier, CAC",ràdio súria,radiosuria.cat,08260,1752877900.0,41831320810.0,Súria,Barcelona,Cataluña,Bages
395,"Iberfier, CAC",ràdio taradell,radiotaradell.com,08552,2287765940.0,41873393180.0,Taradell,Barcelona,Cataluña,Osona
396,"Iberfier, CAC",ràdio tiana,lalocal.tianat.cat,08391,2268282240.0,41484608330.0,Tiana,Barcelona,Cataluña,Maresme
397,"Iberfier, CAC",ràdio tordera,radiotordera.cat,08490,2719251900.0,41699925250.0,Tordera,Barcelona,Cataluña,Maresme
398,"Iberfier, CAC",ràdio tortosa,radiotortosa.cat,43500,0.52500631,40811021460.0,Tortosa,Tarragona,Cataluña,Baix Ebre
399,"Iberfier, CAC",ràdio vic,radiovic.cat,08500,2255735690.0,41928383540.0,Vic,Barcelona,Cataluña,Osona
400,"Iberfier, CAC",ràdio vilablareix,radiovilablareix.cat,17180,2772843940.0,41956939610.0,Vilablareix,Girona,Cataluña,Gironès
401,"Iberfier, CAC",ràdio vilafant,radiovilafant.net,17740,2937865270.0,42247039410.0,Vilafant,Girona,Cataluña,Alt Empordà
402,"Iberfier, CAC",ràdio vila-sacra,radiovila-sacra.cat,17485,3018602990.0,42266066440.0,Vila-sacra,Girona,Cataluña,Alt Empordà
403,"Iberfier, CAC",ràdio vitamènia,radiovitamenia.wordpress.com,08460,2434302060.0,41704760650.0,Sant Esteve de Palautordera,Barcelona,Cataluña,Vallès Oriental
404,"Iberfier, CAC",ràdio voltregà,radiovoltrega.com,08512,2237183390.0,42015635030.0,Sant Hipòlit de Voltregà,Barcelona,Cataluña,Osona
405,"Iberfier, CAC",ser catalunya,cadenaser.com,17800,2488165590.0,42181837930.0,Olot,Girona,Cataluña,Garrotxa
405,"Iberfier, CAC",ser catalunya,cadenaser.com,25007,0.62061934,41615273550.0,Lleida,Lleida,Cataluña,Segrià
405,"Iberfier, CAC",ser catalunya,cadenaser.com,08099,,,,,,
405,"Iberfier, CAC",ser catalunya,cadenaser.com,25230,0.89391515,41629676820.0,Mollerussa,Lleida,Cataluña,Pla d'Urgell
405,"Iberfier, CAC",ser catalunya,cadenaser.com,08010,2176349270.0,41384246640.0,Barcelona,Barcelona,Cataluña,Barcelonès
405,"Iberfier, CAC",ser catalunya,cadenaser.com,17230,3128658030.0,41846746750.0,Palamós,Girona,Cataluña,Baix Empordà
405,"Iberfier, CAC",ser catalunya,cadenaser.com,43000,,,,,,
405,"Iberfier, CAC",ser catalunya,cadenaser.com,27005,,,,,,
418,"Iberfier, CAC",tarragona ràdio,tarragonaradio.cat,43005,1258421900.0,41119102870.0,Tarragona,Tarragona,Cataluña,Tarragonès
419,"Iberfier, CAC",vallès visió,vallesvisio.cat,08100,2213491190.0,41539245560.0,Mollet del Vallès,Barcelona,Cataluña,Vallès Oriental
420,"AMIC, Iberfier",sies,sies.tv,17001,2824118990.0,41981860750.0,Girona,Girona,Cataluña,Gironès
421,"AMIC, Iberfier",revistamirall,revistamirall.com,08002,2176349270.0,41384246640.0,Barcelona,Barcelona,Cataluña,Barcelonès
422,"AMIC, Iberfier",donesdigital,donesdigital.cat,08007,2176349270.0,41384246640.0,Barcelona,Barcelona,Cataluña,Barcelonès
423,"AMIC, Iberfier",regio7,regio7.cat,08240,1827210260.0,41721995940.0,Manresa,Barcelona,Cataluña,Bages
424,"AMIC, Iberfier",penedeseconomic,penedeseconomic.com,08720,1697746700.0,41347212100.0,Vilafranca del Penedès,Barcelona,Cataluña,Alt Penedès
425,"AMIC, Iberfier",naciodigital,naciodigital.cat,08007,2176349270.0,41384246640.0,Barcelona,Barcelona,Cataluña,Barcelonès
521,"AMIC, Iberfier",gerio,gerio.cat,17190,2781412350.0,41974375130.0,Salt,Girona,Cataluña,Gironès
522,"AMIC, Iberfier",isabadell,isabadell.cat,08206,2107789940.0,41546958990.0,Sabadell,Barcelona,Cataluña,Vallès Occidental
523,"AMIC, Iberfier",lleida,lleida.com,25008,0.62061934,41615273550.0,Lleida,Lleida,Cataluña,Segrià
524,"AMIC, Iberfier",rctgn,rctgn.cat,43001,1258421900.0,41119102870.0,Tarragona,Tarragona,Cataluña,Tarragonès
525,"AMIC, Iberfier",totbarcelona,totbarcelona.cat,08007,2176349270.0,41384246640.0,Barcelona,Barcelona,Cataluña,Barcelonès
526,"AMIC, Iberfier",amartorell,amartorell.com,08783,1811084150.0,41502635210.0,Masquefa,Barcelona,Cataluña,Anoia
528,"AMIC, Iberfier",canalreustv,canalreustv.cat,43204,1109861180.0,41154107250.0,Reus,Tarragona,Cataluña,Baix Camp
529,"AMIC, Iberfier",canalte,canalte.cat,43500,0.52500631,40811021460.0,Tortosa,Tarragona,Cataluña,Baix Ebre
530,"AMIC, Iberfier",castellvilarenc,castellvilarenc.info,08296,1855798600.0,41639294010.0,Castellbell i el Vilar,Barcelona,Cataluña,Bages
531,"AMIC, Iberfier",cerdanyolaaldia,cerdanyolaaldia.com,08290,2139892600.0,41491340540.0,Cerdanyola del Vallès,Barcelona,Cataluña,Vallès Occidental
532,"AMIC, Iberfier",diaridebadalona,diaridebadalona.com,08912,2246253680.0,41452624810.0,Badalona,Barcelona,Cataluña,Barcelonès
533,"AMIC, Iberfier",diarieljardi,diarieljardi.cat,08034,2176349270.0,41384246640.0,Barcelona,Barcelona,Cataluña,Barcelonès
534,"AMIC, Iberfier",diarisantquirze,diarisantquirze.cat,08192,2080981950.0,41533291240.0,Sant Quirze del Vallès,Barcelona,Cataluña,Vallès Occidental
535,"AMIC, Iberfier",elbaix,elbaix.cat,08980,2045794270.0,41380743750.0,Sant Feliu de Llobregat,Barcelona,Cataluña,Baix Llobregat
536,"AMIC, Iberfier",gava,gava.info,28006,,,,,,
536,"AMIC, Iberfier",gava,gava.info,08850,2003299040.0,41303316660.0,Gavà,Barcelona,Cataluña,Baix Llobregat
538,"AMIC, Iberfier",independent,independent.cat,08012,2176349270.0,41384246640.0,Barcelona,Barcelona,Cataluña,Barcelonès
540,"AMIC, Iberfier",laclau,laclau.cat,08340,2391818620.0,41503451550.0,Vilassar de Mar,Barcelona,Cataluña,Maresme
541,"AMIC, Iberfier",latorredebarcelona,latorredebarcelona.com,08024,2176349270.0,41384246640.0,Barcelona,Barcelona,Cataluña,Barcelonès
542,"AMIC, Iberfier",montpeita,montpeita.cat,08272,1870034050.0,41751507760.0,Sant Fruitós de Bages,Barcelona,Cataluña,Bages
543,"AMIC, Iberfier",revistaderipollet,revistaderipollet.cat,08291,2155175940.0,41497083330.0,Ripollet,Barcelona,Cataluña,Vallès Occidental
544,"AMIC, Iberfier",santboidiari,santboidiari.com,08750,2017369080.0,41413211100.0,Molins de Rei,Barcelona,Cataluña,Baix Llobregat
545,"AMIC, Iberfier",tasta,tasta.cat,08600,1844024700.0,42103288740.0,Berga,Barcelona,Cataluña,Berguedà
546,"AMIC, Iberfier",totlleida,totlleida.cat,25003,0.62061934,41615273550.0,Lleida,Lleida,Cataluña,Segrià
547,"AMIC, Iberfier",uncopdull,uncopdull.com,43500,0.52500631,40811021460.0,Tortosa,Tarragona,Cataluña,Baix Ebre
548,"AMIC, Iberfier",diaridesantacoloma,diaridesantacoloma.com,08912,2246253680.0,41452624810.0,Badalona,Barcelona,Cataluña,Barcelonès
549,"AMIC, Iberfier",diaridesantadria,diaridesantadria.com,08912,2246253680.0,41452624810.0,Badalona,Barcelona,Cataluña,Barcelonès
550,"AMIC, Iberfier",aolesa,aolesa.com,08783,1811084150.0,41502635210.0,Masquefa,Barcelona,Cataluña,Anoia
551,"AMIC, Iberfier",amasquefa,amasquefa.com,08783,1811084150.0,41502635210.0,Masquefa,Barcelona,Cataluña,Anoia
552,"AMIC, Iberfier",lescroniques,lescroniques.com,08224,2012151410.0,41562363460.0,Terrassa,Barcelona,Cataluña,Vallès Occidental
553,"AMIC, Iberfier",loest,loest.cat,25300,1139354290.0,41646584520.0,Tàrrega,Lleida,Cataluña,Urgell
554,"AMIC, Iberfier",alcaldes,alcaldes.eu,08034,2176349270.0,41384246640.0,Barcelona,Barcelona,Cataluña,Barcelonès
555,"AMIC, Iberfier",defrancdigital,defrancdigital.com,07181,2502482810.0,39565889200.0,Calvià,Illes Balears,Illes Balears,La Sierra de Tramontana/ sa Serra de Tramuntana
556,"AMIC, Iberfier",teatral,teatral.net,08001,2176349270.0,41384246640.0,Barcelona,Barcelona,Cataluña,Barcelonès
557,"AMIC, Iberfier",elllobregat,elllobregat.com,08830,2041821160.0,41342537100.0,Sant Boi de Llobregat,Barcelona,Cataluña,Baix Llobregat
558,"AMIC, Iberfier",lavoz,lavoz.cat,08860,1976806410.0,41278773430.0,Castelldefels,Barcelona,Cataluña,Baix Llobregat
559,"AMIC, Iberfier",elfar,elfar.cat,08940,2070132020.0,41355469340.0,Cornellà de Llobregat,Barcelona,Cataluña,Baix Llobregat
560,"AMIC, Iberfier",arabalears,arabalears.cat,07001,2651816980.0,39571146990.0,Palma,Illes Balears,Illes Balears,
561,"AMIC, Iberfier",capvermell,capvermell.org,07580,3433358320.0,39702720830.0,Capdepera,Illes Balears,Illes Balears,El Levante de Mallorca/ es Llevant de Mallorca
562,"AMIC, Iberfier",manacormanacor,manacormanacor.com,07500,3209521360.0,39568890810.0,Manacor,Illes Balears,Illes Balears,El Levante de Mallorca/ es Llevant de Mallorca
563,"AMIC, Iberfier",viufelanitx,viufelanitx.com,07200,3149175150.0,39468724930.0,Felanitx,Illes Balears,Illes Balears,
564,"AMIC, Iberfier",lamarinaplaza,lamarinaplaza.com,03700,0.10661934,38841227050.0,Dénia,Alicante/Alacant,Comunidad Valenciana,La Marina Alta
565,"AMIC, Iberfier",aquí berguedà,,08600,1844024700.0,42103288740.0,Berga,Barcelona,Cataluña,Berguedà
567,"AMIC, Iberfier",anoia diari,,08700,1618295880.0,41578950960.0,Igualada,Barcelona,Cataluña,Anoia
568,"AMIC, Iberfier",catalunya religió,,08025,2176349270.0,41384246640.0,Barcelona,Barcelona,Cataluña,Barcelonès
569,"AMIC, Iberfier",cerdanyola al dia,,08290,2139892600.0,41491340540.0,Cerdanyola del Vallès,Barcelona,Cataluña,Vallès Occidental
570,"AMIC, Iberfier",comarques de ponent,,25300,1139354290.0,41646584520.0,Tàrrega,Lleida,Cataluña,Urgell
571,"AMIC, Iberfier",cop d'ull,,43500,0.52500631,40811021460.0,Tortosa,Tarragona,Cataluña,Baix Ebre
572,"AMIC, Iberfier",diari més ebre,,43500,0.52500631,40811021460.0,Tortosa,Tarragona,Cataluña,Baix Ebre
573,"AMIC, Iberfier",el cargol,,08720,1697746700.0,41347212100.0,Vilafranca del Penedès,Barcelona,Cataluña,Alt Penedès
574,"AMIC, Iberfier",la clau,,08340,2391818620.0,41503451550.0,Vilassar de Mar,Barcelona,Cataluña,Maresme
575,"AMIC, Iberfier",la premsa del baix,,08950,2084089500.0,41372118950.0,Esplugues de Llobregat,Barcelona,Cataluña,Baix Llobregat
576,"AMIC, Iberfier",l'enllaç dels anoiencs,,08700,1618295880.0,41578950960.0,Igualada,Barcelona,Cataluña,Anoia
577,"AMIC, Iberfier",l'independent de gràcia,,08012,2176349270.0,41384246640.0,Barcelona,Barcelona,Cataluña,Barcelonès
578,"AMIC, Iberfier",línia ciutat vella,,08013,2176349270.0,41384246640.0,Barcelona,Barcelona,Cataluña,Barcelonès
579,"AMIC, Iberfier",línia cornellà,,08013,2176349270.0,41384246640.0,Barcelona,Barcelona,Cataluña,Barcelonès
580,"AMIC, Iberfier",línia eixample,,08013,2176349270.0,41384246640.0,Barcelona,Barcelona,Cataluña,Barcelonès
581,"AMIC, Iberfier",línia gràcia,,08013,2176349270.0,41384246640.0,Barcelona,Barcelona,Cataluña,Barcelonès
582,"AMIC, Iberfier",línia horta,,08013,2176349270.0,41384246640.0,Barcelona,Barcelona,Cataluña,Barcelonès
583,"AMIC, Iberfier",línia nou barris,,08013,2176349270.0,41384246640.0,Barcelona,Barcelona,Cataluña,Barcelonès
584,"AMIC, Iberfier",línia sant andreu,,08013,2176349270.0,41384246640.0,Barcelona,Barcelona,Cataluña,Barcelonès
585,"AMIC, Iberfier",línia sant martí,,08013,2176349270.0,41384246640.0,Barcelona,Barcelona,Cataluña,Barcelonès
586,"AMIC, Iberfier",línia sants,,08013,2176349270.0,41384246640.0,Barcelona,Barcelona,Cataluña,Barcelonès
587,"AMIC, Iberfier",revista de ripollet,,08291,2155175940.0,41497083330.0,Ripollet,Barcelona,Cataluña,Vallès Occidental
588,"AMIC, Iberfier",tot cerdanyola,,08172,2085264720.0,41473454030.0,Sant Cugat del Vallès,Barcelona,Cataluña,Vallès Occidental
589,"AMIC, Iberfier",tot sant cugat,,08172,2085264720.0,41473454030.0,Sant Cugat del Vallès,Barcelona,Cataluña,Vallès Occidental
590,"AMIC, Iberfier",tribuna maresme,,08330,2356621250.0,41489604710.0,Premià de Mar,Barcelona,Cataluña,Maresme
591,"AMIC, Iberfier",3 viles,,08302,2446580620.0,41540846900.0,Mataró,Barcelona,Cataluña,Maresme
592,"AMIC, Iberfier",diari de badalona,,08912,2246253680.0,41452624810.0,Badalona,Barcelona,Cataluña,Barcelonès
593,"AMIC, Iberfier",diari de rubí,,08036,2176349270.0,41384246640.0,Barcelona,Barcelona,Cataluña,Barcelonès
594,"AMIC, Iberfier",el jardí de sant gervasi i sarrià,,08034,2176349270.0,41384246640.0,Barcelona,Barcelona,Cataluña,Barcelonès
595,"AMIC, Iberfier",la borrufa,,25568,1129863580.0,42411165910.0,Sort,Lleida,Cataluña,Pallars Sobirà
596,"AMIC, Iberfier",la guia de reus,,43206,1109861180.0,41154107250.0,Reus,Tarragona,Cataluña,Baix Camp
597,"AMIC, Iberfier",l'alzina,,08184,2112556190.0,41869237850.0,L'Estany,Barcelona,Cataluña,
598,"AMIC, Iberfier",ripollet al dia,,08290,2139892600.0,41491340540.0,Cerdanyola del Vallès,Barcelona,Cataluña,Vallès Occidental
599,"AMIC, Iberfier",viure als pirineus,,25230,0.89391515,41629676820.0,Mollerussa,Lleida,Cataluña,Pla d'Urgell
600,"AMIC, Iberfier",ara balears,,07001,2651816980.0,39571146990.0,Palma,Illes Balears,Illes Balears,
601,"AMIC, Iberfier",diari de girona,,17002,2824118990.0,41981860750.0,Girona,Girona,Cataluña,Gironès
602,"AMIC, Iberfier",diari de sabadell,,08201,2107789940.0,41546958990.0,Sabadell,Barcelona,Cataluña,Vallès Occidental
603,"AMIC, Iberfier",diari de terrassa,,08221,2012151410.0,41562363460.0,Terrassa,Barcelona,Cataluña,Vallès Occidental
604,"AMIC, Iberfier",diari jornada,,08010,2176349270.0,41384246640.0,Barcelona,Barcelona,Cataluña,Barcelonès
605,"AMIC, Iberfier",el temps,,46001,-0.37565717,39475344410.0,València,Valencia/València,Comunidad Valenciana,València
606,"AMIC, Iberfier",la mañana,,25191,0.62061934,41615273550.0,Lleida,Lleida,Cataluña,Segrià
607,"AMIC, Iberfier",la veu de l'anoia,,08700,1618295880.0,41578950960.0,Igualada,Barcelona,Cataluña,Anoia
608,"AMIC, Iberfier",montpeità,,08272,1870034050.0,41751507760.0,Sant Fruitós de Bages,Barcelona,Cataluña,Bages
609,"AMIC, Iberfier",regió 7,,08240,1827210260.0,41721995940.0,Manresa,Barcelona,Cataluña,Bages
610,"AMIC, Iberfier",revista cambrils,,43850,1051797780.0,41074451700.0,Cambrils,Tarragona,Cataluña,Baix Camp
611,"AMIC, Iberfier",sa veu,,07100,2714137670.0,39764457300.0,Sóller,Illes Balears,Illes Balears,
612,AMIC,eldiari,eldiari.online,,,,,,,
613,AMIC,campingscat,campingscat.com,,,,,,,
614,AMIC,Catalunyareligio,Catalunyareligio.cat,,,,,,,
615,AMIC,sapsque,sapsque.com,08911,2246253680.0,41452624810.0,Badalona,Barcelona,Cataluña,Barcelonès
616,AMIC,laveudalginet,laveudalginet.es,,,,,,,
617,AMIC,escenacultural,escenacultural.net,,,,,,,
618,AMIC,diaridebenicassim,diaridebenicassim.com,,,,,,,
619,AMIC,areavisual,areavisual.cat,,,,,,,
620,AMIC,gentedelasafor,gentedelasafor.es,,,,,,,
621,AMIC,media,media.cat,08012,2176349270.0,41384246640.0,Barcelona,Barcelona,Cataluña,Barcelonès
622,AMIC,Núvol,Núvol.com,,,,,,,
623,AMIC,frontissa,frontissa.cat,,,,,,,
624,AMIC,culturalia,culturalia.club,,,,,,,
625,AMIC,festescatalunya,festescatalunya.com,08401,2286177000.0,41607930850.0,Granollers,Barcelona,Cataluña,Vallès Oriental
626,AMIC,culturaipaisatge,culturaipaisatge.cat,,,,,,,
627,AMIC,tempsarts,tempsarts.cat,46001,-0.37565717,39475344410.0,València,Valencia/València,Comunidad Valenciana,València
628,AMIC,verlanga,verlanga.com,46006,-0.37565717,39475344410.0,València,Valencia/València,Comunidad Valenciana,València
629,AMIC,elculturista,elculturista.cat,,,,,,,
630,AMIC,diaridelallengua,diaridelallengua.cat,08030,2176349270.0,41384246640.0,Barcelona,Barcelona,Cataluña,Barcelonès
631,AMIC,aboriginemag,aboriginemag.com,43870,0.57831025,40710388300.0,Amposta,Tarragona,Cataluña,Montsià
632,AMIC,inediteducacion,inediteducacion.com ( ineditweb.es),,,,,,,
633,AMIC,vadevi,vadevi.cat,,,,,,,
634,AMIC,valledeelda,valledeelda.com,,,,,,,
635,AMIC,carrerlliure,carrerlliure.cat,,,,,,,
636,AMIC,canalte24,canalte24.cat,,,,,,,
637,AMIC,esportsradio,esportsradio.cat,,,,,,,
638,AMIC,larepublicaesportiva,larepublicaesportiva.cat,,,,,,,
639,AMIC,mon,mon,,,,,,,
640,AMIC,esportbalear,esportbalear.es,,,,,,,
641,AMIC,esportandreuenc,esportandreuenc.cat,,,,,,,
642,AMIC,lapositiva,lapositiva.cat,,,,,,,
643,AMIC,elgourmetcatala,elgourmetcatala.cat,,,,,,,
644,AMIC,foodiesonmenorca,foodiesonmenorca.com,,,,,,,
645,AMIC,vadegust,vadegust.cat,,,,,,,
646,AMIC,balearsvadegust,balearsvadegust.cat,,,,,,,
647,AMIC,hibridosyelectricos,hibridosyelectricos.com(publico.es),,,,,,,
648,AMIC,metadata,metadata.cat,08005,2176349270.0,41384246640.0,Barcelona,Barcelona,Cataluña,Barcelonès
649,AMIC,blanquinegres,blanquinegres.com,,,,,,,
650,AMIC,Junior-report,Junior-report.cat,,,,,,,
651,AMIC,saplaca,saplaca.cat,,,,,,,
652,AMIC,totpla,totpla.cat,07260,3024066910.0,39514970100.0,Porreres,Illes Balears,Illes Balears,
653,AMIC,la-clau,la-clau.net,,,,,,,
654,AMIC,onadigital,onadigital.cat,,,,,,,
655,AMIC,sermaestrat,sermaestrat.com,,,,,,,
656,AMIC,somgandia,somgandia.com,,,,,,,
657,AMIC,somsafor,somsafor.com,,,,,,,
658,AMIC,radiojove,radiojove.cat,,,,,,,
659,AMIC,baixcampradio,baixcampradio.com,,,,,,,
660,AMIC,empordà,empordà.info,,,,,,,
661,AMIC,líniaciutatvella,líniaciutatvella.cat,,,,,,,
662,AMIC,liniacornella,liniacornella.cat,,,,,,,
663,AMIC,líniaeixample,líniaeixample.cat,,,,,,,
664,AMIC,líniagracia,líniagracia.cat,,,,,,,
665,AMIC,líniahorta,líniahorta.cat,,,,,,,
666,AMIC,liniahospitalet,liniahospitalet.cat,,,,,,,
667,AMIC,línialescorts,línialescorts.cat,,,,,,,
668,AMIC,liniamar,liniamar.cat,,,,,,,
669,AMIC,línianord,línianord.cat,,,,,,,
670,AMIC,línianoubarris,línianoubarris.cat,,,,,,,
671,AMIC,liniarambla,liniarambla.cat,,,,,,,
672,AMIC,líniasantandreu,líniasantandreu.cat,,,,,,,
673,AMIC,líniasantmarti,líniasantmarti.cat,,,,,,,
674,AMIC,líniasants,líniasants.cat,,,,,,,
675,AMIC,líniasarria,líniasarria.cat,,,,,,,
676,AMIC,liniatres,liniatres.cat,,,,,,,
677,AMIC,líniavalles,líniavalles.cat,,,,,,,
678,AMIC,sommontmeló,sommontmeló.cat,,,,,,,
679,AMIC,sommontornès,sommontornès.cat,,,,,,,
680,AMIC,Territoris,Territoris.cat,,,,,,,
681,AMIC,Viumolinsderei,Viumolinsderei.com,,,,,,,
682,AMIC,Viurealspirineus,Viurealspirineus.cat,,,,,,,
683,AMIC,andreuenc,andreuenc.cat,,,,,,,
684,AMIC,apropebre,apropebre.cat,43590,0.52500631,40811021460.0,Tortosa,Tarragona,Cataluña,Baix Ebre
685,AMIC,calderi,calderi.cat,,,,,,,
686,AMIC,canalbaixpenedes,canalbaixpenedes.cat,43881,1634060680.0,41197867990.0,Cunit,Tarragona,Cataluña,Baix Penedès
687,AMIC,castelldefels,castelldefels.digital,,,,,,,
688,AMIC,districte7,districte7.cat,,,,,,,
689,AMIC,ebreactiu,ebreactiu.cat,43870,0.57831025,40710388300.0,Amposta,Tarragona,Cataluña,Montsià
690,AMIC,el3,el3.cat,08014,2176349270.0,41384246640.0,Barcelona,Barcelona,Cataluña,Barcelonès
691,AMIC,elmirall,elmirall.net,,,,,,,
692,AMIC,elmonic,elmonic.cat,,,,,,,
693,AMIC,elpoll,elpoll.tv,,,,,,,
694,AMIC,eltotbadalona,eltotbadalona.cat,,,,,,,
695,AMIC,esplugues,esplugues.digital,,,,,,,
696,AMIC,jornalet,jornalet.com,,,,,,,
697,AMIC,laguait,laguait.cat,17100,3038286370.0,41960130180.0,La Bisbal d'Empordà,Girona,Cataluña,Baix Empordà
698,AMIC,lamarina,lamarina.cat,,,,,,,
699,AMIC,lapremsamagazine,lapremsamagazine.cat,,,,,,,
700,AMIC,larella,larella.cat,,,,,,,
701,AMIC,lasemaineduroussillon,lasemaineduroussillon.com,,,,,,,
702,AMIC,lecositges,lecositges.cat,,,,,,,
703,AMIC,lleida24,lleida24.cat,25006,0.62061934,41615273550.0,Lleida,Lleida,Cataluña,Segrià
704,AMIC,madeinperpignan,madeinperpignan.com,,,,,,,
705,AMIC,marina360,marina360.cat,,,,,,,
706,AMIC,martorelltv,martorelltv.com,08740,1975239250.0,41446756590.0,Sant Andreu de la Barca,Barcelona,Cataluña,Baix Llobregat
707,AMIC,radioarrels,radioarrels.cat,66000,,,,,,
708,AMIC,radiositges,radiositges.com,,,,,,,
709,AMIC,revistagroc,revistagroc.com,,,,,,,
710,AMIC,ripolletaldia,ripolletaldia.cat,,,,,,,
711,AMIC,Santandreutv,Santandreutv.com,,,,,,,
712,AMIC,sitgesactiu,sitgesactiu.com,,,,,,,
713,AMIC,teleponent,teleponent.cat,25008,0.62061934,41615273550.0,Lleida,Lleida,Cataluña,Segrià
714,AMIC,tot-hospitalet,tot-hospitalet.cat,08901,2101382870.0,41359770510.0,L'Hospitalet de Llobregat,Barcelona,Cataluña,Baix Llobregat
715,AMIC,vilapress,vilapress.cat,,,,,,,
716,AMIC,zonasec,zonasec.cat,,,,,,,
717,AMIC,aabrera,aabrera.com,,,,,,,
718,AMIC,aesparraguera,aesparraguera.com,,,,,,,
723,AMIC,puntinformatiu,puntinformatiu.cat,,,,,,,
724,AMIC,canalajuntament,canalajuntament.cat,,,,,,,
725,AMIC,laradiodelsnens,laradiodelsnens.cat,,,,,,,
726,AMIC,revistahiperbolic,revistahiperbolic.com,,,,,,,
727,AMIC,ahoramarinabaixa,ahoramarinabaixa.es,03590,-0.05144236,38598924970.0,Altea,Alicante/Alacant,Comunidad Valenciana,La Marina Baixa
728,AMIC,paris-barcelona,paris-barcelona.com,69003,,,,,,
729,AMIC,suasesport,suasesport.com,,,,,,,
730,AMIC,onacatradio,onacatradio.cat,08191,2030032520.0,41491736950.0,Rubí,Barcelona,Cataluña,Vallès Occidental
731,AMIC,parlant-de-detalls,parlant-de-detalls.cat,,,,,,,
732,AMIC,saltramusica,saltramusica.cat,,,,,,,
733,AMIC,latraca,latraca.net,,,,,,,
734,AMIC,criar,criar.cat (grup naciodigital),,,,,,,
735,AMIC,qualsevolnit,qualsevolnit.cat,,,,,,,
736,AMIC,laveudalgemesi,laveudalgemesi.es,,,,,,,
737,AMIC,formularapida,formularapida.net,,,,,,,
738,AMIC,barcelonaalemany,barcelonaalemany.com,,,,,,,
739,AMIC,Lesmuntanyes,Lesmuntanyes.com,,,,,,,
740,AMIC,revistaglobalclub,revistaglobalclub.es,,,,,,,
741,AMIC,equinoxmagazine,equinoxmagazine.fr,08013,2176349270.0,41384246640.0,Barcelona,Barcelona,Cataluña,Barcelonès
743,AMIC,diacritic,diacritic.cat (fotlipou.com),,,,,,,
744,AMIC,ludica,ludica.cat,07014,2651816980.0,39571146990.0,Palma,Illes Balears,Illes Balears,
745,AMIC,radiolavallduixo,radiolavallduixo.com,,,,,,,
746,AMIC,aquicatalunha,aquicatalunha.com.br,,,,,,,
747,AMIC,spacelaw,spacelaw.net   NO PUBLI,,,,,,,
748,AMIC,Social,Social.cat,,,,,,,
749,AMIC,tresdeu,tresdeu.com,46016,-0.36543705,39507112110.0,Tavernes Blanques,Valencia/València,Comunidad Valenciana,L'Horta Nord
750,AMIC,suhecapuntcom,suhecapuntcom.com,,,,,,,
751,AMIC,fulldenginyeria,fulldenginyeria.cat,,,,,,,
752,AMIC,portada,portada.info,,,,,,,
753,AMIC,fetasantfeliu,fetasantfeliu.cat,,,,,,,
754,AMIC,elsbruguersdigital,elsbruguersdigital.cat,,,,,,,
755,AMIC,centpercent,centpercent.cat,07500,3209521360.0,39568890810.0,Manacor,Illes Balears,Illes Balears,El Levante de Mallorca/ es Llevant de Mallorca
756,AMIC,mallorcactual,mallorcactual.com,,,,,,,
757,AMIC,manacorcomarcal,manacorcomarcal.com,,,,,,,
758,AMIC,menorcadiario,menorcadiario.es,,,,,,,
759,AMIC,onamediterrania,onamediterrania.cat,,,,,,,
760,AMIC,Periodicodeibiza,Periodicodeibiza.es,,,,,,,
761,AMIC,sompollença,sompollença.cat,,,,,,,
762,AMIC,forum,forum.ad,,,,,,,
763,AMIC,bondia,bondia.ad,,,,,,,
764,AMIC,laciutat ,laciutat,,,,,,,
765,AMIC,20 minutos barcelona,,,,,,,,
766,AMIC,capgròs mataró i maresme,,,,,,,,
767,AMIC,el nostre banyeres,,,,,,,,
768,AMIC,diari més tarragona reus i costa daurada,,,,,,,,
769,AMIC,el mirall.net,,,,,,,,
770,AMIC,el nou de l'empordà,,,,,,,,
771,AMIC,els colors del pla de l'estany,,,,,,,,
772,AMIC,freqüència,,08241,1827210260.0,41721995940.0,Manresa,Barcelona,Cataluña,Bages
773,AMIC,gente catalunya,,28006,,,,,,
774,AMIC,groc,,,,,,,,
775,AMIC,indicador d'economía,,,,,,,,
776,AMIC,la bústia del baix llobregat,,,,,,,,
777,AMIC,la fura,,08720,1697746700.0,41347212100.0,Vilafranca del Penedès,Barcelona,Cataluña,Alt Penedès
778,AMIC,la marina,,,,,,,,
779,AMIC,el nostre muro,,,,,,,,
780,AMIC,"la torre de barcelona (ed. sarrià, sant gervasi i les corts)",,,,,,,,
781,AMIC,la torre de barcelona - oci i cultura familiar,,,,,,,,
782,AMIC,el nostre xixona,,,,,,,,
783,AMIC,canfali marina alta,,,,,,,,
784,AMIC,linia les corts,,,,,,,,
785,AMIC,línia l'hospitalet,,,,,,,,
786,AMIC,"línia mar (ed. baix llobregat _ castelldefels, gavà, viladecans i el prat)",,,,,,,,
787,AMIC,línia mar (ed. baix maresme),,,,,,,,
788,AMIC,línia nord (ed. barcelonès),,,,,,,,
789,AMIC,línia nord (ed. montserratí) _ abans: ed. baix llobregat,,,,,,,,
790,AMIC,línia sarrià-sant gervasi,,,,,,,,
791,AMIC,"línia tres (esplugues, st joan d, st just d)",,,,,,,,
792,AMIC,línia vallès (ed. vallès oriental),,,,,,,,
793,AMIC,línia vallès (ed. cerdanyola),,,,,,,,
794,AMIC,llevant actualitat,,,,,,,,
795,AMIC,més! osona ripollès garrotxa moianès  (abans: més osona),,,,,,,,
796,AMIC,més vila-seca,,,,,,,,
797,AMIC,mollet a mà,,,,,,,,
798,AMIC,"pànxing berguedà, bages i solsonès",,,,,,,,
799,AMIC,pànxing maresme,,,,,,,,
800,AMIC,pànxing tot cerdanya,,,,,,,,
801,AMIC,"reclam la cerdanya, l'alt urgell",,,,,,,,
802,AMIC,reclam magazín,,,,,,,,
803,AMIC,revista culturab _ (xarxa línia),,,,,,,,
804,AMIC,revista orgull _ (xarxa línia),,,,,,,,
805,AMIC,santcugat magazine,,08172,2085264720.0,41473454030.0,Sant Cugat del Vallès,Barcelona,Cataluña,Vallès Occidental
806,AMIC,see barcelona,,,,,,,,
807,AMIC,sommontornès,,,,,,,,
808,AMIC,torredembarra actualitat,,,,,,,,
809,AMIC,anoiamagazín,,08700,1618295880.0,41578950960.0,Igualada,Barcelona,Cataluña,Anoia
810,AMIC,apunt menorca,,,,,,,,
811,AMIC,bellaterra diari,,,,,,,,
812,AMIC,bondia,,,,,,,,
813,AMIC,calderí,,,,,,,,
814,AMIC,ciutadella de franc,,07760,3837940370.0,40001919410.0,Ciutadella de Menorca,Illes Balears,Illes Balears,
815,AMIC,cultura i paisatge a la ruta del císter,,,,,,,,
816,AMIC,el mònic,,,,,,,,
817,AMIC,7 dies actualitat de benicarló,,,,,,,,
818,AMIC,7 dies actualitat de vinaròs,,,,,,,,
819,AMIC,buris-ana,,12530,0.42396296,40418890480.0,Benicarló,Castellón/Castelló,Comunidad Valenciana,El Baix Maestrat
820,AMIC,ciutat de carlet,,46240,-0.5198408,39227294200.0,Carlet,Valencia/València,Comunidad Valenciana,La Ribera Alta
821,AMIC,la opinión de torrent,,,,,,,,
822,AMIC,èxit vallès,,,,,,,,
823,AMIC,flash deco sant cugat,,,,,,,,
824,AMIC,iluro,,,,,,,,
825,AMIC,info calafell,,,,,,,,
826,AMIC,info roda,,,,,,,,
827,AMIC,la positiva,,,,,,,,
828,AMIC,la rella,,,,,,,,
829,AMIC,la veu d'alginet,,,,,,,,
830,AMIC,les mesures del pirineu,,25700,1461979470.0,42357708850.0,La Seu d'Urgell,Lleida,Cataluña,Alt Urgell
831,AMIC,l'ham,,,,,,,,
832,AMIC,l’informatiu de palau-solità i plegamans,,08184,2112556190.0,41869237850.0,L'Estany,Barcelona,Cataluña,
833,AMIC,l'opinió l'hospitalet i baix llobregat,,,,,,,,
834,AMIC,magazine lleida,,25001,0.62061934,41615273550.0,Lleida,Lleida,Cataluña,Segrià
835,AMIC,notícies del matarranya,,44586,,,,,,
836,AMIC,nua,,,,,,,,
837,AMIC,paral·lel oh!,,08015,2176349270.0,41384246640.0,Barcelona,Barcelona,Cataluña,Barcelonès
838,AMIC,"reclam la garrotxa""el 29""",,,,,,,,
839,AMIC,respira comerç,,17500,2190826130.0,42201273510.0,Ripoll,Girona,Cataluña,Ripollès
840,AMIC,revista badalona 2000,,08912,2246253680.0,41452624810.0,Badalona,Barcelona,Cataluña,Barcelonès
841,AMIC,revista de vic,,,,,,,,
842,AMIC,revista la ciutat,,43001,1258421900.0,41119102870.0,Tarragona,Tarragona,Cataluña,Tarragonès
843,AMIC,revista mira'm,,,,,,,,
844,AMIC,revista útil,,07702,4265465550.0,39887522180.0,Maó-Mahón,Illes Balears,Illes Balears,
845,AMIC,somiatruites,,07701,4265465550.0,39887522180.0,Maó-Mahón,Illes Balears,Illes Balears,
846,AMIC,territoris magazine,,,,,,,,
847,AMIC,tot caldes de montbui,,08140,2164880780.0,41631217180.0,Caldes de Montbui,Barcelona,Cataluña,Vallès Oriental
848,AMIC,tot .... i més,,,,,,,,
849,AMIC,tothosap! garraf,,08800,1723839900.0,41227219910.0,Vilanova i la Geltrú,Barcelona,Cataluña,Garraf
850,AMIC,tot molins,,08750,2017369080.0,41413211100.0,Molins de Rei,Barcelona,Cataluña,Baix Llobregat
851,AMIC,tot osona,,,,,,,,
852,AMIC,"tot temàtic (tot casa, tot salut i tot gastro)",,,,,,,,
853,AMIC,zona sec,,,,,,,,
854,AMIC,l'alcudia 752,,,,,,,,
855,AMIC,el nostre bocairent,,,,,,,,
856,AMIC,7setmanari de llevat,,,,,,,,
857,AMIC,"al portal, veus de l'aguer",,,,,,,,
858,AMIC,el nostre oliva,,,,,,,,
859,AMIC,cala millor 7,,07550,3360063370.0,39620438770.0,Son Servera,Illes Balears,Illes Balears,El Levante de Mallorca/ es Llevant de Mallorca
860,AMIC,la veu d'algemesí,,,,,,,,
861,AMIC,"camacuc, revista per xiquets i xiquetes",,46200,-0.41879076,39428311980.0,Paiporta,Valencia/València,Comunidad Valenciana,L'Horta Sud
862,AMIC,cent per cent,,,,,,,,
863,AMIC,d ferreries,,,,,,,,
864,AMIC,diari ara,,,,,,,,
865,AMIC,diari menorca,,,,,,,,
866,AMIC,dona secret,,,,,,,,
867,AMIC,el 9 nou osona i el ripolles,,,,,,,,
868,AMIC,el 9 nou vallès oriental,,,,,,,,
869,AMIC,el breny,,,,,,,,
870,AMIC,el gratis,,,,,,,,
871,AMIC,el iris,,,,,,,,
872,AMIC,el nostre ciutat,,,,,,,,
873,AMIC,el periòdic d'andorra,,,,,,,,
874,AMIC,el periòdic d'ontinyent,,,,,,,,
875,AMIC,el saò,,,,,,,,
876,AMIC,escaparate,,,,,,,,
877,AMIC,estil,,,,,,,,
878,AMIC,la semaine du roussillon,,,,,,,,
879,AMIC,la traca,,,,,,,,
880,AMIC,la veu de l'anoia _ info preu 1/2 diba,,,,,,,,
881,AMIC,"las bandas periòdic de la música, les músiques i la cultura popular _ (pv)",,,,,,,,
882,AMIC,l'eco de sitges,,,,,,,,
883,AMIC,l'estel,,,,,,,,
884,AMIC,magazín la mira,,,,,,,,
885,AMIC,manacor comarcal,,,,,,,,
886,AMIC,mel i sucre,,,,,,,,
887,AMIC,mil dimonis,,,,,,,,
888,AMIC,món sant cugat,,,,,,,,
889,AMIC,penedès econòmic,,,,,,,,
890,AMIC,periódico de ibiza y formentera,,,,,,,,
891,AMIC,portada.info,,,,,,,,
892,AMIC,punt informatiu pollença,,,,,,,,
893,AMIC,revista poble (pv),,,,,,,,
894,AMIC,s'altra música,,,,,,,,
895,AMIC,sa plaça,,,,,,,,
896,AMIC,setmanari informació comarcal notícies,,,,,,,,
897,AMIC,setmanari sóller,,,,,,,,
898,AMIC,semanario valle de elda,,,,,,,,
899,AMIC,suheca,,,,,,,,
900,AMIC,top girona,,17007,2824118990.0,41981860750.0,Girona,Girona,Cataluña,Gironès
901,AMIC,tucomarca.com,,46360,-0.78986594,39418013630.0,Buñol,Valencia/València,Comunidad Valenciana,La Hoya de Buñol
902,AMIC,vallespir,,,,,,,,
903,Iberfier,243 cat,243cat.wordpress.com,,,,,,,
904,Iberfier,25 televisió,25televisio.com,08036,2176349270.0,41384246640.0,Barcelona,Barcelona,Cataluña,Barcelonès
905,Iberfier,40 putes,40putes.com,,,,,,,
906,Iberfier,50x7,50x7.com,,,,,,,
907,Iberfier,772 el diari digital de castellbisbal,772.cat,08755,1980461760.0,41474860940.0,Castellbisbal,Barcelona,Cataluña,Vallès Occidental
908,Iberfier,7 dies vallès,7diesvalles.com,08211,2085805160.0,41618077760.0,Castellar del Vallès,Barcelona,Cataluña,Vallès Occidental
909,Iberfier,7deràdio,7deradio.cat,,,,,,,
910,Iberfier,777 comunica,setsetset.cat,08292,1868858910.0,41541237470.0,Esparreguera,Barcelona,Cataluña,Baix Llobregat
911,Iberfier,8 tv,8tv.cat,08036,2176349270.0,41384246640.0,Barcelona,Barcelona,Cataluña,Barcelonès
912,Iberfier,9 exili,9exili.com,,,,,,,
913,Iberfier,9 magazine,9magazin.el9nou.cat,08500,2255735690.0,41928383540.0,Vic,Barcelona,Cataluña,Osona
914,Iberfier,acel obert,acelobert.com,08025,2176349270.0,41384246640.0,Barcelona,Barcelona,Cataluña,Barcelonès
915,Iberfier,actualitat penal,actualitatpenal.cat,43002,1258421900.0,41119102870.0,Tarragona,Tarragona,Cataluña,Tarragonès
916,Iberfier,actualitat valenciana,actualitatvalenciana.com,12001,-0.03688142,39986408090.0,Castellón de la Plana/Castelló de la Plana,Castellón/Castelló,Comunidad Valenciana,La Plana Alta
917,Iberfier,agència catalana de notícies,acn.cat,08029,2176349270.0,41384246640.0,Barcelona,Barcelona,Cataluña,Barcelonès
918,Iberfier,agencia efe,efe.com,28036,,,,,,
919,Iberfier,agrocultura,agrocultura.org,08242,1827210260.0,41721995940.0,Manresa,Barcelona,Cataluña,Bages
920,Iberfier,aixoes mallorca,aixoesmallorca.com,,,,,,,
921,Iberfier,alacant extra,alacantextra.com,46017,-0.37565717,39475344410.0,València,Valencia/València,Comunidad Valenciana,València
922,Iberfier,altanto!!,altanto.cat,25110,0.55526727,41666506160.0,Alpicat,Lleida,Cataluña,Segrià
923,Iberfier,alzira ràdio,alziraradio.com,46600,-0.43554456,39149448320.0,Alzira,Valencia/València,Comunidad Valenciana,La Ribera Alta
924,Iberfier,antena catalana,antenacatalana.net,,,,,,,
925,Iberfier,à punt,apuntmedia.es,46100,-0.41266051,39509732030.0,Burjassot,Valencia/València,Comunidad Valenciana,L'Horta Nord
926,Iberfier,ara granollers,aragranollers.cat,08100,2213491190.0,41539245560.0,Mollet del Vallès,Barcelona,Cataluña,Vallès Oriental
927,Iberfier,ara vallès,aravalles.cat,08100,2213491190.0,41539245560.0,Mollet del Vallès,Barcelona,Cataluña,Vallès Oriental
928,Iberfier,audiovisual cabrera,audiovisualcabrera.net,08349,2392583360.0,41528045390.0,Cabrera de Mar,Barcelona,Cataluña,Maresme
929,Iberfier,avenç el palau,avensdelpalau.cat,25243,0.88036993,41651772940.0,El Palau d'Anglesola,Lleida,Cataluña,Pla d'Urgell
930,Iberfier,badalona comunicació,bdncom.cat,08915,2246253680.0,41452624810.0,Badalona,Barcelona,Cataluña,Barcelonès
931,Iberfier,badanotis,badanotis.com,,,,,,,
932,Iberfier,banyoles tv,banyolestv.cat,17820,2769469900.0,42120591370.0,Banyoles,Girona,Cataluña,Pla de l'Estany
933,Iberfier,barcelona digital radio,digitalradio.cat,08014,2176349270.0,41384246640.0,Barcelona,Barcelona,Cataluña,Barcelonès
934,Iberfier,barcelona metròpolis,barcelona.cat,08014,2176349270.0,41384246640.0,Barcelona,Barcelona,Cataluña,Barcelonès
935,Iberfier,belltall,belltall.net,,,,,,,
936,Iberfier,benegre,benegre.cat,,,,,,,
937,Iberfier,berguedà actual,bergactual.com,08600,1844024700.0,42103288740.0,Berga,Barcelona,Cataluña,Berguedà
938,Iberfier,blanes al día,blanesaldia.com,17300,2792292960.0,41675921570.0,Blanes,Girona,Cataluña,Selva
939,Iberfier,boca ràdio,bocaradio.org,08032,2176349270.0,41384246640.0,Barcelona,Barcelona,Cataluña,Barcelonès
940,Iberfier,bolsamania,bolsamania.com,28020,,,,,,
941,Iberfier,butxaca,butxaca.com,08010,2176349270.0,41384246640.0,Barcelona,Barcelona,Cataluña,Barcelonès
942,Iberfier,cafèambllet.com,cafeambllet.com,,,,,,,
943,Iberfier,calafell radio y tv,calafell.tv,43820,1568348580.0,41201717570.0,Calafell,Tarragona,Cataluña,Baix Penedès
944,Iberfier,calamillor7,calamillor7.com,07550,3360063370.0,39620438770.0,Son Servera,Illes Balears,Illes Balears,El Levante de Mallorca/ es Llevant de Mallorca
945,Iberfier,cam ràdio,camradio.blogspot.com.es,,,,,,,
946,Iberfier,canal 4 radio,canal4radio.com,07121,,,,,,
947,Iberfier,canal 4 tv,canal4televisio.com,,,,,,,
948,Iberfier,canal set,canalset.com,08187,2226584400.0,41652707160.0,Santa Eulàlia de Ronçana,Barcelona,Cataluña,Vallès Oriental
949,Iberfier,canal taronja,canaltaronja.cat,08241,1827210260.0,41721995940.0,Manresa,Barcelona,Cataluña,Bages
950,Iberfier,capçalera,periodistes.cat,08007,2176349270.0,41384246640.0,Barcelona,Barcelona,Cataluña,Barcelonès
951,Iberfier,caràkter ciutadà,carakter.org,08830,2041821160.0,41342537100.0,Sant Boi de Llobregat,Barcelona,Cataluña,Baix Llobregat
952,Iberfier,cassà digital,cassadigital.cat,17224,,,,,,
953,Iberfier,catalunya cristiana,catalunyacristiana.cat,08014,2176349270.0,41384246640.0,Barcelona,Barcelona,Cataluña,Barcelonès
954,Iberfier,catalunya news,catalunyanews.cat,08001,2176349270.0,41384246640.0,Barcelona,Barcelona,Cataluña,Barcelonès
955,Iberfier,catalunya plural,catalunyaplural.cat,08023,2176349270.0,41384246640.0,Barcelona,Barcelona,Cataluña,Barcelonès
956,Iberfier,catalunya radio,ccma.cat,08021,2176349270.0,41384246640.0,Barcelona,Barcelona,Cataluña,Barcelonès
957,Iberfier,cat música,catmusica.cat,,,,,,,
958,Iberfier,cerdanya digital,cerdanyadigital.cat,17520,1926340120.0,42432640780.0,Puigcerdà,Girona,Cataluña,Cerdanya
959,Iberfier,cerdanyola informa!,cerdanyolainforma.cat,08222,2012151410.0,41562363460.0,Terrassa,Barcelona,Cataluña,Vallès Occidental
960,Iberfier,cinegeticat,cinegeticat.cat,08261,1681446300.0,41913743100.0,Cardona,Barcelona,Cataluña,Bages
961,Iberfier,circ de tarragona,circdetarragona.com,43003,1258421900.0,41119102870.0,Tarragona,Tarragona,Cataluña,Tarragonès
962,Iberfier,ciutat nova,ciutatnova.org,17249,3067984430.0,41814266060.0,Castell-Platja d'Aro,Girona,Cataluña,
963,Iberfier,clicama,clicama.cat,08100,2213491190.0,41539245560.0,Mollet del Vallès,Barcelona,Cataluña,Vallès Oriental
964,Iberfier,clic tv,clictv.cat,,,,,,,
965,Iberfier,climática,climatica.lamarea.com,28004,,,,,,
966,Iberfier,código nuevo,codigonuevo.com,08009,2176349270.0,41384246640.0,Barcelona,Barcelona,Cataluña,Barcelonès
967,Iberfier,comunicació palafrugell,comunicaciopalafrugell.cat,17200,3163977640.0,41917181590.0,Palafrugell,Girona,Cataluña,Baix Empordà
968,Iberfier,contra banda,contrabanda.org,08080,,,,,,
969,Iberfier,converses a catalunya,conversesacatalunya.cat,08034,2176349270.0,41384246640.0,Barcelona,Barcelona,Cataluña,Barcelonès
970,Iberfier,cooltura fm,coolturafm.com,08005,2176349270.0,41384246640.0,Barcelona,Barcelona,Cataluña,Barcelonès
971,Iberfier,cope tarragona-reus,cope.es,43201,1109861180.0,41154107250.0,Reus,Tarragona,Cataluña,Baix Camp
972,Iberfier,cope valencia,cope.es,46004,-0.37565717,39475344410.0,València,Valencia/València,Comunidad Valenciana,València
973,Iberfier,corporació catalana de mitjans audiovisuals,ccma.cat,08017,2176349270.0,41384246640.0,Barcelona,Barcelona,Cataluña,Barcelonès
974,Iberfier,costa magazine,costamagazine.com,43982,,,,,,
975,Iberfier,cupatges,cupatges.cat,08041,2176349270.0,41384246640.0,Barcelona,Barcelona,Cataluña,Barcelonès
976,Iberfier,despí tv,despi.tv,,,,,,,
977,Iberfier,d’estil,destil.cat,17469,2996195350.0,42252126160.0,El Far d'Empordà,Girona,Cataluña,Alt Empordà
978,Iberfier,diacrític,diacritic.cat,08010,2176349270.0,41384246640.0,Barcelona,Barcelona,Cataluña,Barcelonès
979,Iberfier,diagonal,revistadiagonal.com,08028,2176349270.0,41384246640.0,Barcelona,Barcelona,Cataluña,Barcelonès
980,Iberfier,diari català,diaricatala.cat,08191,2030032520.0,41491736950.0,Rubí,Barcelona,Cataluña,Vallès Occidental
981,Iberfier,diari de barcelona,diaridebarcelona.cat,08002,2176349270.0,41384246640.0,Barcelona,Barcelona,Cataluña,Barcelonès
982,Iberfier,diari de la neu,diaridelaneu.cat,17700,2926534360.0,42223237760.0,Borrassà,Girona,Cataluña,Alt Empordà
983,Iberfier,diari de tarragona,diaridetarragona.com,43005,1258421900.0,41119102870.0,Tarragona,Tarragona,Cataluña,Tarragonès
984,Iberfier,diari de vilanova,diaridevilanova.cat,08800,1723839900.0,41227219910.0,Vilanova i la Geltrú,Barcelona,Cataluña,Garraf
985,Iberfier,diari la terreta,diarilaterreta.com,12003,-0.03688142,39986408090.0,Castellón de la Plana/Castelló de la Plana,Castellón/Castelló,Comunidad Valenciana,La Plana Alta
986,Iberfier,diari la veu,diarilaveu.com,46270,-0.51307146,39077306880.0,Villanueva de Castellón,Valencia/València,Comunidad Valenciana,El Alto Mijares
987,Iberfier,diari maresme,diarimaresme.com,08940,2070132020.0,41355469340.0,Cornellà de Llobregat,Barcelona,Cataluña,Baix Llobregat
988,Iberfier,diari serpis,diariserpis.com,46750,-0.31183498,39043540050.0,Simat de la Valldigna,Valencia/València,Comunidad Valenciana,La Safor
989,Iberfier,diari win,diariwin.cat,08172,2085264720.0,41473454030.0,Sant Cugat del Vallès,Barcelona,Cataluña,Vallès Occidental
990,Iberfier,directe!,directe.cat,08010,2176349270.0,41384246640.0,Barcelona,Barcelona,Cataluña,Barcelonès
991,Iberfier,dossier europa,dossiereuropa.eu,25002,0.62061934,41615273550.0,Lleida,Lleida,Cataluña,Segrià
992,Iberfier,ebre exprés,ebreexpres.com,43870,0.57831025,40710388300.0,Amposta,Tarragona,Cataluña,Montsià
993,Iberfier,el 3 de vuit,el3devuit.cat,08720,1697746700.0,41347212100.0,Vilafranca del Penedès,Barcelona,Cataluña,Alt Penedès
994,Iberfier,el babau,elbabau.net,25286,1110904170.0,42634367670.0,Alt Àneu,Lleida,Cataluña,Pallars Sobirà
995,Iberfier,el capicua,elcapicua.cat,,,,,,,
996,Iberfier,el caso,elcaso.net,08029,2176349270.0,41384246640.0,Barcelona,Barcelona,Cataluña,Barcelonès
997,Iberfier,el castell,elcastell.org,08860,1976806410.0,41278773430.0,Castelldefels,Barcelona,Cataluña,Baix Llobregat
998,Iberfier,el cinèfil,elcinefil.cat,,,,,,,
999,Iberfier,el diari,eldiari.cat,08240,1827210260.0,41721995940.0,Manresa,Barcelona,Cataluña,Bages
1000,Iberfier,el diari del vallès,diaridelvalles.cat,08224,2012151410.0,41562363460.0,Terrassa,Barcelona,Cataluña,Vallès Occidental
1001,Iberfier,eldiario.es,eldiario.es,28028,,,,,,
1002,Iberfier,el dimoni,eldimoni.com,17820,2769469900.0,42120591370.0,Banyoles,Girona,Cataluña,Pla de l'Estany
1003,Iberfier,el far fm,elfarfm.cat,,,,,,,
1004,Iberfier,el matí independent de lleida,elmatiindependent.com,,,,,,,
1005,Iberfier,el mercadal,elmercadal.cat,25600,0.80457795,41791522870.0,Balaguer,Lleida,Cataluña,Noguera
1006,Iberfier,el montònec digital,montonec.cat,08736,1588691730.0,41437080590.0,Font-rubí,Barcelona,Cataluña,Alt Penedès
1007,Iberfier,el nacional.cat,elnacional.cat,08029,2176349270.0,41384246640.0,Barcelona,Barcelona,Cataluña,Barcelonès
1008,Iberfier,el nas de cardedeu,elnasdecardedeu.cat,08440,2354677040.0,41693785510.0,Cànoves i Samalús,Barcelona,Cataluña,Vallès Oriental
1009,Iberfier,el nostre digital,elnostreperiodic.com,03801,-0.47318376,38698368940.0,Alcoi/Alcoy,Alicante/Alacant,Comunidad Valenciana,L'Alcoià
1010,Iberfier,el país,elpais.com,28037,,,,,,
1011,Iberfier,el periódico,elperiodico.com,08009,2176349270.0,41384246640.0,Barcelona,Barcelona,Cataluña,Barcelonès
1012,Iberfier,el poll tv,elpolltv.cat,17240,2891999100.0,41828674490.0,Llagostera,Girona,Cataluña,Gironès
1013,Iberfier,el prat tv,elprat.tv,08820,2092623600.0,41330958480.0,El Prat de Llobregat,Barcelona,Cataluña,Baix Llobregat
1014,Iberfier,el ripollès digital,ripollesdigital.cat,17800,2488165590.0,42181837930.0,Olot,Girona,Cataluña,Garrotxa
1015,Iberfier,el salto,elsaltodiario.com,28045,,,,,,
1016,Iberfier,el setmanari de súria,elsetmanaridesuria.cat,08006,2176349270.0,41384246640.0,Barcelona,Barcelona,Cataluña,Barcelonès
1017,Iberfier,el sot,elsot.cat,08192,2080981950.0,41533291240.0,Sant Quirze del Vallès,Barcelona,Cataluña,Vallès Occidental
1018,Iberfier,el tecnològic,eltecnologic.cat,,,,,,,
1019,Iberfier,el ter,elter.net,08560,2285028180.0,42001126710.0,Manlleu,Barcelona,Cataluña,Osona
1020,Iberfier,el tot granollers,eltotgranollers.cat,08401,2286177000.0,41607930850.0,Granollers,Barcelona,Cataluña,Vallès Oriental
1021,Iberfier,el tot mataró i maresme,totmataro.cat,08301,2446580620.0,41540846900.0,Mataró,Barcelona,Cataluña,Maresme
1022,Iberfier,el travesser,eltravesser.cat,43800,1247384200.0,41283888500.0,Valls,Tarragona,Cataluña,Alt Camp
1023,Iberfier,el triangle,eltriangle.eu,08002,2176349270.0,41384246640.0,Barcelona,Barcelona,Cataluña,Barcelonès
1024,Iberfier,el vallenc,elvallenc.cat,43800,1247384200.0,41283888500.0,Valls,Tarragona,Cataluña,Alt Camp
1025,Iberfier,emporda digital,empordadigital.cat,,,,,,,
1026,Iberfier,e-notícies,e-noticies.cat,08025,2176349270.0,41384246640.0,Barcelona,Barcelona,Cataluña,Barcelonès
1027,Iberfier,entorn revista digital,revistaentorn.com,,,,,,,
1028,Iberfier,entreacte,entreacte.cat,08030,2176349270.0,41384246640.0,Barcelona,Barcelona,Cataluña,Barcelonès
1029,Iberfier,eroski consumer,consumer.es,48230,,,,,,
1030,Iberfier,es diari,esdiari.com,07702,4265465550.0,39887522180.0,Maó-Mahón,Illes Balears,Illes Balears,
1031,Iberfier,esguard,revistaesguard.cat,08003,2176349270.0,41384246640.0,Barcelona,Barcelona,Cataluña,Barcelonès
1032,Iberfier,espluga fm ràdio,esplugafmradio.info,43440,1102890960.0,41396492940.0,L'Espluga de Francolí,Tarragona,Cataluña,Conca de Barberà
1033,Iberfier,esquerra diari catalunya,esquerradiari.cat,,,,,,,
1034,Iberfier,ésteva,etv.cat,08950,2084089500.0,41372118950.0,Esplugues de Llobregat,Barcelona,Cataluña,Baix Llobregat
1035,Iberfier,estris,estris.cat,08029,2176349270.0,41384246640.0,Barcelona,Barcelona,Cataluña,Barcelonès
1036,Iberfier,ets el que menges,etselquemenges.cat,08006,2176349270.0,41384246640.0,Barcelona,Barcelona,Cataluña,Barcelonès
1037,Iberfier,fem safareig,femsafareig.cat,43330,1051970220.0,41139091510.0,Riudoms,Tarragona,Cataluña,Baix Camp
1038,Iberfier,fútbol base catalá,futbolbasecatala.cat,08019,2176349270.0,41384246640.0,Barcelona,Barcelona,Cataluña,Barcelonès
1039,Iberfier,garrotxa digital,garrotxadigital.cat,17800,2488165590.0,42181837930.0,Olot,Girona,Cataluña,Garrotxa
1040,Iberfier,gavà tv,gavatv.cat,08850,2003299040.0,41303316660.0,Gavà,Barcelona,Cataluña,Baix Llobregat
1041,Iberfier,gent gran,gentgran.org,08011,2176349270.0,41384246640.0,Barcelona,Barcelona,Cataluña,Barcelonès
1042,Iberfier,gidona,gidona.cat,17455,2809038010.0,41836709520.0,Caldes de Malavella,Girona,Cataluña,Selva
1043,Iberfier,gironanotícies.com,gironanoticies.com,,,,,,,
1044,Iberfier,globalon,globalon.es,,,,,,,
1045,Iberfier,gool natura,goolnatura.cat,,,,,,,
1046,Iberfier,gràcia món,graciamon.cat,,,,,,,
1047,Iberfier,gràcia televisió,graciatelevisio.cat,,,,,,,
1048,Iberfier,gramenet 2.0,gramenet20.com,,,,,,,
1049,Iberfier,granollers informa!,granollersinforma.com,08222,2012151410.0,41562363460.0,Terrassa,Barcelona,Cataluña,Vallès Occidental
1050,Iberfier,gran vía radio,granviaradio.wixsite.com,08020,2176349270.0,41384246640.0,Barcelona,Barcelona,Cataluña,Barcelonès
1051,Iberfier,groc revista,revistagroc.com,25600,0.80457795,41791522870.0,Balaguer,Lleida,Cataluña,Noguera
1052,Iberfier,grup4,grup4.com,07121,,,,,,
1053,Iberfier,guia nupcial,guianupcial.com,43713,1558954280.0,41299808970.0,Sant Jaume dels Domenys,Tarragona,Cataluña,Baix Penedès
1054,Iberfier,hiperbòlic,hiperbolic.es,07012,2651816980.0,39571146990.0,Palma,Illes Balears,Illes Balears,
1055,Iberfier,hit 103,hit103.cat,43800,1247384200.0,41283888500.0,Valls,Tarragona,Cataluña,Alt Camp
1056,Iberfier,hola lleida,holalleida.com,25001,0.62061934,41615273550.0,Lleida,Lleida,Cataluña,Segrià
1057,Iberfier,hora nova,horanova.cat,17600,2960278050.0,42267835900.0,Figueres,Girona,Cataluña,Alt Empordà
1058,Iberfier,ib3 televisió y ràdio,ib3tv.com,07180,2502482810.0,39565889200.0,Calvià,Illes Balears,Illes Balears,La Sierra de Tramontana/ sa Serra de Tramuntana
1059,Iberfier,icat radio,catradio.cat,08970,2055420540.0,41367564020.0,Sant Joan Despí,Barcelona,Cataluña,Baix Llobregat
1060,Iberfier,imc barcelona,barcelona.indymedia.org,,,,,,,
1061,Iberfier,independent barbera,independentbarbera.cat,08210,2126594240.0,41517253390.0,Barberà del Vallès,Barcelona,Cataluña,Vallès Occidental
1062,Iberfier,indumentat,indumentat.com,,,,,,,
1063,Iberfier,info jonquera,infojonquera.cat,17700,2926534360.0,42223237760.0,Borrassà,Girona,Cataluña,Alt Empordà
1064,Iberfier,jove espectacle,jovespectacle.cat,08391,2268282240.0,41484608330.0,Tiana,Barcelona,Cataluña,Maresme
1065,Iberfier,junior report,junior-report.media,08010,2176349270.0,41384246640.0,Barcelona,Barcelona,Cataluña,Barcelonès
1066,Iberfier,kodro.cat,kodro.cat,08320,2316489780.0,41479437580.0,El Masnou,Barcelona,Cataluña,Maresme
1067,Iberfier,la cala rtv,ametllamar.cat,43860,0.80032416,40885002210.0,L'Ametlla de Mar,Tarragona,Cataluña,Baix Ebre
1068,Iberfier,l'accent,laccent.cat,,,,,,,
1069,Iberfier,la farga - revista de salt,revistalafarga.cat,17190,2781412350.0,41974375130.0,Salt,Girona,Cataluña,Gironès
1070,Iberfier,l'actual,radiocastellar.cat,08211,2085805160.0,41618077760.0,Castellar del Vallès,Barcelona,Cataluña,Vallès Occidental
1071,Iberfier,la fulla,lafulla.cat,25332,1018383950.0,41713687110.0,La Fuliola,Lleida,Cataluña,Urgell
1072,Iberfier,la local ràdio tiana,lalocal.tianat.cat,08391,2268282240.0,41484608330.0,Tiana,Barcelona,Cataluña,Maresme
1073,Iberfier,la marina digital,lamarinadigital.cat,08038,2176349270.0,41384246640.0,Barcelona,Barcelona,Cataluña,Barcelonès
1074,Iberfier,la nova ràdio,lanovaradio.cat,13201,,,,,,
1075,Iberfier,la ocho mediterráneo,laocho.tv,46023,-0.37565717,39475344410.0,València,Valencia/València,Comunidad Valenciana,València
1076,Iberfier,la palanca,lapalanca.cat,25730,1047886570.0,41896345320.0,Artesa de Segre,Lleida,Cataluña,Noguera
1077,Iberfier,la plana al día,laplanaaldia.com,12530,0.42396296,40418890480.0,Benicarló,Castellón/Castelló,Comunidad Valenciana,El Baix Maestrat
1078,Iberfier,la revistona,larevistona.cat,,,,,,,
1079,Iberfier,l'artesenc,lartesenc.cat,08271,1951028660.0,41799633000.0,Artés,Barcelona,Cataluña,Bages
1080,Iberfier,la veu de benicarló,laveudebenicarlo.info,12580,0.42396296,40418890480.0,Benicarló,Castellón/Castelló,Comunidad Valenciana,El Baix Maestrat
1081,Iberfier,latinos fm,latinosfm.es,,,,,,,
1082,Iberfier,la vanguardia,lavanguardia.com,08036,2176349270.0,41384246640.0,Barcelona,Barcelona,Cataluña,Barcelonès
1083,Iberfier,l'avenç,lavenc.cat,08010,2176349270.0,41384246640.0,Barcelona,Barcelona,Cataluña,Barcelonès
1084,Iberfier,la vila,lavila.cat,43840,1131979610.0,41076850680.0,Salou,Tarragona,Cataluña,Tarragonès
1085,Iberfier,lacolumna.cat,lacolumna.cat,08003,2176349270.0,41384246640.0,Barcelona,Barcelona,Cataluña,Barcelonès
1086,Iberfier,la vila digital,laviladigital.com,08470,2463162020.0,41724786250.0,Campins,Barcelona,Cataluña,Vallès Oriental
1087,Iberfier,la xarxa,laxarxa.com,08310,2400733040.0,41554146050.0,Argentona,Barcelona,Cataluña,Maresme
1088,Iberfier,l’eco de sitges,lecodesitges.cat,08870,1805684230.0,41237169440.0,Sitges,Barcelona,Cataluña,Garraf
1089,Iberfier,l'econòmic,leconomic.cat,08009,2176349270.0,41384246640.0,Barcelona,Barcelona,Cataluña,Barcelonès
1090,Iberfier,l'esportiu de catalunya,lesportiudecatalunya.cat,17005,2824118990.0,41981860750.0,Girona,Girona,Cataluña,Gironès
1091,Iberfier,levante ud radio,levanteud.com,46019,-0.37565717,39475344410.0,València,Valencia/València,Comunidad Valenciana,València
1092,Iberfier,lhdigital,lhdigital.cat,08902,2101382870.0,41359770510.0,L'Hospitalet de Llobregat,Barcelona,Cataluña,Baix Llobregat
1093,Iberfier,l'hora | el diari en línia de nou cicle,noucicle.org,,,,,,,
1094,Iberfier,lliure i millor,lliureimillor.cat,17820,2769469900.0,42120591370.0,Banyoles,Girona,Cataluña,Pla de l'Estany
1095,Iberfier,llobregós informatiu,llobregos.info,25750,1403909110.0,41812816760.0,Torà,Lleida,Cataluña,Solsonès
1096,Iberfier,l’opció,lopcio.cat,43800,1247384200.0,41283888500.0,Valls,Tarragona,Cataluña,Alt Camp
1097,Iberfier,lo pedris,lopedris.cat,43380,1033470870.0,41228615820.0,Vilaplana,Tarragona,Cataluña,Baix Camp
1098,Iberfier,l'unilateral,unilateral.cat,08302,2446580620.0,41540846900.0,Mataró,Barcelona,Cataluña,Maresme
1099,Iberfier,malgrat comunicació,malgratcomunicacio.cat,08380,2742167210.0,41646340390.0,Malgrat de Mar,Barcelona,Cataluña,Maresme
1100,Iberfier,maresme 360,maresme360.cat,17410,2742761800.0,41805749970.0,Sils,Girona,Cataluña,Selva
1101,Iberfier,matadepera tv,matadepera.cat,08230,2027681000.0,41599217640.0,Matadepera,Barcelona,Cataluña,Vallès Occidental
1102,Iberfier,mataró audiovisual,mataroaudiovisual.alacarta.cat,,,,,,,
1103,Iberfier,mètode,metode.cat,46008,-0.37565717,39475344410.0,València,Valencia/València,Comunidad Valenciana,València
1104,Iberfier,mislata news,mislatanews.com,46920,-0.41745851,39475335130.0,Mislata,Valencia/València,Comunidad Valenciana,L'Horta Sud
1105,Iberfier,mislata radio,mislataradio.com,46920,-0.41745851,39475335130.0,Mislata,Valencia/València,Comunidad Valenciana,L'Horta Sud
1106,Iberfier,molins tv,molinstvonline.cat,08750,2017369080.0,41413211100.0,Molins de Rei,Barcelona,Cataluña,Baix Llobregat
1107,Iberfier,món empresarial,monempresarial.com,08006,2176349270.0,41384246640.0,Barcelona,Barcelona,Cataluña,Barcelonès
1108,Iberfier,montcada ràdio,montcadaradio.com,08110,2187963750.0,41486807670.0,Montcada i Reixac,Barcelona,Cataluña,Vallès Occidental
1109,Iberfier,nationalia,nationalia.cat,08029,2176349270.0,41384246640.0,Barcelona,Barcelona,Cataluña,Barcelonès
1110,Iberfier,noticiari es saig,essaig.cat,07210,2895909630.0,39559600020.0,Algaida,Illes Balears,Illes Balears,El Llano de Mallorca/ es Pla de Mallorca
1111,Iberfier,nous catalans,nouscatalans.cat,,,,,,,
1112,Iberfier,nova badia,novabadia.com,,,,,,,
1113,Iberfier,nova conca,novaconca.cat,43800,1247384200.0,41283888500.0,Valls,Tarragona,Cataluña,Alt Camp
1114,Iberfier,novelda radio,noveldaradio.es,03660,-0.76539782,38386063820.0,Novelda,Alicante/Alacant,Comunidad Valenciana,El Vinalopó Mitjà / El Vinalopó Medio
1115,Iberfier,núvol,nuvol.com,08001,2176349270.0,41384246640.0,Barcelona,Barcelona,Cataluña,Barcelonès
1116,Iberfier,ona mar,onamar.net,08913,2246253680.0,41452624810.0,Badalona,Barcelona,Cataluña,Barcelonès
1117,Iberfier,ona mediterrània radio,onamediterrania.cat,07001,2651816980.0,39571146990.0,Palma,Illes Balears,Illes Balears,
1118,Iberfier,ona sants-monjüic,onadesants.cat,08014,2176349270.0,41384246640.0,Barcelona,Barcelona,Cataluña,Barcelonès
1119,Iberfier,onda cero castellón,ondacero.es,12002,-0.03688142,39986408090.0,Castellón de la Plana/Castelló de la Plana,Castellón/Castelló,Comunidad Valenciana,La Plana Alta
1120,Iberfier,onda cero catalunya,ondacero.es,08002,2176349270.0,41384246640.0,Barcelona,Barcelona,Cataluña,Barcelonès
1121,Iberfier,onda cero lleida,ondacero.es,28703,,,,,,
1122,Iberfier,onda cero marina-baixa,ondacero.es,03570,-0.2319288,38505456110.0,Villajoyosa/la Vila Joiosa,Alicante/Alacant,Comunidad Valenciana,La Marina Baixa
1123,Iberfier,onda cero tarragona,ondacero.es,43001,1258421900.0,41119102870.0,Tarragona,Tarragona,Cataluña,Tarragonès
1124,Iberfier,onda cero vilanova,ondacero.es,08800,1723839900.0,41227219910.0,Vilanova i la Geltrú,Barcelona,Cataluña,Garraf
1125,Iberfier,on economía,oneconomia.com,08029,2176349270.0,41384246640.0,Barcelona,Barcelona,Cataluña,Barcelonès
1126,Iberfier,opcions,opcions.org,08042,2176349270.0,41384246640.0,Barcelona,Barcelona,Cataluña,Barcelonès
1127,Iberfier,orgull ràdio,orgull.cat,08041,2176349270.0,41384246640.0,Barcelona,Barcelona,Cataluña,Barcelonès
1128,Iberfier,osona informa!,osonainforma.cat,08222,2012151410.0,41562363460.0,Terrassa,Barcelona,Cataluña,Vallès Occidental
1129,Iberfier,palafrugell fm,radiopalafrugell.cat,17200,3163977640.0,41917181590.0,Palafrugell,Girona,Cataluña,Baix Empordà
1130,Iberfier,palau informatiu,palauinformatiu.info,08014,2176349270.0,41384246640.0,Barcelona,Barcelona,Cataluña,Barcelonès
1131,Iberfier,pantalla,pantalla.cat,,,,,,,
1132,Iberfier,papers de vi,papersdevi.cat,08328,2294390290.0,41493877980.0,Alella,Barcelona,Cataluña,Maresme
1133,Iberfier,pares i nens,paresinens.cat,08172,2085264720.0,41473454030.0,Sant Cugat del Vallès,Barcelona,Cataluña,Vallès Occidental
1134,Iberfier,piera tv,viladepiera.cat,08784,1747111830.0,41520799500.0,Piera,Barcelona,Cataluña,Anoia
1135,Iberfier,pilota veu,pilotaveu.com,46270,-0.51307146,39077306880.0,Villanueva de Castellón,Valencia/València,Comunidad Valenciana,El Alto Mijares
1136,Iberfier,portaveu,portaveu.cat,25740,1187810480.0,41917795930.0,Ponts,Lleida,Cataluña,Noguera
1137,Iberfier,principal,principal.cat,08960,2076096680.0,41386025890.0,Sant Just Desvern,Barcelona,Cataluña,Baix Llobregat
1138,Iberfier,público,publico.es,08018,2176349270.0,41384246640.0,Barcelona,Barcelona,Cataluña,Barcelonès
1139,Iberfier,radar fm,radarfm.cat,,,,,,,
1140,Iberfier,ràdio 4,rtve.es,28223,,,,,,
1141,Iberfier,radio aktiva,radioaktivat.org,,,,,,,
1142,Iberfier,radio alcoy,radioalcoy.com,03803,-0.47318376,38698368940.0,Alcoi/Alcoy,Alicante/Alacant,Comunidad Valenciana,L'Alcoià
1143,Iberfier,radio altea,radioaltea.com,03590,-0.05144236,38598924970.0,Altea,Alicante/Alacant,Comunidad Valenciana,La Marina Baixa
1144,Iberfier,ràdio artà,radioarta.cat,07570,3354204780.0,39695961800.0,Artà,Illes Balears,Illes Balears,El Levante de Mallorca/ es Llevant de Mallorca
1145,Iberfier,ràdio badalona,radiob.cat,08915,2246253680.0,41452624810.0,Badalona,Barcelona,Cataluña,Barcelonès
1146,Iberfier,radio bala,radiobalamanresa.wordpress.com,,,,,,,
1147,Iberfier,radio balaguer,radiobalaguer.cat,25600,0.80457795,41791522870.0,Balaguer,Lleida,Cataluña,Noguera
1148,Iberfier,ràdio barcelona,cadenaser.com,28013,,,,,,
1149,Iberfier,ràdio begues,radiobegues.cat,08859,1923976540.0,41330706350.0,Begues,Barcelona,Cataluña,Baix Llobregat
1150,Iberfier,ràdio bon matí,radiobonmati.net,17164,2738531200.0,41991452430.0,Sant Gregori,Girona,Cataluña,Gironès
1151,Iberfier,radio calella televisió,radiocalella.cat,08370,2658074350.0,41613786760.0,Calella,Barcelona,Cataluña,Maresme
1152,Iberfier,ràdio canovelles city,radiocanovelles.com,08420,2278069940.0,41624651460.0,Canovelles,Barcelona,Cataluña,Vallès Oriental
1153,Iberfier,ràdio cardedeu,radiocardedeu.com,08440,2354677040.0,41693785510.0,Cànoves i Samalús,Barcelona,Cataluña,Vallès Oriental
1154,Iberfier,radio castellón,cadenaser.com,12003,-0.03688142,39986408090.0,Castellón de la Plana/Castelló de la Plana,Castellón/Castelló,Comunidad Valenciana,La Plana Alta
1155,Iberfier,ràdio ciutat vella,radiociutatvella.es,08001,2176349270.0,41384246640.0,Barcelona,Barcelona,Cataluña,Barcelonès
1156,Iberfier,ràdio cocentaina,radiococentaina.com,03820,-0.44022067,38745412020.0,Cocentaina,Alicante/Alacant,Comunidad Valenciana,El Comtat
1157,Iberfier,ràdio despí,radiodespi.net,08970,2055420540.0,41367564020.0,Sant Joan Despí,Barcelona,Cataluña,Baix Llobregat
1158,Iberfier,radio elche,cadenaser.com,03201,-0.69775581,38267416620.0,Elche/Elx,Alicante/Alacant,Comunidad Valenciana,El Baix Vinalopó
1159,Iberfier,radio esparreguera,radioesparreguera.cat,08292,1868858910.0,41541237470.0,Esparreguera,Barcelona,Cataluña,Baix Llobregat
1160,Iberfier,ràdio èxit,radioexit.com,,,,,,,
1161,Iberfier,ràdio girona,cadenaser.com,17001,2824118990.0,41981860750.0,Girona,Girona,Cataluña,Gironès
1162,Iberfier,ràdio gladys palmera,gladyspalmera.com,08009,2176349270.0,41384246640.0,Barcelona,Barcelona,Cataluña,Barcelonès
1163,Iberfier,radio gracia,lameva.barcelona.cat,08012,2176349270.0,41384246640.0,Barcelona,Barcelona,Cataluña,Barcelonès
1164,Iberfier,ràdio hospitalet,radiohospitalet.cat,43890,0.8315807,41019915780.0,Vandellòs i l'Hospitalet de l'Infant,Tarragona,Cataluña,Baix Camp
1165,Iberfier,ràdio illa formentera,radioilla.cat,07860,1428103700.0,38705318600.0,Formentera,Illes Balears,Illes Balears,Isla de Formentera/ Illa de Formentera
1166,Iberfier,radio klara,radioklara.org,46001,-0.37565717,39475344410.0,València,Valencia/València,Comunidad Valenciana,València
1167,Iberfier,ràdio l’arboç,radiobaixpenedes.com,43720,1603914600.0,41268395030.0,L'Arboç,Tarragona,Cataluña,
1168,Iberfier,radio la selva,radiolaselva.cat,,,,,,,
1169,Iberfier,ràdio litoral,radiolitoral.org,08395,2624403800.0,41601945930.0,Sant Pol de Mar,Barcelona,Cataluña,Maresme
1170,Iberfier,ràdio lleida,cadenaser.com,25007,0.62061934,41615273550.0,Lleida,Lleida,Cataluña,Segrià
1171,Iberfier,ràdio l'om,radiolom.es,46220,-0.44426722,39368543130.0,Alcàsser,Valencia/València,Comunidad Valenciana,L'Horta Sud
1172,Iberfier,radio manises,radiomanises.es,46940,-0.45700309,39491639460.0,Manises,Valencia/València,Comunidad Valenciana,L'Horta Sud
1173,Iberfier,radio marca barcelona,radiomarcabarcelona.com,08006,2176349270.0,41384246640.0,Barcelona,Barcelona,Cataluña,Barcelonès
1174,Iberfier,radio matarranya,radiomatarranya.com,44580,,,,,,
1175,Iberfier,radio milleniun de alicante,radiomilleniumdealicante.es,,,,,,,
1176,Iberfier,ràdio mistelera,radiomistelera.blogspot.com.es,03709,0.10661934,38841227050.0,Dénia,Alicante/Alacant,Comunidad Valenciana,La Marina Alta
1177,Iberfier,ràdio mollet,radiomollet.com,08100,2213491190.0,41539245560.0,Mollet del Vallès,Barcelona,Cataluña,Vallès Oriental
1178,Iberfier,ràdio mora de ebre,radiomoradebre.cat,43740,0.64185013,41091414990.0,Móra d'Ebre,Tarragona,Cataluña,Ribera d'Ebre
1179,Iberfier,radio nova,vilanovainformacio.cat,08800,1723839900.0,41227219910.0,Vilanova i la Geltrú,Barcelona,Cataluña,Garraf
1180,Iberfier,radio olot,radiolot.cat,17800,2488165590.0,42181837930.0,Olot,Girona,Cataluña,Garrotxa
1181,Iberfier,radio ontinyent,radioontinyent.com,46870,-0.60649062,38822881290.0,Ontinyent,Valencia/València,Comunidad Valenciana,La Vall d'Albaida
1182,Iberfier,radio palau,radiopalau.cat,08184,2112556190.0,41869237850.0,L'Estany,Barcelona,Cataluña,
1183,Iberfier,radio pego,radiopego.com,03780,0.10661934,38841227050.0,Dénia,Alicante/Alacant,Comunidad Valenciana,La Marina Alta
1184,Iberfier,radio piera,radiopiera.cat,08784,1747111830.0,41520799500.0,Piera,Barcelona,Cataluña,Anoia
1185,Iberfier,ràdio pinsania,radiopinsania.wordpress.com,,,,,,,
1186,Iberfier,ràdio platja d’aro,rpa.cat,17250,3067984430.0,41814266060.0,Castell-Platja d'Aro,Girona,Cataluña,
1187,Iberfier,radio pollença,radiopollença.net,07460,3015753530.0,39877495780.0,Pollença,Illes Balears,Illes Balears,
1188,Iberfier,ràdio reus,cadenaser.com,43204,1109861180.0,41154107250.0,Reus,Tarragona,Cataluña,Baix Camp
1189,Iberfier,radio ripol ona 90,corisamediagrup.com,,,,,,,
1190,Iberfier,ràdio salut,radiosalut.com,08006,2176349270.0,41384246640.0,Barcelona,Barcelona,Cataluña,Barcelonès
1191,Iberfier,radio san font,radiosantfost.cat,08105,2233079200.0,41520039140.0,Sant Fost de Campsentelles,Barcelona,Cataluña,Vallès Oriental
1192,Iberfier,ràdio santa perpetua,staperpetua.org,08130,2179048330.0,41535437960.0,Santa Perpètua de Mogoda,Barcelona,Cataluña,Vallès Occidental
1193,Iberfier,ràdio sant pere i sant pau,radiospsp.com,43007,1258421900.0,41119102870.0,Tarragona,Tarragona,Cataluña,Tarragonès
1194,Iberfier,ràdio sant vicenç,radiosvh.info,08620,2010656010.0,41392724640.0,Sant Vicenç dels Horts,Barcelona,Cataluña,Baix Llobregat
1195,Iberfier,ràdio sentmenat,radiosentmenat.com,,,,,,,
1196,Iberfier,ràdioseu,radioseu.cat,25700,1461979470.0,42357708850.0,La Seu d'Urgell,Lleida,Cataluña,Alt Urgell
1197,Iberfier,ràdio sió agramunt,radiosio.cat,25310,1099223570.0,41787365580.0,Agramunt,Lleida,Cataluña,Urgell
1198,Iberfier,radio star terrassa,radiostarterrassa.com,08227,2012151410.0,41562363460.0,Terrassa,Barcelona,Cataluña,Vallès Occidental
1199,Iberfier,radioteatre,radioteatre.com,,,,,,,
1200,Iberfier,radio uji,radio.uji.es,12701,,,,,,
1201,Iberfier,ràdio ulldecona i tvu,radioulldecona.net,43550,0.44722489,40596953640.0,Ulldecona,Tarragona,Cataluña,Montsià
1202,Iberfier,radio umh,radio.umh.es,03202,-0.69775581,38267416620.0,Elche/Elx,Alicante/Alacant,Comunidad Valenciana,El Baix Vinalopó
1203,Iberfier,radio valencia,cadenaser.com,46002,-0.37565717,39475344410.0,València,Valencia/València,Comunidad Valenciana,València
1204,Iberfier,radio vila-real,radiovila-real.es,12540,-0.1007625,39938149570.0,Vila-real,Castellón/Castelló,Comunidad Valenciana,La Plana Baixa
1205,Iberfier,rap 107,rap107.fm,08150,2234477230.0,41573290350.0,Parets del Vallès,Barcelona,Cataluña,Vallès Oriental
1206,Iberfier,remember ràdio joventut,radiojoventut.es,,,,,,,
1207,Iberfier,report.cat,report.cat,08007,2176349270.0,41384246640.0,Barcelona,Barcelona,Cataluña,Barcelonès
1208,Iberfier,revista alella,revistaalella.cat,08328,2294390290.0,41493877980.0,Alella,Barcelona,Cataluña,Maresme
1209,Iberfier,revista baix empordà,revistabaixemporda.cat,17230,3128658030.0,41846746750.0,Palamós,Girona,Cataluña,Baix Empordà
1210,Iberfier,revista caramella,revistacaramella.cat,08513,2029373790.0,42009365870.0,Prats de Lluçanès,Barcelona,Cataluña,Lluçanès
1211,Iberfier,revista castells,revistacastells.cat,08870,1805684230.0,41237169440.0,Sitges,Barcelona,Cataluña,Garraf
1212,Iberfier,revista de catalunya,revistadecatalunya.cat,08001,2176349270.0,41384246640.0,Barcelona,Barcelona,Cataluña,Barcelonès
1213,Iberfier,revista de girona,revistadegirona.cat,17004,2824118990.0,41981860750.0,Girona,Girona,Cataluña,Gironès
1214,Iberfier,revista musical catalana,revistamusical.cat,08003,2176349270.0,41384246640.0,Barcelona,Barcelona,Cataluña,Barcelonès
1215,Iberfier,revista som i serem,revistasomiserem.com,,,,,,,
1216,Iberfier,ribeirabaixa.info,riberabaixa.info,46410,-0.31552389,39202428340.0,Sueca,Valencia/València,Comunidad Valenciana,La Ribera Baixa
1217,Iberfier,ribera tv,riberatelevisio.com,46600,-0.43554456,39149448320.0,Alzira,Valencia/València,Comunidad Valenciana,La Ribera Alta
1218,Iberfier,ripollet ràdio,ripolletradio.cat,08291,2155175940.0,41497083330.0,Ripollet,Barcelona,Cataluña,Vallès Occidental
1219,Iberfier,roda de berà radio,web.rodadebera.cat,,,,,,,
1220,Iberfier,roses avui,rosesavui.com,17480,3178308990.0,42261829860.0,Roses,Girona,Cataluña,Alt Empordà
1221,Iberfier,rtv10 - ràdio i televisió de sant esteve sesrovires,rtv10.net,08635,1873850150.0,41493313750.0,Sant Esteve Sesrovires,Barcelona,Cataluña,Baix Llobregat
1222,Iberfier,rtv el vendrell,rtvelvendrell.cat,43700,1535013670.0,41220430680.0,El Vendrell,Tarragona,Cataluña,Baix Penedès
1223,Iberfier,rtv vilafranca,rtvvilafranca.cat,08720,1697746700.0,41347212100.0,Vilafranca del Penedès,Barcelona,Cataluña,Alt Penedès
1224,Iberfier,rubí informa,rubiinforma.com,08222,2012151410.0,41562363460.0,Terrassa,Barcelona,Cataluña,Vallès Occidental
1225,Iberfier,sabadell informa,sabadellinforma.com,08222,2012151410.0,41562363460.0,Terrassa,Barcelona,Cataluña,Vallès Occidental
1226,Iberfier,salut i força,saludediciones.com,07010,2699385610.0,39696060380.0,Bunyola,Illes Balears,Illes Balears,
1227,Iberfier,sant andreu tv,santandreutv.com,08740,1975239250.0,41446756590.0,Sant Andreu de la Barca,Barcelona,Cataluña,Baix Llobregat
1228,Iberfier,sant boi notícies,sbn.cat,08830,2041821160.0,41342537100.0,Sant Boi de Llobregat,Barcelona,Cataluña,Baix Llobregat
1229,Iberfier,sant cugat informa,santcugatinforma.com,08222,2012151410.0,41562363460.0,Terrassa,Barcelona,Cataluña,Vallès Occidental
1230,Iberfier,sants ràdio,sants3radio.cat,08014,2176349270.0,41384246640.0,Barcelona,Barcelona,Cataluña,Barcelonès
1231,Iberfier,sarment,ccbalsareny.cat,08660,1877600630.0,41863229490.0,Balsareny,Barcelona,Cataluña,Bages
1232,Iberfier,scanner fm,scannerfm.com,08001,2176349270.0,41384246640.0,Barcelona,Barcelona,Cataluña,Barcelonès
1233,Iberfier,semprevalencia.com,semprevalencia.com,46023,-0.37565717,39475344410.0,València,Valencia/València,Comunidad Valenciana,València
1234,Iberfier,sentmenat,sentmenat.com,08181,2136365500.0,41606164970.0,Sentmenat,Barcelona,Cataluña,Vallès Occidental
1235,Iberfier,ser tarragona,cadenaser.com,43005,1258421900.0,41119102870.0,Tarragona,Tarragona,Cataluña,Tarragonès
1236,Iberfier,set accents,7accents.cat,25007,0.62061934,41615273550.0,Lleida,Lleida,Cataluña,Segrià
1237,Iberfier,somatents,somatents.com,08001,2176349270.0,41384246640.0,Barcelona,Barcelona,Cataluña,Barcelonès
1238,Iberfier,som garrigues,somgarrigues.cat,25400,0.86890823,41521785550.0,Les Borges Blanques,Lleida,Cataluña,Garrigues
1239,Iberfier,super deporte,superdeporte.es,46014,-0.37565717,39475344410.0,València,Valencia/València,Comunidad Valenciana,València
1240,Iberfier,tac 12 tv,tac12.alacarta.cat,,,,,,,
1241,Iberfier,taradell,taradell.com,08552,2287765940.0,41873393180.0,Taradell,Barcelona,Cataluña,Osona
1242,Iberfier,taronja digital anoia,canaltaronja.cat,08241,1827210260.0,41721995940.0,Manresa,Barcelona,Cataluña,Bages
1243,Iberfier,tarragona 21,tarragona21.com,43007,1258421900.0,41119102870.0,Tarragona,Tarragona,Cataluña,Tarragonès
1244,Iberfier,tarragona empresarial,tarragonaempresarial.com,,,,,,,
1245,Iberfier,tarragonanoticias.com,tarragonanoticias.com,,,,,,,
1246,Iberfier,televisió d’eivissa i formentera,teftv.com,07800,1436229030.0,38906669470.0,Eivissa,Illes Balears,Illes Balears,
1247,Iberfier,televisió de vandellòs,tvvandellos.cat,,,,,,,
1248,Iberfier,televisió sant cugat,tvsantcugat.cat,08173,2085264720.0,41473454030.0,Sant Cugat del Vallès,Barcelona,Cataluña,Vallès Occidental
1249,Iberfier,temes d’avui,lanostrarevista.temesdavui.org,08008,2176349270.0,41384246640.0,Barcelona,Barcelona,Cataluña,Barcelonès
1250,Iberfier,terrassa digital,terrassadigital.cat,08222,2012151410.0,41562363460.0,Terrassa,Barcelona,Cataluña,Vallès Occidental
1251,Iberfier,terrassa informa,terrassainforma.com,08222,2012151410.0,41562363460.0,Terrassa,Barcelona,Cataluña,Vallès Occidental
1252,Iberfier,teveon,teveon.tv,43500,0.52500631,40811021460.0,Tortosa,Tarragona,Cataluña,Baix Ebre
1253,Iberfier,the new barcelona post,thenewbarcelonapost.com,08003,2176349270.0,41384246640.0,Barcelona,Barcelona,Cataluña,Barcelonès
1254,Iberfier,tot ràdio,totradio.com,,,,,,,
1255,Iberfier,totesport.cat,totesport.cat,08301,2446580620.0,41540846900.0,Mataró,Barcelona,Cataluña,Maresme
1256,Iberfier,tottarragona.cat,tottarragona.cat,43003,1258421900.0,41119102870.0,Tarragona,Tarragona,Cataluña,Tarragonès
1257,Iberfier,tramuntana tv,tramuntanatv.com,17600,2960278050.0,42267835900.0,Figueres,Girona,Cataluña,Alt Empordà
1258,Iberfier,tribuna,tribuna.cat,08025,2176349270.0,41384246640.0,Barcelona,Barcelona,Cataluña,Barcelonès
1259,Iberfier,tus noticias de la costera,tusnoticiasdelacostera.com,46600,-0.43554456,39149448320.0,Alzira,Valencia/València,Comunidad Valenciana,La Ribera Alta
1260,Iberfier,tus noticias de la plana,tusnoticiasdelaplana.com,46600,-0.43554456,39149448320.0,Alzira,Valencia/València,Comunidad Valenciana,La Ribera Alta
1261,Iberfier,tus noticias de la ribera,tusnoticiasdelaribera.com,46600,-0.43554456,39149448320.0,Alzira,Valencia/València,Comunidad Valenciana,La Ribera Alta
1262,Iberfier,tus noticias de la safor,tusnoticiasdelasafor.com,46600,-0.43554456,39149448320.0,Alzira,Valencia/València,Comunidad Valenciana,La Ribera Alta
1263,Iberfier,tv berguedà - bages,tvbergueda.alacarta.cat,08600,1844024700.0,42103288740.0,Berga,Barcelona,Cataluña,Berguedà
1264,Iberfier,tv costa brava,tvcostabrava.alacarta.cat,17248,3067984430.0,41814266060.0,Castell-Platja d'Aro,Girona,Cataluña,
1265,Iberfier,tv girona,tvgirona.alacarta.cat,17001,2824118990.0,41981860750.0,Girona,Girona,Cataluña,Gironès
1266,Iberfier,tv ripollès,corisamediagrup.com,17500,2190826130.0,42201273510.0,Ripoll,Girona,Cataluña,Ripollès
1267,Iberfier,tv tossa,tvtossa.cat,17320,3128658030.0,41846746750.0,Palamós,Girona,Cataluña,Baix Empordà
1268,Iberfier,tv vilanova del vallès,tv.vilanovadelvalles.cat,08410,2287941440.0,41554376370.0,Vilanova del Vallès,Barcelona,Cataluña,Vallès Oriental
1269,Iberfier,ua1 ràdio,ua1.cat,25006,0.62061934,41615273550.0,Lleida,Lleida,Cataluña,Segrià
1270,Iberfier,valencia fiesta y tradición,valenciafiestaytradicion.com,,,,,,,
1271,Iberfier,valencia noticies,valencianoticies.com,46009,-0.37565717,39475344410.0,València,Valencia/València,Comunidad Valenciana,València
1272,Iberfier,vallès oriental televisió,votv.alacarta.cat,08028,2176349270.0,41384246640.0,Barcelona,Barcelona,Cataluña,Barcelonès
1273,Iberfier,vallirana televisió,vallirana.tv,,,,,,,
1274,Iberfier,verificat,verificat.cat,08025,2176349270.0,41384246640.0,Barcelona,Barcelona,Cataluña,Barcelonès
1275,Iberfier,vicolot costabrava,vicolot.com,08500,2255735690.0,41928383540.0,Vic,Barcelona,Cataluña,Osona
1276,Iberfier,videojocscat,videojocscat.cat,08172,2085264720.0,41473454030.0,Sant Cugat del Vallès,Barcelona,Cataluña,Vallès Occidental
1277,Iberfier,viladecans,viladecans.net,08840,2018247150.0,41317325290.0,Viladecans,Barcelona,Cataluña,Baix Llobregat
1278,Iberfier,vilaweb,vilaweb.cat,08001,2176349270.0,41384246640.0,Barcelona,Barcelona,Cataluña,Barcelonès
1279,Iberfier,vinaròs news,vinarosnews.net,12500,0.47487433,40470925950.0,Vinaròs,Castellón/Castelló,Comunidad Valenciana,El Baix Maestrat
1280,Iberfier,vox uji radio,radio.uji.es,12071,,,,,,
1281,Iberfier,weekand sabadell,weekand.net,08202,2107789940.0,41546958990.0,Sabadell,Barcelona,Cataluña,Vallès Occidental
1282,Iberfier,weloba,weloba.cat,08006,2176349270.0,41384246640.0,Barcelona,Barcelona,Cataluña,Barcelonès
1283,CAC,3/24,www.ccma.cat,08970,2055420540.0,41367564020.0,Sant Joan Despí,Barcelona,Cataluña,Baix Llobregat
1284,CAC,alcanar ràdio,www.alcanarradio.org,43530,0.48110591,40543969130.0,Alcanar,Tarragona,Cataluña,Montsià
1285,CAC,alcover ràdio,www.alcoveradio.cat,43460,1168658600.0,41262847380.0,Alcover,Tarragona,Cataluña,Alt Camp
1286,CAC,banyoles televisió,www.banyolestv.cat,17820,2769469900.0,42120591370.0,Banyoles,Girona,Cataluña,Pla de l'Estany
1287,CAC,bas ràdio,www.basradio.50webs.com,17176,2407684750.0,42149558840.0,La Vall d'en Bas,Girona,Cataluña,Garrotxa
1288,CAC,bellvei ràdio,www.bellvei.cat,43719,1576402490.0,41241720550.0,Bellvei,Tarragona,Cataluña,Baix Penedès
1289,CAC,betevé 91.0 fm,www.beteve.cat,08099,,,,,,
1290,CAC,cadena 100 barcelona,www.cadena100.es,08037,2176349270.0,41384246640.0,Barcelona,Barcelona,Cataluña,Barcelonès
1291,CAC,cadena 100 girona,www.cadena100.es,17600,2960278050.0,42267835900.0,Figueres,Girona,Cataluña,Alt Empordà
1292,CAC,cadena 100 lleida,www.cadena100.es,25002,0.62061934,41615273550.0,Lleida,Lleida,Cataluña,Segrià
1293,CAC,cadena 100 reus-tarragona,www.cadena100.es,43209,,,,,,
1294,CAC,cadena dial,www.cadenadial.com,25007,0.62061934,41615273550.0,Lleida,Lleida,Cataluña,Segrià
1295,CAC,cadena dial barcelona,www.cadenadial.com,08010,2176349270.0,41384246640.0,Barcelona,Barcelona,Cataluña,Barcelonès
1296,CAC,cadena dial ebre,www.cadenadial.com,43500,0.52500631,40811021460.0,Tortosa,Tarragona,Cataluña,Baix Ebre
1297,CAC,cadena dial girona,www.cadenadial.com,17999,,,,,,
1298,CAC,cadena dial penedès-garraf,www.cadenadial.com,08720,1697746700.0,41347212100.0,Vilafranca del Penedès,Barcelona,Cataluña,Alt Penedès
1299,CAC,cadena dial salou,www.cadenadial.com,43204,1109861180.0,41154107250.0,Reus,Tarragona,Cataluña,Baix Camp
1300,CAC,cadena ser tarragona,www.cadenaser.com,43210,,,,,,
1301,CAC,calafell ràdio,www.calafell.tv,43820,1568348580.0,41201717570.0,Calafell,Tarragona,Cataluña,Baix Penedès
1302,CAC,caldes fm,www.caldesdemalavella.cat,17455,2809038010.0,41836709520.0,Caldes de Malavella,Girona,Cataluña,Selva
1303,CAC,canal 20 ràdio olèrdola,www.olerdola.cat,08734,1776929520.0,41361538440.0,Avinyonet del Penedès,Barcelona,Cataluña,Alt Penedès
1304,CAC,canal 21 ebre,www.canal21ebre.com,43500,0.52500631,40811021460.0,Tortosa,Tarragona,Cataluña,Baix Ebre
1305,CAC,canal 4,www.grup4.com,08036,2176349270.0,41384246640.0,Barcelona,Barcelona,Cataluña,Barcelonès
1305,CAC,canal 4,www.grup4.com,08960,2076096680.0,41386025890.0,Sant Just Desvern,Barcelona,Cataluña,Baix Llobregat
1308,CAC,canal blau fm,www.canalblau.cat,08800,1723839900.0,41227219910.0,Vilanova i la Geltrú,Barcelona,Cataluña,Garraf
1309,CAC,canal reus tv,www.canalreustv.cat,43209,,,,,,
1310,CAC,canal t.e.,canalte.xiptv.cat,43500,0.52500631,40811021460.0,Tortosa,Tarragona,Cataluña,Baix Ebre
1311,CAC,canal taronja anoia,www.canaltaronja.cat,08700,1618295880.0,41578950960.0,Igualada,Barcelona,Cataluña,Anoia
1312,CAC,canal taronja bages,www.canaltaronja.tv,08249,,,,,,
1313,CAC,canal taronja osona,www.canaltaronja.tv,08500,2255735690.0,41928383540.0,Vic,Barcelona,Cataluña,Osona
1314,CAC,canal terrassa vallès,www.terrassadigital.cat,08229,,,,,,
1315,CAC,catalunya informació,www.ccma.cat,08021,2176349270.0,41384246640.0,Barcelona,Barcelona,Cataluña,Barcelonès
1316,CAC,catalunya música,www.ccma.cat,08021,2176349270.0,41384246640.0,Barcelona,Barcelona,Cataluña,Barcelonès
1317,CAC,catalunya ràdio,www.ccma.cat,08021,2176349270.0,41384246640.0,Barcelona,Barcelona,Cataluña,Barcelonès
1318,CAC,cerdanyola ràdio,www.cerdanyola.info,08290,2139892600.0,41491340540.0,Cerdanyola del Vallès,Barcelona,Cataluña,Vallès Occidental
1319,CAC,cope,www.cope.es,08007,2176349270.0,41384246640.0,Barcelona,Barcelona,Cataluña,Barcelonès
1323,CAC,cope manresa,www.cope.es,08249,,,,,,
1324,CAC,cope puigcerdà,www.cope.es,08007,2176349270.0,41384246640.0,Barcelona,Barcelona,Cataluña,Barcelonès
1325,CAC,cope tarragona,www.cope.es,43003,1258421900.0,41119102870.0,Tarragona,Tarragona,Cataluña,Tarragonès
1326,CAC,cugat ràdio,www.cugat.cat,08199,,,,,,
1327,CAC,domenys ràdio,www.santjaumedelsdomenys.cat,43713,1558954280.0,41299808970.0,Sant Jaume dels Domenys,Tarragona,Cataluña,Baix Penedès
1328,CAC,empordà televisió,empordatv.xiptv.cat,17480,3178308990.0,42261829860.0,Roses,Girona,Cataluña,Alt Empordà
1329,CAC,emun fm ràdio albesa,www.emunfmradio.cat,25135,0.6604596,41751005580.0,Albesa,Lleida,Cataluña,Noguera
1330,CAC,emun fm ràdio alfarràs,www.emunfmradio.cat,25120,0.57295527,41829065150.0,Alfarràs,Lleida,Cataluña,Segrià
1331,CAC,emun fm ràdio alguaire,www.emunfmradio.cat,25125,0.58391814,41736317160.0,Alguaire,Lleida,Cataluña,Segrià
1332,CAC,emun fm ràdio torrefarrera,www.emunfmradio.cat,25123,0.60717468,41673084750.0,Torrefarrera,Lleida,Cataluña,Segrià
1333,CAC,esport3,www.ccma.cat,08970,2055420540.0,41367564020.0,Sant Joan Despí,Barcelona,Cataluña,Baix Llobregat
1334,CAC,etv,etv.xiptv.cat,08950,2084089500.0,41372118950.0,Esplugues de Llobregat,Barcelona,Cataluña,Baix Llobregat
1335,CAC,europa fm,www.europafm.com,08002,2176349270.0,41384246640.0,Barcelona,Barcelona,Cataluña,Barcelonès
1335,CAC,europa fm,www.europafm.com,25004,0.62061934,41615273550.0,Lleida,Lleida,Cataluña,Segrià
1335,CAC,europa fm,www.europafm.com,17001,2824118990.0,41981860750.0,Girona,Girona,Cataluña,Gironès
1335,CAC,europa fm,www.europafm.com,43004,1258421900.0,41119102870.0,Tarragona,Tarragona,Cataluña,Tarragonès
1335,CAC,europa fm,www.europafm.com,08800,1723839900.0,41227219910.0,Vilanova i la Geltrú,Barcelona,Cataluña,Garraf
1341,CAC,girona fm,www.gironafm.cat,17002,2824118990.0,41981860750.0,Girona,Girona,Cataluña,Gironès
1342,CAC,gum fm aran,www.gum.cat,25530,0.79595308,42701427120.0,Vielha e Mijaran,Lleida,Cataluña,Aran
1343,CAC,gum fm pirineus,www.gum.cat,25530,0.79595308,42701427120.0,Vielha e Mijaran,Lleida,Cataluña,Aran
1344,CAC,hit tv,www.hittv.es,08099,,,,,,
1345,CAC,icat,www.catradio.cat,08021,2176349270.0,41384246640.0,Barcelona,Barcelona,Cataluña,Barcelonès
1346,CAC,kiss fm,www.kissfm.es,08013,2176349270.0,41384246640.0,Barcelona,Barcelona,Cataluña,Barcelonès
1346,CAC,kiss fm,www.kissfm.es,08229,,,,,,
1348,CAC,la cala ràdio,www.ametllamar.cat,43860,0.80032416,40885002210.0,L'Ametlla de Mar,Tarragona,Cataluña,Baix Ebre
1349,CAC,la veu,www.santjoandelesabadesses.cat,17860,2286263540.0,42232609050.0,Sant Joan de les Abadesses,Girona,Cataluña,Ripollès
1350,CAC,l'espluga fm ràdio,www.esplugafmradio.info,43440,1102890960.0,41396492940.0,L'Espluga de Francolí,Tarragona,Cataluña,Conca de Barberà
1351,CAC,live fm,www.livefm.cat,17530,2167050080.0,42224186620.0,Campdevànol,Girona,Cataluña,Ripollès
1352,CAC,lleida televisió,lleidatelevisio.xiptv.cat,25999,,,,,,
1355,CAC,los40 catalunya,www.los40.com,08010,2176349270.0,41384246640.0,Barcelona,Barcelona,Cataluña,Barcelonès
1356,CAC,los40 catalunya central,www.los40.com,08249,,,,,,
1357,CAC,los40 classic,www.los40.com,43204,1109861180.0,41154107250.0,Reus,Tarragona,Cataluña,Baix Camp
1358,CAC,los40 classic lleida,www.los40.com,25007,0.62061934,41615273550.0,Lleida,Lleida,Cataluña,Segrià
1359,CAC,los40 costa brava,www.los40.com,17999,,,,,,
1360,CAC,los40 girona,www.los40.com,17999,,,,,,
1361,CAC,los40 la selva,www.los40.com,17430,2847395070.0,41699579440.0,Lloret de Mar,Girona,Cataluña,Selva
1362,CAC,los40 lleida,www.los40.com,25007,0.62061934,41615273550.0,Lleida,Lleida,Cataluña,Segrià
1363,CAC,los40 mora d'ebre,www.los40.com,43500,0.52500631,40811021460.0,Tortosa,Tarragona,Cataluña,Baix Ebre
1364,CAC,los40 osona,www.los40.com,08500,2255735690.0,41928383540.0,Vic,Barcelona,Cataluña,Osona
1365,CAC,los40 penedès-garraf,www.los40.com,08800,1723839900.0,41227219910.0,Vilanova i la Geltrú,Barcelona,Cataluña,Garraf
1366,CAC,los40 pirineus puigcerdà,www.los40.com,08010,2176349270.0,41384246640.0,Barcelona,Barcelona,Cataluña,Barcelonès
1367,CAC,los40 tarragona,www.los40.com,43210,,,,,,
1368,CAC,los40 urban,los40.com,08099,,,,,,
1369,CAC,los40 urban,www.los40.com,08010,2176349270.0,41384246640.0,Barcelona,Barcelona,Cataluña,Barcelonès
1371,CAC,mar tv,www.martv.tv,08330,2356621250.0,41489604710.0,Premià de Mar,Barcelona,Cataluña,Maresme
1372,CAC,matadepera ràdio,www.matadepera.cat,08230,2027681000.0,41599217640.0,Matadepera,Barcelona,Cataluña,Vallès Occidental
1373,CAC,mataró televisió,www.mataroaudiovisual.cat,08300,,,,,,
1374,CAC,máxima fm,www.maxima.fm,17999,,,,,,
1375,CAC,melodía fm,www.melodia-fm.com,17004,2824118990.0,41981860750.0,Girona,Girona,Cataluña,Gironès
1375,CAC,melodía fm,www.melodia-fm.com,08002,2176349270.0,41384246640.0,Barcelona,Barcelona,Cataluña,Barcelonès
1375,CAC,melodía fm,www.melodia-fm.com,25004,0.62061934,41615273550.0,Lleida,Lleida,Cataluña,Segrià
1378,CAC,molahits tv,www.molatv.cat,08809,,,,,,
1379,CAC,montbui ràdio,,08710,1604898090.0,41556595970.0,Santa Margarida de Montbui,Barcelona,Cataluña,Anoia
1380,CAC,noucinc.2 ràdio,www.terrassadigital.cat,08222,2012151410.0,41562363460.0,Terrassa,Barcelona,Cataluña,Vallès Occidental
1381,CAC,olesa ràdio,www.olesademontserrat.cat,08640,1893873090.0,41545840160.0,Olesa de Montserrat,Barcelona,Cataluña,Baix Llobregat
1382,CAC,ona bitlles,www.onabitlles.cat,08776,1703312450.0,41453877080.0,Sant Pere de Riudebitlles,Barcelona,Cataluña,Alt Penedès
1383,CAC,ona malgrat,www.malgratcomunicacio.cat,08380,2742167210.0,41646340390.0,Malgrat de Mar,Barcelona,Cataluña,Maresme
1384,CAC,ona vilamalla,www.onavilamalla.net,17469,2996195350.0,42252126160.0,El Far d'Empordà,Girona,Cataluña,Alt Empordà
1385,CAC,onda cero,www.ondacero.es,43004,1258421900.0,41119102870.0,Tarragona,Tarragona,Cataluña,Tarragonès
1385,CAC,onda cero,www.ondacero.es,08800,1723839900.0,41227219910.0,Vilanova i la Geltrú,Barcelona,Cataluña,Garraf
1385,CAC,onda cero,www.ondacero.es,25004,0.62061934,41615273550.0,Lleida,Lleida,Cataluña,Segrià
1385,CAC,onda cero,www.ondacero.es,08002,2176349270.0,41384246640.0,Barcelona,Barcelona,Cataluña,Barcelonès
1385,CAC,onda cero,www.ondacero.es,17001,2824118990.0,41981860750.0,Girona,Girona,Cataluña,Gironès
1391,CAC,penedès fm subirats,www.penedesfm.cat,08739,1588691730.0,41437080590.0,Font-rubí,Barcelona,Cataluña,Alt Penedès
1392,CAC,penedès tv,www.rtvvilafranca.cat,08720,1697746700.0,41347212100.0,Vilafranca del Penedès,Barcelona,Cataluña,Alt Penedès
1393,CAC,premià de dalt ràdio,www.premiadedalt.cat,08338,2341580450.0,41508020450.0,Premià de Dalt,Barcelona,Cataluña,Maresme
1394,CAC,pròxima fm,www.proxima.cat,25700,1461979470.0,42357708850.0,La Seu d'Urgell,Lleida,Cataluña,Alt Urgell
1395,CAC,punt 7 ràdio sant celoni,www.santceloni.cat,08470,2463162020.0,41724786250.0,Campins,Barcelona,Cataluña,Vallès Oriental
1396,CAC,ràdio 010,www.radio010.cat,08273,2034387540.0,41870832470.0,Santa Maria d'Oló,Barcelona,Cataluña,Moianès
1397,CAC,ràdio almacelles,,25100,0.43774764,41731689790.0,Almacelles,Lleida,Cataluña,Segrià
1398,CAC,ràdio aran,www.baqueira.es,25598,0.90204834,42707580090.0,Naut Aran,Lleida,Cataluña,Aran
1399,CAC,ràdio arbeca,,25140,0.92304973,41541753360.0,Arbeca,Lleida,Cataluña,Garrigues
1400,CAC,ràdio arboç,www.radiobaixpenedes.cat,43720,1603914600.0,41268395030.0,L'Arboç,Tarragona,Cataluña,
1401,CAC,ràdio arbúcies,www.arbucies.cat,17401,2513669630.0,41816088800.0,Arbúcies,Girona,Cataluña,Selva
1402,CAC,ràdio artesa de segre,www.ras.cat,25730,1047886570.0,41896345320.0,Artesa de Segre,Lleida,Cataluña,Noguera
1403,CAC,ràdio balaguer,www.radiobalaguer.cat,25600,0.80457795,41791522870.0,Balaguer,Lleida,Cataluña,Noguera
1404,CAC,ràdio barberà,www.radiobarbera.fm,08210,2126594240.0,41517253390.0,Barberà del Vallès,Barcelona,Cataluña,Vallès Occidental
1405,CAC,ràdio barcelona - cadena ser,www.cadenaser.com,08010,2176349270.0,41384246640.0,Barcelona,Barcelona,Cataluña,Barcelonès
1406,CAC,ràdio batea,,43786,0.30960103,41096013020.0,Batea,Tarragona,Cataluña,Terra Alta
1407,CAC,ràdio begur,www.begur.cat,17255,3207245890.0,41954310810.0,Begur,Girona,Cataluña,Baix Empordà
1408,CAC,ràdio bellpuig,,25250,1012284450.0,41625228120.0,Bellpuig,Lleida,Cataluña,Urgell
1409,CAC,ràdio berga,,08600,1844024700.0,42103288740.0,Berga,Barcelona,Cataluña,Berguedà
1410,CAC,ràdio besalú,radiobesalu.blogspot.com.es,17850,2699657030.0,42199490280.0,Besalú,Girona,Cataluña,Garrotxa
1411,CAC,ràdio bonmatí,www.radiobonmati.net,17164,2738531200.0,41991452430.0,Sant Gregori,Girona,Cataluña,Gironès
1412,CAC,ràdio cabanes,www.radiocabanes.cat,17761,,,,,,
1413,CAC,ràdio calella,www.radiocalella.cat,08370,2658074350.0,41613786760.0,Calella,Barcelona,Cataluña,Maresme
1414,CAC,ràdio cambrils,www.radiocambrils.cat,43850,1051797780.0,41074451700.0,Cambrils,Tarragona,Cataluña,Baix Camp
1415,CAC,ràdio camprodon,,17867,2365457330.0,42312888270.0,Camprodon,Girona,Cataluña,Ripollès
1416,CAC,ràdio cardona,,08261,1681446300.0,41913743100.0,Cardona,Barcelona,Cataluña,Bages
1417,CAC,ràdio castellar,www.castellarvalles.cat,08211,2085805160.0,41618077760.0,Castellar del Vallès,Barcelona,Cataluña,Vallès Occidental
1418,CAC,ràdio castellterçol,,08183,2148452920.0,41759175750.0,Castellcir,Barcelona,Cataluña,Moianès
1419,CAC,ràdio cervelló,,08758,1953312190.0,41395757810.0,Cervelló,Barcelona,Cataluña,Baix Llobregat
1420,CAC,ràdio corbera,www.corberadellobregat.cat,08757,1929147390.0,41414811330.0,Corbera de Llobregat,Barcelona,Cataluña,Baix Llobregat
1421,CAC,ràdio corbins,,25137,0.69661257,41691755000.0,Corbins,Lleida,Cataluña,Segrià
1422,CAC,ràdio costa brava - ser catalunya,www.cadenaser.com,17230,3128658030.0,41846746750.0,Palamós,Girona,Cataluña,Baix Empordà
1423,CAC,ràdio delta,www.deltebre.cat,43580,0.73844369,40717302760.0,Deltebre,Tarragona,Cataluña,Baix Ebre
1424,CAC,ràdio el morell,www.radiomorell.cat,43760,1208993180.0,41192098570.0,El Morell,Tarragona,Cataluña,Tarragonès
1425,CAC,ràdio el pla,,43810,1290096180.0,41363965810.0,El Pla de Santa Maria,Tarragona,Cataluña,Alt Camp
1426,CAC,ràdio el vendrell,www.rtvelvendrell.cat,43700,1535013670.0,41220430680.0,El Vendrell,Tarragona,Cataluña,Baix Penedès
1427,CAC,ràdio esparreguera,www.esparreguera.cat,08292,1868858910.0,41541237470.0,Esparreguera,Barcelona,Cataluña,Baix Llobregat
1428,CAC,ràdio estudi,,08950,2084089500.0,41372118950.0,Esplugues de Llobregat,Barcelona,Cataluña,Baix Llobregat
1429,CAC,ràdio gandesa,www.gandesa.cat,43780,0.43767923,41052664750.0,Gandesa,Tarragona,Cataluña,Terra Alta
1430,CAC,ràdio girona - cadena ser,www.cadenaser.com,17999,,,,,,
1431,CAC,ràdio joventut,www.radiojoventut.cat,43878,0.53118936,40715460890.0,Masdenverge,Tarragona,Cataluña,Montsià
1432,CAC,ràdio juneda,webs.juneda.cat,25430,0.82573763,41549438050.0,Juneda,Lleida,Cataluña,Garrigues
1433,CAC,ràdio la bisbal,www.labisbal.cat,17100,3038286370.0,41960130180.0,La Bisbal d'Empordà,Girona,Cataluña,Baix Empordà
1434,CAC,ràdio la llagosta,www.radiolallagosta.cat,08120,2191207290.0,41513987670.0,La Llagosta,Barcelona,Cataluña,Vallès Oriental
1435,CAC,ràdio la selva,www.radiolaselva.cat,43470,1136604140.0,41215910060.0,La Selva del Camp,Tarragona,Cataluña,Baix Camp
1436,CAC,ràdio les,torismeles.com,25540,0.71274283,42811925760.0,Les,Lleida,Cataluña,Aran
1437,CAC,ràdio l'hospitalet de l'infant,radio.vandellos-hospitalet.cat,43891,0.87127076,41051542750.0,Pratdip,Tarragona,Cataluña,Baix Camp
1438,CAC,ràdio llançà,www.radiollanca.cat,17490,3151756600.0,42362810960.0,Llançà,Girona,Cataluña,Alt Empordà
1439,CAC,ràdio lleida - cadena ser,www.cadenaser.com,25007,0.62061934,41615273550.0,Lleida,Lleida,Cataluña,Segrià
1440,CAC,ràdio manresa - cadena ser,www.cadenaser.com,08099,,,,,,
1441,CAC,ràdio mar d'amunt,,17489,3205109940.0,42337871110.0,El Port de la Selva,Girona,Cataluña,Alt Empordà
1442,CAC,ràdio marca barcelona,www.marca.com,08006,2176349270.0,41384246640.0,Barcelona,Barcelona,Cataluña,Barcelonès
1443,CAC,ràdio martorell,www.martorell.cat,08760,1919137470.0,41478003280.0,Martorell,Barcelona,Cataluña,Baix Llobregat
1444,CAC,ràdio moià,www.radiomoia.cat,08180,2098798060.0,41811469360.0,Moià,Barcelona,Cataluña,Moianès
1445,CAC,ràdio mollet del vallès,www.radiomollet.com,08100,2213491190.0,41539245560.0,Mollet del Vallès,Barcelona,Cataluña,Vallès Oriental
1446,CAC,ràdio montesquiu,,08589,2209401320.0,42109466460.0,Montesquiu,Barcelona,Cataluña,Osona
1447,CAC,ràdio móra d'ebre - cadena ser,www.cadenaser.com,43740,0.64185013,41091414990.0,Móra d'Ebre,Tarragona,Cataluña,Ribera d'Ebre
1448,CAC,ràdio móra la nova,www.radiomoralanova.cat,43770,0.64858077,41098983440.0,Móra la Nova,Tarragona,Cataluña,Ribera d'Ebre
1449,CAC,ràdio nova,www.vilanovainformacio.cat,08788,1639334120.0,41571618020.0,Vilanova del Camí,Barcelona,Cataluña,Anoia
1450,CAC,ràdio olot,www.radiolot.cat,17800,2488165590.0,42181837930.0,Olot,Girona,Cataluña,Garrotxa
1451,CAC,ràdio palau,www.radiopalau.cat,08184,2112556190.0,41869237850.0,L'Estany,Barcelona,Cataluña,
1452,CAC,ràdio pallejà,radiopalleja.blogspot.com.es,08780,1996106610.0,41424124840.0,Pallejà,Barcelona,Cataluña,Baix Llobregat
1453,CAC,ràdio piera,www.radiopiera.cat,08784,1747111830.0,41520799500.0,Piera,Barcelona,Cataluña,Anoia
1454,CAC,ràdio pinós,www.centrecat.com,25287,1564252950.0,42010480280.0,Olius,Lleida,Cataluña,Solsonès
1455,CAC,ràdio pirineus - ser catalunya,www.cadenaser.com,17520,1926340120.0,42432640780.0,Puigcerdà,Girona,Cataluña,Cerdanya
1456,CAC,ràdio platja d'aro,www.rpa.cat,17250,3067984430.0,41814266060.0,Castell-Platja d'Aro,Girona,Cataluña,
1457,CAC,ràdio ponent,,25230,0.89391515,41629676820.0,Mollerussa,Lleida,Cataluña,Pla d'Urgell
1458,CAC,ràdio ponts,,25740,1187810480.0,41917795930.0,Ponts,Lleida,Cataluña,Noguera
1459,CAC,ràdio puigcerdà,www.puigcerda.cat,17520,1926340120.0,42432640780.0,Puigcerdà,Girona,Cataluña,Cerdanya
1460,CAC,ràdio quart,www.quart.cat,17242,2840401770.0,41938507900.0,Quart,Girona,Cataluña,Gironès
1461,CAC,ràdio ribes,,08810,1771974850.0,41260693240.0,Sant Pere de Ribes,Barcelona,Cataluña,Garraf
1462,CAC,ràdio ripoll,www.corisamediagrup.com,17500,2190826130.0,42201273510.0,Ripoll,Girona,Cataluña,Ripollès
1463,CAC,ràdio ripollet,www.ripolletradio.cat,08291,2155175940.0,41497083330.0,Ripollet,Barcelona,Cataluña,Vallès Occidental
1464,CAC,ràdio roda,www.radioroda.cat,08510,2293643430.0,41992947910.0,Les Masies de Roda,Barcelona,Cataluña,Osona
1465,CAC,ràdio salt,www.viladesalt.cat,17190,2781412350.0,41974375130.0,Salt,Girona,Cataluña,Gironès
1466,CAC,ràdio sant esteve,www.rtv10.net,08635,1873850150.0,41493313750.0,Sant Esteve Sesrovires,Barcelona,Cataluña,Baix Llobregat
1467,CAC,ràdio sant fruitós,radiosantfruitos.cat,08272,1870034050.0,41751507760.0,Sant Fruitós de Bages,Barcelona,Cataluña,Bages
1468,CAC,ràdio sant gregori,www.santgregori.cat,17150,2738531200.0,41991452430.0,Sant Gregori,Girona,Cataluña,Gironès
1469,CAC,ràdio sant pol,www.radiosantpol.cat,08395,2624403800.0,41601945930.0,Sant Pol de Mar,Barcelona,Cataluña,Maresme
1470,CAC,ràdio santa cristina,,17246,2999406030.0,41811800440.0,Santa Cristina d'Aro,Girona,Cataluña,Baix Empordà
1471,CAC,ràdio santa perpètua,www.staperpetua.org,08130,2179048330.0,41535437960.0,Santa Perpètua de Mogoda,Barcelona,Cataluña,Vallès Occidental
1472,CAC,ràdio santa susanna,www.stasusanna.org,08398,2707137990.0,41635709770.0,Santa Susanna,Barcelona,Cataluña,Maresme
1473,CAC,ràdio santpedor,www.santpedor.net,08251,1837451790.0,41834081040.0,Castellnou de Bages,Barcelona,Cataluña,Bages
1474,CAC,ràdio santvi,www.radiosantvi.cat,08394,2509308480.0,41578402280.0,Sant Vicenç de Montalt,Barcelona,Cataluña,Maresme
1475,CAC,ràdio seu fm,www.radioseu.cat,25700,1461979470.0,42357708850.0,La Seu d'Urgell,Lleida,Cataluña,Alt Urgell
1476,CAC,ràdio sió,www.radiosio.cat,25310,1099223570.0,41787365580.0,Agramunt,Lleida,Cataluña,Urgell
1477,CAC,ràdio st. vicenç,www.radiosvh.info,08620,2010656010.0,41392724640.0,Sant Vicenç dels Horts,Barcelona,Cataluña,Baix Llobregat
1478,CAC,ràdio tàrrega,www.radiotarrega.cat,25300,1139354290.0,41646584520.0,Tàrrega,Lleida,Cataluña,Urgell
1479,CAC,radio teletaxi,www.radioteletaxi.com,08929,,,,,,
1479,CAC,radio teletaxi,www.radioteletaxi.com,08922,2212155400.0,41453657310.0,Santa Coloma de Gramenet,Barcelona,Cataluña,Barcelonès
1479,CAC,radio teletaxi,www.radioteletaxi.com,08900,,,,,,
1494,CAC,ràdio térmens,,25670,0.75915149,41718830310.0,Térmens,Lleida,Cataluña,Noguera
1495,CAC,ràdio torregrossa,,25141,0.83184174,41580950230.0,Torregrossa,Lleida,Cataluña,Pla d'Urgell
1496,CAC,ràdio tossa,www.radiotossa.com,17320,3128658030.0,41846746750.0,Palamós,Girona,Cataluña,Baix Empordà
1497,CAC,ràdio vallalta,www.santiscle.cat,08359,2569287530.0,41623560070.0,Sant Iscle de Vallalta,Barcelona,Cataluña,Maresme
1498,CAC,ràdio valls - hit 103,www.hit103.com,43800,1247384200.0,41283888500.0,Valls,Tarragona,Cataluña,Alt Camp
1499,CAC,ràdio vila,www.radiovila.cat,08232,1955115890.0,41557779570.0,Viladecavalls,Barcelona,Cataluña,Vallès Occidental
1500,CAC,ràdio vilafranca,www.rtvvilafranca.cat,08720,1697746700.0,41347212100.0,Vilafranca del Penedès,Barcelona,Cataluña,Alt Penedès
1501,CAC,ràdio vilamajor,www.radiovilamajor.cat,08459,2399904190.0,41672296510.0,Sant Antoni de Vilamajor,Barcelona,Cataluña,Vallès Oriental
1502,CAC,ràdiob - ràdio ciutat de badalona,www.radiob.cat,08919,,,,,,
1503,CAC,rap 107 fm,www.rap107.fm,08150,2234477230.0,41573290350.0,Parets del Vallès,Barcelona,Cataluña,Vallès Oriental
1504,CAC,rock fm,www.rockfm.fm,08007,2176349270.0,41384246640.0,Barcelona,Barcelona,Cataluña,Barcelonès
1508,CAC,roda de berà ràdio,www.rodadebera.cat,,,,,,,
1509,CAC,sarroca ràdio,www.santmartisarroca.cat,08731,1776929520.0,41361538440.0,Avinyonet del Penedès,Barcelona,Cataluña,Alt Penedès
1510,CAC,selva fm,www.selvafm.cat,17404,2512415830.0,41776417110.0,Riells i Viabrea,Girona,Cataluña,Selva
1511,CAC,selva fm breda,www.selvafm.cat,17400,2557140720.0,41748361300.0,Breda,Girona,Cataluña,Selva
1512,CAC,ser,www.cadenaser.com,,,,,,,
1513,CAC,ser penedès-garraf,www.cadenaser.com,08720,1697746700.0,41347212100.0,Vilafranca del Penedès,Barcelona,Cataluña,Alt Penedès
1514,CAC,sx3/33,www.ccma.cat,08970,2055420540.0,41367564020.0,Sant Joan Despí,Barcelona,Cataluña,Baix Llobregat
1515,CAC,tac 12,www.tac12.tv,43089,,,,,,
1516,CAC,te24,www.canalte24.cat,43500,0.52500631,40811021460.0,Tortosa,Tarragona,Cataluña,Baix Ebre
1517,CAC,teleb - televisió de badalona,www.teleb.cat,08919,,,,,,
1518,CAC,televisió costa brava,www.tvcostabrava.com,17248,3067984430.0,41814266060.0,Castell-Platja d'Aro,Girona,Cataluña,
1519,CAC,televisió de girona,www.tvgirona.tv,17999,,,,,,
1520,CAC,televisió del berguedà - catalunya central,tvbergueda.xiptv.cat,08600,1844024700.0,42103288740.0,Berga,Barcelona,Cataluña,Berguedà
1521,CAC,televisió del ripollès,televisiodelripolles.xiptv.cat,17500,2190826130.0,42201273510.0,Ripoll,Girona,Cataluña,Ripollès
1522,CAC,terramar penedès,www.etv.cat,08950,2084089500.0,41372118950.0,Esplugues de Llobregat,Barcelona,Cataluña,Baix Llobregat
1523,CAC,terramar tarragona,www.etv.cat,08950,2084089500.0,41372118950.0,Esplugues de Llobregat,Barcelona,Cataluña,Baix Llobregat
1524,CAC,tivissa ràdio,www.tivissa.altanet.org,43746,0.73207763,41043382000.0,Tivissa,Tarragona,Cataluña,Ribera d'Ebre
1525,CAC,tot tv,www.tottv.cat,25700,1461979470.0,42357708850.0,La Seu d'Urgell,Lleida,Cataluña,Alt Urgell
1527,CAC,tv de l'hospitalet,www.lhdigital.cat,08909,,,,,,
1528,CAC,tv el vendrell,www.rtvelvendrell.cat,08720,1697746700.0,41347212100.0,Vilafranca del Penedès,Barcelona,Cataluña,Alt Penedès
1529,CAC,tv la selva,www.tvlaselva.cat,08960,2076096680.0,41386025890.0,Sant Just Desvern,Barcelona,Cataluña,Baix Llobregat
1530,CAC,tv sabadell vallès,www.tvsabadell-valles.cat,08241,1827210260.0,41721995940.0,Manresa,Barcelona,Cataluña,Bages
1531,CAC,tvscvallès 1,www.tvsantcugat.cat,,,,,,,
1532,CAC,ua1 lleida ràdio,www.ua1.cat,25999,,,,,,
1533,CAC,vacarisses ràdio,www.vacarisses.cat,08233,1917618440.0,41607268940.0,Vacarisses,Barcelona,Cataluña,Vallès Occidental
1534,CAC,vallès oriental tv,www.votv.cat,08409,,,,,,
1535,CAC,vallfogona ràdio,,25680,0.81511418,41752339580.0,Vallfogona de Balaguer,Lleida,Cataluña,Noguera
1536,CAC,vilassar de dalt ràdio,www.vilassardedalt.org,08339,2358334630.0,41517491900.0,Vilassar de Dalt,Barcelona,Cataluña,Maresme
1537,CAC,vilassar ràdio,vilassarradio.cat,08340,2391818620.0,41503451550.0,Vilassar de Mar,Barcelona,Cataluña,Maresme
1538,OJD,7televalencia,7televalencia.com,46988,-0.44257379,39502736880.0,Paterna,Valencia/València,Comunidad Valenciana,L'Horta Nord
1539,OJD,actualidadcastellon,actualidadcastellon.com,46007,-0.37565717,39475344410.0,València,Valencia/València,Comunidad Valenciana,València
1540,OJD,actualidadvalencia,actualidadvalencia.com,46007,-0.37565717,39475344410.0,València,Valencia/València,Comunidad Valenciana,València
1541,OJD,agendadeisa,agendadeisa.com,46112,-0.37565717,39475344410.0,València,Valencia/València,Comunidad Valenciana,València
1542,OJD,agronewscomunitatvalenciana,agronewscomunitatvalenciana.com,46009,-0.37565717,39475344410.0,València,Valencia/València,Comunidad Valenciana,València
1543,OJD,algemesialdia,algemesialdia.com,46680,-0.43644269,39189072700.0,Algemesí,Valencia/València,Comunidad Valenciana,La Ribera Alta
1544,OJD,alicanteplaza,alicanteplaza.es,,,,,,,
1545,OJD,aquimediosdecomunicacion,aquimediosdecomunicacion.com,03204,-0.69775581,38267416620.0,Elche/Elx,Alicante/Alacant,Comunidad Valenciana,El Baix Vinalopó
1546,OJD,benissadigital,benissadigital.es,03725,0.10231946,38729117330.0,Teulada,Alicante/Alacant,Comunidad Valenciana,La Marina Alta
1547,OJD,betera,betera.com,46190,-0.57061222,39546025350.0,Riba-roja de Túria,Valencia/València,Comunidad Valenciana,El Camp de Túria
1548,OJD,calpdigital,calpdigital.es,03725,0.10231946,38729117330.0,Teulada,Alicante/Alacant,Comunidad Valenciana,La Marina Alta
1549,OJD,camp-de-turia,camp-de-turia.es,46190,-0.57061222,39546025350.0,Riba-roja de Túria,Valencia/València,Comunidad Valenciana,El Camp de Túria
1550,OJD,canal56,canal56.com,12500,0.47487433,40470925950.0,Vinaròs,Castellón/Castelló,Comunidad Valenciana,El Baix Maestrat
1551,OJD,castellonbase,castellonbase.com,12006,-0.03688142,39986408090.0,Castellón de la Plana/Castelló de la Plana,Castellón/Castelló,Comunidad Valenciana,La Plana Alta
1552,OJD,castellondiario,castellondiario.com,12130,-0.13746676,40059865920.0,Sant Joan de Moró,Castellón/Castelló,Comunidad Valenciana,La Plana Alta
1553,OJD,castelloninformacion,castelloninformacion.com,12004,-0.03688142,39986408090.0,Castellón de la Plana/Castelló de la Plana,Castellón/Castelló,Comunidad Valenciana,La Plana Alta
1554,OJD,castellonplaza,castellonplaza.com,46002,-0.37565717,39475344410.0,València,Valencia/València,Comunidad Valenciana,València
1555,OJD,cbnoticias,cbnoticias.com,03110,-0.44522331,38413683960.0,Mutxamel,Alicante/Alacant,Comunidad Valenciana,L'Alacantí
1556,OJD,comarcal,comarcal.tv,46800,-0.51869568,38987971160.0,Xàtiva,Valencia/València,Comunidad Valenciana,La Costera
1557,OJD,comarcalcv,comarcalcv.com,46900,-0.46496185,39437084860.0,Torrent,Valencia/València,Comunidad Valenciana,L'Horta Sud
1558,OJD,copealcoy,copealcoy.es,46013,-0.37565717,39475344410.0,València,Valencia/València,Comunidad Valenciana,València
1559,OJD,denia,denia.com,03700,0.10661934,38841227050.0,Dénia,Alicante/Alacant,Comunidad Valenciana,La Marina Alta
1560,OJD,deniadigital,deniadigital.es,03725,0.10231946,38729117330.0,Teulada,Alicante/Alacant,Comunidad Valenciana,La Marina Alta
1561,OJD,diadia,diadia.cat,12150,-0.25658083,40428740710.0,Villafranca del Cid/Vilafranca,Castellón/Castelló,Comunidad Valenciana,Els Ports
1562,OJD,diaridigital,diaridigital.es,46800,-0.51869568,38987971160.0,Xàtiva,Valencia/València,Comunidad Valenciana,La Costera
1563,OJD,diario siglo xxi,diario siglo xxi,46015,-0.37565717,39475344410.0,València,Valencia/València,Comunidad Valenciana,València
1564,OJD,diariodealicante,diariodealicante.net,46007,-0.37565717,39475344410.0,València,Valencia/València,Comunidad Valenciana,València
1565,OJD,e6d,e6d.es,46612,-0.35512919,39158118610.0,Corbera,Valencia/València,Comunidad Valenciana,La Ribera Baixa
1566,OJD,elcafedepipa,elcafedepipa.com,12600,-0.22806489,39824217540.0,la Vall d'Uixó,Castellón/Castelló,Comunidad Valenciana,La Plana Baixa
1567,OJD,eldiario,eldiario.es - comunidad valenciana,28028,,,,,,
1568,OJD,eldiario,eldiario.es - la marina plaza,28028,,,,,,
1569,OJD,elmeridiano,elmeridiano.es,46023,-0.37565717,39475344410.0,València,Valencia/València,Comunidad Valenciana,València
1570,OJD,elperiodicodeaqui,elperiodicodeaqui.com,46017,-0.37565717,39475344410.0,València,Valencia/València,Comunidad Valenciana,València
1571,OJD,elperiodicomediterraneo,elperiodicomediterraneo.com,12005,-0.03688142,39986408090.0,Castellón de la Plana/Castelló de la Plana,Castellón/Castelló,Comunidad Valenciana,La Plana Alta
1572,OJD,elperiodicvalencia,elperiodicvalencia.com,46600,-0.43554456,39149448320.0,Alzira,Valencia/València,Comunidad Valenciana,La Ribera Alta
1573,OJD,emisorasmusicales,emisorasmusicales.net,03204,-0.69775581,38267416620.0,Elche/Elx,Alicante/Alacant,Comunidad Valenciana,El Baix Vinalopó
1574,OJD,esdiario,esdiario.com - comunidadvalenciana,28006,,,,,,
1575,OJD,europapress,europapress.es - comunitat valenciana,28046,,,,,,
1576,OJD,gentdelescomarques,gentdelescomarques.com,46870,-0.60649062,38822881290.0,Ontinyent,Valencia/València,Comunidad Valenciana,La Vall d'Albaida
1577,OJD,grupo digital de la marina alta (p),grupo digital de la marina alta (p),,,,,,,
1578,OJD,hortanoticias,hortanoticias.com,46020,-0.37565717,39475344410.0,València,Valencia/València,Comunidad Valenciana,València
1579,OJD,infonord,infonord.es,12600,-0.22806489,39824217540.0,la Vall d'Uixó,Castellón/Castelló,Comunidad Valenciana,La Plana Baixa
1580,OJD,infoturia,infoturia.com,46183,-0.53062592,39566803470.0,l'Eliana,Valencia/València,Comunidad Valenciana,
1581,OJD,intercomarcal,intercomarcal.com,03410,-0.76597374,38629962290.0,Biar,Alicante/Alacant,Comunidad Valenciana,L'Alt Vinalopó / Alto Vinalopó
1582,OJD,interdiario,interdiario.es,46020,-0.37565717,39475344410.0,València,Valencia/València,Comunidad Valenciana,València
1583,OJD,javea,javea.com,03700,0.10661934,38841227050.0,Dénia,Alicante/Alacant,Comunidad Valenciana,La Marina Alta
1584,OJD,lamarinaalta,lamarinaalta.com,03700,0.10661934,38841227050.0,Dénia,Alicante/Alacant,Comunidad Valenciana,La Marina Alta
1585,OJD,laveudelliria,laveudelliria.com,46190,-0.57061222,39546025350.0,Riba-roja de Túria,Valencia/València,Comunidad Valenciana,El Camp de Túria
1586,OJD,lesmuntanyes,lesmuntanyes.com,03801,-0.47318376,38698368940.0,Alcoi/Alcoy,Alicante/Alacant,Comunidad Valenciana,L'Alcoià
1587,OJD,levante-emv,levante-emv.com,46014,-0.37565717,39475344410.0,València,Valencia/València,Comunidad Valenciana,València
1588,OJD,lletraferit,lletraferit.com,46010,-0.37565717,39475344410.0,València,Valencia/València,Comunidad Valenciana,València
1589,OJD,marinaalta,marinaalta.es,03700,0.10661934,38841227050.0,Dénia,Alicante/Alacant,Comunidad Valenciana,La Marina Alta
1590,OJD,monover,monover.com,03640,-0.83780533,38437215790.0,Monóvar/Monòver,Alicante/Alacant,Comunidad Valenciana,El Vinalopó Mitjà / El Vinalopó Medio
1591,OJD,nosaltreslaveu,nosaltreslaveu.cat,08221,2012151410.0,41562363460.0,Terrassa,Barcelona,Cataluña,Vallès Occidental
1592,OJD,nostresport,nostresport.com,46019,-0.37565717,39475344410.0,València,Valencia/València,Comunidad Valenciana,València
1593,OJD,noticiascv,noticiascv.com,46010,-0.37565717,39475344410.0,València,Valencia/València,Comunidad Valenciana,València
1594,OJD,officialpress,officialpress.es,46185,-0.55296899,39592420580.0,la Pobla de Vallbona,Valencia/València,Comunidad Valenciana,El Camp de Túria
1595,OJD,pagina66,pagina66.com,03801,-0.47318376,38698368940.0,Alcoi/Alcoy,Alicante/Alacant,Comunidad Valenciana,L'Alcoià
1596,OJD,portaldexativa,portaldexativa.es,46800,-0.51869568,38987971160.0,Xàtiva,Valencia/València,Comunidad Valenciana,La Costera
1597,OJD,proximiatv,proximiatv.com,46005,-0.37565717,39475344410.0,València,Valencia/València,Comunidad Valenciana,València
1598,OJD,radiobanda,radiobanda.com,46869,-0.49685641,38835673250.0,Atzeneta d'Albaida,Valencia/València,Comunidad Valenciana,La Vall d'Albaida
1599,OJD,radioesport914,radioesport914.com,46015,-0.37565717,39475344410.0,València,Valencia/València,Comunidad Valenciana,València
1600,OJD,radiolitoral,radiolitoral.com,03720,0.05043358,38715196900.0,Benissa,Alicante/Alacant,Comunidad Valenciana,La Marina Alta
1601,OJD,revistauala,revistauala.com,03690,-0.52499072,38396133480.0,San Vicente del Raspeig/Sant Vicent del Raspeig,Alicante/Alacant,Comunidad Valenciana,L'Alacantí
1602,OJD,teleelx,teleelx.es,03202,-0.69775581,38267416620.0,Elche/Elx,Alicante/Alacant,Comunidad Valenciana,El Baix Vinalopó
1603,OJD,teuladamorairadigital,teuladamorairadigital.es,03725,0.10231946,38729117330.0,Teulada,Alicante/Alacant,Comunidad Valenciana,La Marina Alta
1604,OJD,tv-a,tv-a.es,03420,-0.67026538,38596576430.0,Castalla,Alicante/Alacant,Comunidad Valenciana,L'Alcoià
1605,OJD,valenciabase,valenciabase.com,12560,0.0647391,40055365970.0,Benicasim/Benicàssim,Castellón/Castelló,Comunidad Valenciana,La Plana Alta
1606,OJD,valenciabonita,valenciabonita.es,46970,-0.46015527,39458078540.0,Alaquàs,Valencia/València,Comunidad Valenciana,L'Horta Sud
1607,OJD,valenciacity,valenciacity.es,46005,-0.37565717,39475344410.0,València,Valencia/València,Comunidad Valenciana,València
1608,OJD,valenciadiari,valenciadiari.com,46007,-0.37565717,39475344410.0,València,Valencia/València,Comunidad Valenciana,València
1609,OJD,valencianews,valencianews.es,46004,-0.37565717,39475344410.0,València,Valencia/València,Comunidad Valenciana,València
1610,OJD,valencianoticias,valencianoticias.com,46130,-0.33056042,39570250650.0,Massamagrell,Valencia/València,Comunidad Valenciana,L'Horta Nord
1611,OJD,valenciaplaza,valenciaplaza.com,46002,-0.37565717,39475344410.0,València,Valencia/València,Comunidad Valenciana,València
1612,OJD,vila-realinformacio,vila-realinformacio.com,12004,-0.03688142,39986408090.0,Castellón de la Plana/Castelló de la Plana,Castellón/Castelló,Comunidad Valenciana,La Plana Alta
1613,OJD,viuvalencia,viuvalencia.com,46017,-0.37565717,39475344410.0,València,Valencia/València,Comunidad Valenciana,València
1614,OJD,xabiaaldia,xabiaaldia.com,03725,0.10231946,38729117330.0,Teulada,Alicante/Alacant,Comunidad Valenciana,La Marina Alta
1615,OJD,artsmallorca,artsmallorca.com,07184,2502482810.0,39565889200.0,Calvià,Illes Balears,Illes Balears,La Sierra de Tramontana/ sa Serra de Tramuntana
1616,OJD,baleares-sinfronteras,baleares-sinfronteras.com,07002,2651816980.0,39571146990.0,Palma,Illes Balears,Illes Balears,
1617,OJD,canal4diario,canal4diario.com,07121,,,,,,
1618,OJD,cronicabalear,cronicabalear.es,07004,2651816980.0,39571146990.0,Palma,Illes Balears,Illes Balears,
1619,OJD,diariodeibiza,diariodeibiza.es,07800,1436229030.0,38906669470.0,Eivissa,Illes Balears,Illes Balears,
1620,OJD,diariodemarratxi,diariodemarratxi.com,07009,2651816980.0,39571146990.0,Palma,Illes Balears,Illes Balears,
1621,OJD,economiademallorca,economiademallorca.com,30100,,,,,,
1622,OJD,eldiario,eldiario.es - illes balears,28028,,,,,,
1623,OJD,europapress,europapress.es - illes balears,28046,,,,,,
1624,OJD,futboldesdemallorca,futboldesdemallorca.com,07006,2651816980.0,39571146990.0,Palma,Illes Balears,Illes Balears,
1625,OJD,gacetanautica,gacetanautica.es,07009,2651816980.0,39571146990.0,Palma,Illes Balears,Illes Balears,
1626,OJD,majorcadailybulletin,majorcadailybulletin.com,07011,2651816980.0,39571146990.0,Palma,Illes Balears,Illes Balears,
1627,OJD,mallorcaconfidencial,mallorcaconfidencial.com,07013,2651816980.0,39571146990.0,Palma,Illes Balears,Illes Balears,
1628,OJD,mallorcamagazin,mallorcamagazin.com,07011,2651816980.0,39571146990.0,Palma,Illes Balears,Illes Balears,
1629,OJD,mallorcazeitung,mallorcazeitung.es,07006,2651816980.0,39571146990.0,Palma,Illes Balears,Illes Balears,
1630,OJD,manacornoticias,manacornoticias.com,07500,3209521360.0,39568890810.0,Manacor,Illes Balears,Illes Balears,El Levante de Mallorca/ es Llevant de Mallorca
1631,OJD,okdiario,okdiario.com - okbaleares,28033,,,,,,
1632,OJD,pasionporelmar,pasionporelmar.com,07005,2651816980.0,39571146990.0,Palma,Illes Balears,Illes Balears,
1633,OJD,periodicodeibiza,periodicodeibiza.es,07800,1436229030.0,38906669470.0,Eivissa,Illes Balears,Illes Balears,
1634,OJD,rac1,rac1.cat,08036,2176349270.0,41384246640.0,Barcelona,Barcelona,Cataluña,Barcelonès
1635,OJD,elnacional,elnacional.cat - català,08029,2176349270.0,41384246640.0,Barcelona,Barcelona,Cataluña,Barcelonès
1636,OJD,grup elmon,grup elmon.cat,08221,2012151410.0,41562363460.0,Terrassa,Barcelona,Cataluña,Vallès Occidental
1637,OJD,beteve,beteve.cat,08018,2176349270.0,41384246640.0,Barcelona,Barcelona,Cataluña,Barcelonès
1638,OJD,e-noticies - e-noticies,e-noticies - e-noticies.cat,08025,2176349270.0,41384246640.0,Barcelona,Barcelona,Cataluña,Barcelonès
1639,OJD,regió7,regió7.cat,08243,1827210260.0,41721995940.0,Manresa,Barcelona,Cataluña,Bages
1640,OJD,catalunyadiari,catalunyadiari.com,08006,2176349270.0,41384246640.0,Barcelona,Barcelona,Cataluña,Barcelonès
1641,OJD,grup racocatala (p),grup racocatala (p),08010,2176349270.0,41384246640.0,Barcelona,Barcelona,Cataluña,Barcelonès
1642,OJD,emporda,emporda.info,17600,2960278050.0,42267835900.0,Figueres,Girona,Cataluña,Alt Empordà
1643,OJD,elperiodico,elperiodico.cat,08908,2101382870.0,41359770510.0,L'Hospitalet de Llobregat,Barcelona,Cataluña,Baix Llobregat
1644,OJD,som,som,08020,2176349270.0,41384246640.0,Barcelona,Barcelona,Cataluña,Barcelonès
1645,OJD,línia comunicació21,línia comunicació21,08013,2176349270.0,41384246640.0,Barcelona,Barcelona,Cataluña,Barcelonès
1646,OJD,catalunyareligio,catalunyareligio.cat - català,08025,2176349270.0,41384246640.0,Barcelona,Barcelona,Cataluña,Barcelonès
1647,OJD,radiosabadell,radiosabadell.fm,08202,2107789940.0,41546958990.0,Sabadell,Barcelona,Cataluña,Vallès Occidental
1648,OJD,monesport,monesport.cat,08221,2012151410.0,41562363460.0,Terrassa,Barcelona,Cataluña,Vallès Occidental
1649,OJD,liniaxarxa,liniaxarxa.cat,08013,2176349270.0,41384246640.0,Barcelona,Barcelona,Cataluña,Barcelonès
1650,OJD,cugat,cugat.cat,08172,2085264720.0,41473454030.0,Sant Cugat del Vallès,Barcelona,Cataluña,Vallès Occidental
1651,OJD,eltriangle,eltriangle.eu - catala,08029,2176349270.0,41384246640.0,Barcelona,Barcelona,Cataluña,Barcelonès
1652,OJD,firescatalanes,firescatalanes.cat,08750,2017369080.0,41413211100.0,Molins de Rei,Barcelona,Cataluña,Baix Llobregat
1653,OJD,viumolinsderei,viumolinsderei.com,08750,2017369080.0,41413211100.0,Molins de Rei,Barcelona,Cataluña,Baix Llobregat
1654,OJD,elperiòdic,elperiòdic.ad,,,,,,,
1655,OJD,viurealspirineus,viurealspirineus.cat,25700,1461979470.0,42357708850.0,La Seu d'Urgell,Lleida,Cataluña,Alt Urgell
1656,OJD,junior-report,junior-report.cat,08010,2176349270.0,41384246640.0,Barcelona,Barcelona,Cataluña,Barcelonès
1657,OJD,thenewbarcelonapost,thenewbarcelonapost.cat - catala,08008,2176349270.0,41384246640.0,Barcelona,Barcelona,Cataluña,Barcelonès
1658,OJD,petitsapiens,petitsapiens.cat,08020,2176349270.0,41384246640.0,Barcelona,Barcelona,Cataluña,Barcelonès
1660,OJD,novatarrega,novatarrega.cat,25300,1139354290.0,41646584520.0,Tàrrega,Lleida,Cataluña,Urgell
1661,OJD,orgull,orgull.barcelona,08025,2176349270.0,41384246640.0,Barcelona,Barcelona,Cataluña,Barcelonès
1662,OJD,pirineustv,pirineustv.cat,25700,1461979470.0,42357708850.0,La Seu d'Urgell,Lleida,Cataluña,Alt Urgell
1663,OJD,ràdio ciutat de tarragona,ràdio ciutat de tarragona,43005,1258421900.0,41119102870.0,Tarragona,Tarragona,Cataluña,Tarragonès
1664,OJD,pirineusdigital,pirineusdigital.cat,25700,1461979470.0,42357708850.0,La Seu d'Urgell,Lleida,Cataluña,Alt Urgell
1665,OJD,culturab,culturab.cat,08025,2176349270.0,41384246640.0,Barcelona,Barcelona,Cataluña,Barcelonès
1667,OJD,aldia,aldia.cat,08015,2176349270.0,41384246640.0,Barcelona,Barcelona,Cataluña,Barcelonès
1668,OJD,sommontornes,sommontornes.cat,08020,2176349270.0,41384246640.0,Barcelona,Barcelona,Cataluña,Barcelonès
1669,OJD,plaurgelltv,plaurgelltv.cat,25007,0.62061934,41615273550.0,Lleida,Lleida,Cataluña,Segrià
1672,OJD,garriguestv,garriguestv.cat,25007,0.62061934,41615273550.0,Lleida,Lleida,Cataluña,Segrià
1673,OJD,sommontmelo,sommontmelo.cat,08020,2176349270.0,41384246640.0,Barcelona,Barcelona,Cataluña,Barcelonès
1674,OJD,amic,amic,08007,2176349270.0,41384246640.0,Barcelona,Barcelona,Cataluña,Barcelonès
1675,OJD,segarratv,segarratv.cat,25007,0.62061934,41615273550.0,Lleida,Lleida,Cataluña,Segrià
1676,OJD,amicficcions,amicficcions.cat,08007,2176349270.0,41384246640.0,Barcelona,Barcelona,Cataluña,Barcelonès
1677,OJD,segriatv,segriatv.cat,25007,0.62061934,41615273550.0,Lleida,Lleida,Cataluña,Segrià
1678,OJD,nogueratv,nogueratv.cat,25007,0.62061934,41615273550.0,Lleida,Lleida,Cataluña,Segrià
1679,OJD,baix camp radio,baix camp radio,43005,1258421900.0,41119102870.0,Tarragona,Tarragona,Cataluña,Tarragonès
1680,OJD,ebreexperience,ebreexperience.com,43007,1258421900.0,41119102870.0,Tarragona,Tarragona,Cataluña,Tarragonès
1681,OJD,radiovalira,radiovalira.ad,25700,1461979470.0,42357708850.0,La Seu d'Urgell,Lleida,Cataluña,Alt Urgell
1682,OJD,urgelltv,urgelltv.cat,25007,0.62061934,41615273550.0,Lleida,Lleida,Cataluña,Segrià
1683,OJD,21radio,21radio.cat,03500,,,,,,
1684,OJD,aue,aue.cat,25007,0.62061934,41615273550.0,Lleida,Lleida,Cataluña,Segrià
1685,OJD,fembase,fembase.cat,25001,0.62061934,41615273550.0,Lleida,Lleida,Cataluña,Segrià
1686,OJD,amicib,amicib.media,08007,2176349270.0,41384246640.0,Barcelona,Barcelona,Cataluña,Barcelonès
